{"type": "FeatureCollection", "features": [{"type": "Feature", "properties": {"district": "1000916", "segment": 1, "total_segments": 20, "km": 14.66, "villages": ["五榔村", "泉州村"]}, "geometry": {"type": "LineString", "coordinates": [[120.229948, 23.691313], [120.230401, 23.690974], [120.230328, 23.690789], [120.230504, 23.690749], [120.23049, 23.690623], [120.230673, 23.69078], [120.23104, 23.690707], [120.230916, 23.690394], [120.231119, 23.690374], [120.230764, 23.690995], [120.230819, 23.691534], [120.230629, 23.691509], [120.229865, 23.690564], [120.229307, 23.690756], [120.229119, 23.690706], [120.2291, 23.69042], [120.228832, 23.690431], [120.228752, 23.690635], [120.228499, 23.690702], [120.227862, 23.69046], [120.228117, 23.691196], [120.227716, 23.691349], [120.22855, 23.691115], [120.229433, 23.689836], [120.227231, 23.689435], [120.227248, 23.689141], [120.227113, 23.688982], [120.227232, 23.688721], [120.226919, 23.688519], [120.227445, 23.687881], [120.227454, 23.687647], [120.226593, 23.687389], [120.226055, 23.687503], [120.225879, 23.687332], [120.225716, 23.68732], [120.225615, 23.687425], [120.22567, 23.687491], [120.225513, 23.687595], [120.225705, 23.687884], [120.225598, 23.688074], [120.225497, 23.688053], [120.225875, 23.688266], [120.225939, 23.687917], [120.226351, 23.687827], [120.225871, 23.687086], [120.225558, 23.687219], [120.225382, 23.687392], [120.225325, 23.68761], [120.224947, 23.687982], [120.224882, 23.688582], [120.225068, 23.688605], [120.225263, 23.689004], [120.225711, 23.688886], [120.225728, 23.688676], [120.225857, 23.68914], [120.2258, 23.689211], [120.226128, 23.689326], [120.22604, 23.689494], [120.226123, 23.689671], [120.225764, 23.689964], [120.225479, 23.689731], [120.225589, 23.6896], [120.225538, 23.689436], [120.225406, 23.689547], [120.226399, 23.689501], [120.226465, 23.689839], [120.226796, 23.689792], [120.226992, 23.689863], [120.226608, 23.690213], [120.226705, 23.690239], [120.225946, 23.690304], [120.226268, 23.690583], [120.22676, 23.691703], [120.226497, 23.694526], [120.226164, 23.695521], [120.227761, 23.695234], [120.228952, 23.694473], [120.229177, 23.695952], [120.229615, 23.697845], [120.229178, 23.697991], [120.230763, 23.697432], [120.223427, 23.689024], [120.222617, 23.688982], [120.223372, 23.686038], [120.223186, 23.685569], [120.223303, 23.685308], [120.223415, 23.685462], [120.223614, 23.685472], [120.22376, 23.68606], [120.224129, 23.686365], [120.225495, 23.686498], [120.225711, 23.686781], [120.225382, 23.686946], [120.225862, 23.686694], [120.226622, 23.686476], [120.226682, 23.686364], [120.226798, 23.686324], [120.226937, 23.686394], [120.227191, 23.686271], [120.227786, 23.686853], [120.228343, 23.68606], [120.228216, 23.684996], [120.223288, 23.685034], [120.219572, 23.680497], [120.217844, 23.679748], [120.217832, 23.679649], [120.217306, 23.680459], [120.217375, 23.680531], [120.217074, 23.680556], [120.217021, 23.680463], [120.217097, 23.681041], [120.216999, 23.681064], [120.217237, 23.681025], [120.217337, 23.681137], [120.217261, 23.681211], [120.217397, 23.681007], [120.217647, 23.680887], [120.217734, 23.681019], [120.217546, 23.680756], [120.218548, 23.678428], [120.215951, 23.677788], [120.215429, 23.677803], [120.215033, 23.677274], [120.214677, 23.678035], [120.214128, 23.678165], [120.214098, 23.678408], [120.214532, 23.678746], [120.214581, 23.679031], [120.214109, 23.678781], [120.214061, 23.680107], [120.213721, 23.680022], [120.21342, 23.680335], [120.213176, 23.680124], [120.212953, 23.680578], [120.212875, 23.681087], [120.212718, 23.681351], [120.21285, 23.681714], [120.212694, 23.681716], [120.213491, 23.681351], [120.213596, 23.681132], [120.213258, 23.680933], [120.212357, 23.681114], [120.212041, 23.680494], [120.212448, 23.680228], [120.212864, 23.680071], [120.212514, 23.67996], [120.212351, 23.680002], [120.212711, 23.679641], [120.21257, 23.679516], [120.212736, 23.679329], [120.212944, 23.67925], [120.212956, 23.679397], [120.213084, 23.67951], [120.212987, 23.679671], [120.21267, 23.679081], [120.212411, 23.678881], [120.21244, 23.678529], [120.212778, 23.678672], [120.213011, 23.678978], [120.213269, 23.678665], [120.212884, 23.678053], [120.21256, 23.678153], [120.212461, 23.677951], [120.212759, 23.677643], [120.212615, 23.677447], [120.212007, 23.677867], [120.211972, 23.678874], [120.211661, 23.67934], [120.21152, 23.67929], [120.21056, 23.679618], [120.210056, 23.680217], [120.209979, 23.680251], [120.209944, 23.68018], [120.210666, 23.680641], [120.211133, 23.680536], [120.211164, 23.680211], [120.211514, 23.680535], [120.21071, 23.681098], [120.211731, 23.683053], [120.214096, 23.681795], [120.214681, 23.681866], [120.21492, 23.679582], [120.215199, 23.678878], [120.215121, 23.678605], [120.21517, 23.678521], [120.213542, 23.677855], [120.216267, 23.675467], [120.209766, 23.678136]]}}, {"type": "Feature", "properties": {"district": "1000916", "segment": 2, "total_segments": 20, "km": 14.99, "villages": ["泉州村", "牛厝村"]}, "geometry": {"type": "LineString", "coordinates": [[120.207466, 23.680551], [120.207157, 23.680584], [120.207457, 23.68154], [120.205959, 23.680325], [120.204631, 23.679904], [120.203767, 23.680763], [120.204609, 23.681034], [120.20358, 23.682617], [120.203094, 23.684901], [120.200686, 23.682219], [120.200751, 23.681843], [120.200319, 23.682522], [120.201388, 23.679128], [120.201769, 23.678841], [120.202385, 23.678686], [120.202608, 23.67849], [120.202625, 23.678322], [120.202821, 23.678604], [120.202629, 23.678717], [120.20253, 23.678924], [120.202208, 23.67836], [120.202273, 23.678039], [120.202418, 23.677916], [120.202434, 23.677337], [120.202205, 23.677523], [120.202072, 23.67781], [120.202002, 23.677472], [120.202064, 23.677261], [120.201841, 23.676806], [120.201722, 23.676849], [120.201828, 23.676434], [120.20217, 23.676582], [120.202185, 23.676945], [120.202177, 23.677061], [120.201856, 23.677171], [120.203089, 23.67814], [120.203122, 23.678265], [120.203028, 23.678304], [120.203127, 23.678524], [120.203596, 23.677907], [120.203818, 23.67788], [120.203939, 23.677581], [120.204188, 23.678034], [120.204035, 23.678185], [120.203393, 23.677682], [120.203523, 23.676891], [120.203659, 23.676775], [120.204089, 23.6757], [120.205314, 23.675184], [120.205506, 23.675751], [120.205951, 23.675073], [120.20514, 23.674209], [120.205568, 23.673654], [120.205729, 23.673565], [120.206857, 23.672094], [120.207047, 23.671645], [120.207014, 23.670979], [120.206489, 23.671106], [120.20735, 23.672318], [120.207689, 23.672111], [120.208166, 23.67223], [120.208453, 23.672121], [120.208031, 23.670603], [120.206961, 23.66861], [120.206989, 23.667977], [120.207176, 23.667737], [120.207185, 23.66757], [120.206995, 23.667535], [120.206931, 23.667681], [120.207381, 23.667688], [120.207522, 23.667651], [120.207633, 23.66743], [120.207408, 23.667399], [120.207233, 23.667215], [120.207949, 23.667246], [120.208458, 23.667117], [120.209456, 23.667246], [120.209656, 23.667669], [120.209873, 23.667716], [120.210035, 23.667659], [120.21048, 23.668489], [120.210792, 23.66789], [120.210994, 23.667712], [120.211214, 23.667774], [120.211588, 23.66767], [120.211542, 23.667948], [120.211605, 23.668166], [120.21188, 23.668057], [120.212234, 23.668729], [120.21179, 23.668857], [120.211989, 23.669391], [120.212003, 23.669701], [120.211924, 23.669926], [120.212083, 23.670212], [120.212087, 23.670423], [120.212461, 23.670646], [120.212458, 23.670783], [120.212603, 23.670869], [120.212817, 23.670842], [120.212989, 23.670628], [120.213124, 23.670599], [120.213061, 23.670381], [120.21296, 23.670416], [120.213222, 23.670431], [120.213177, 23.67015], [120.213619, 23.670083], [120.213611, 23.670021], [120.213487, 23.669697], [120.213311, 23.669812], [120.212795, 23.669937], [120.212784, 23.669765], [120.213266, 23.669491], [120.212861, 23.670146], [120.212562, 23.670296], [120.212651, 23.670598], [120.213192, 23.670799], [120.213133, 23.670929], [120.213562, 23.670897], [120.212882, 23.672682], [120.211032, 23.671742], [120.210542, 23.670073], [120.210467, 23.669424], [120.21025, 23.669204], [120.210653, 23.667604], [120.210559, 23.667574], [120.211899, 23.667185], [120.212195, 23.667129], [120.212225, 23.667224], [120.212374, 23.667041], [120.212349, 23.666863], [120.212277, 23.666837], [120.212875, 23.66714], [120.213225, 23.666917], [120.213698, 23.667243], [120.213868, 23.667171], [120.213922, 23.667258], [120.213723, 23.666987], [120.213397, 23.66761], [120.213149, 23.667651], [120.212861, 23.668087], [120.212693, 23.667799], [120.213919, 23.668], [120.213777, 23.666077], [120.213653, 23.665593], [120.213439, 23.665465], [120.213238, 23.665474], [120.213544, 23.665301], [120.213584, 23.664929], [120.213331, 23.664933], [120.212801, 23.664653], [120.212761, 23.664807], [120.21249, 23.664716], [120.212355, 23.664836], [120.21232, 23.665055], [120.212627, 23.665091], [120.212523, 23.664633], [120.212657, 23.664351], [120.212312, 23.66444], [120.212118, 23.664025], [120.211731, 23.66393], [120.210926, 23.663906], [120.210445, 23.66419], [120.210074, 23.663726], [120.210027, 23.663831], [120.209684, 23.663557], [120.209561, 23.663726], [120.209418, 23.6635], [120.209101, 23.6635], [120.209115, 23.664044], [120.209285, 23.663995], [120.20929, 23.663587], [120.208749, 23.6634], [120.208316, 23.663519], [120.208125, 23.663466], [120.208235, 23.663708], [120.207593, 23.663569], [120.207374, 23.663388], [120.207184, 23.663466], [120.207277, 23.663604], [120.206964, 23.663788], [120.207031, 23.663875], [120.206849, 23.66381], [120.206711, 23.663431], [120.206497, 23.663591], [120.206437, 23.663381], [120.206196, 23.663435], [120.206229, 23.663547], [120.205636, 23.663367], [120.205735, 23.663321], [120.2057, 23.664317], [120.205912, 23.664442], [120.206292, 23.664264], [120.206355, 23.664564], [120.206644, 23.664315], [120.206958, 23.664647], [120.206945, 23.664993], [120.207327, 23.665117], [120.207435, 23.664877], [120.207629, 23.66491], [120.207397, 23.664672], [120.207226, 23.664233], [120.207274, 23.664126], [120.207819, 23.664405], [120.208187, 23.664337], [120.208082, 23.664181], [120.208237, 23.664052], [120.208551, 23.664284], [120.20912, 23.663243], [120.209337, 23.663221], [120.207561, 23.663151], [120.208252, 23.665678], [120.205649, 23.664585], [120.205366, 23.664292], [120.2038, 23.663674], [120.203315, 23.662129], [120.201375, 23.666533], [120.201247, 23.666494], [120.201199, 23.666586], [120.201285, 23.66672], [120.20158, 23.666761], [120.201544, 23.666938], [120.200972, 23.666666], [120.200524, 23.6668], [120.200351, 23.666893], [120.200512, 23.667079], [120.200716, 23.667051], [120.200519, 23.667164], [120.200387, 23.667486], [120.199999, 23.667045], [120.19991, 23.666806], [120.200306, 23.666787], [120.201021, 23.667495], [120.201606, 23.667779], [120.201577, 23.667643], [120.201863, 23.667815], [120.201896, 23.667939], [120.20112, 23.668017], [120.201011, 23.667947], [120.200495, 23.668143], [120.199726, 23.66796], [120.199422, 23.668056], [120.19953, 23.668264], [120.199543, 23.668927], [120.19931, 23.669039], [120.199604, 23.669169], [120.199589, 23.669575], [120.198649, 23.669556], [120.198457, 23.669306], [120.198478, 23.66908], [120.198045, 23.668729], [120.198057, 23.66851], [120.197884, 23.66822], [120.198322, 23.668222], [120.198776, 23.668609]]}}, {"type": "Feature", "properties": {"district": "1000916", "segment": 3, "total_segments": 20, "km": 10.9, "villages": ["牛厝村"]}, "geometry": {"type": "LineString", "coordinates": [[120.198665, 23.668929], [120.19798, 23.669052], [120.198014, 23.669366], [120.19815, 23.669698], [120.198418, 23.669668], [120.198301, 23.669951], [120.198389, 23.670201], [120.19867, 23.670208], [120.19865, 23.670015], [120.198537, 23.669939], [120.19868, 23.669746], [120.199159, 23.670253], [120.199196, 23.670481], [120.198526, 23.670495], [120.198035, 23.670244], [120.199109, 23.671212], [120.199516, 23.671392], [120.199817, 23.671331], [120.200197, 23.671118], [120.2002, 23.671054], [120.200309, 23.671155], [120.20091, 23.670987], [120.20099, 23.6706], [120.2022, 23.668681], [120.199408, 23.672466], [120.203117, 23.67964], [120.213718, 23.674707], [120.213911, 23.674519], [120.21479, 23.674095], [120.216276, 23.673896], [120.217394, 23.674949], [120.218908, 23.673845], [120.218896, 23.673686], [120.219132, 23.674093], [120.220368, 23.673608], [120.220789, 23.67204], [120.219914, 23.669651], [120.219225, 23.669794], [120.214407, 23.665382], [120.21424, 23.665384], [120.214125, 23.665543], [120.213996, 23.665528], [120.214035, 23.665344], [120.213786, 23.665368], [120.213722, 23.665264], [120.213892, 23.665039], [120.214164, 23.665043], [120.214312, 23.664813], [120.214272, 23.664428], [120.214143, 23.664161], [120.213983, 23.664239], [120.213889, 23.664483], [120.214023, 23.664742], [120.213534, 23.664439], [120.213589, 23.664355], [120.213431, 23.663493], [120.212621, 23.66295], [120.214548, 23.661417], [120.217239, 23.66158], [120.217518, 23.661275], [120.21749, 23.661144], [120.218873, 23.660098], [120.21938, 23.662837], [120.214736, 23.664752], [120.214458, 23.66519], [120.211829, 23.665925], [120.212084, 23.665375], [120.211715, 23.66523], [120.211207, 23.666585], [120.190414, 23.670976], [120.190413, 23.671143]]}}, {"type": "Feature", "properties": {"district": "1000916", "segment": 4, "total_segments": 20, "km": 14.98, "villages": ["溪頂村"]}, "geometry": {"type": "LineString", "coordinates": [[120.191051, 23.671874], [120.191171, 23.671842], [120.191323, 23.672468], [120.192188, 23.671747], [120.193622, 23.674362], [120.193154, 23.675163], [120.194868, 23.673745], [120.197657, 23.672621], [120.19906, 23.676981], [120.201593, 23.679559], [120.199069, 23.682182], [120.199208, 23.683558], [120.198404, 23.68525], [120.197713, 23.685709], [120.195119, 23.684915], [120.193843, 23.684207], [120.191987, 23.682692], [120.192377, 23.682229], [120.191535, 23.682414], [120.191129, 23.682363], [120.191152, 23.683256], [120.191226, 23.683404], [120.191291, 23.683364], [120.189397, 23.68233], [120.189248, 23.682169], [120.189283, 23.681971], [120.189036, 23.681887], [120.189277, 23.681676], [120.189157, 23.681559], [120.188791, 23.681585], [120.188503, 23.681186], [120.188195, 23.681048], [120.188166, 23.681096], [120.187849, 23.681004], [120.187662, 23.680752], [120.187235, 23.680607], [120.187089, 23.680657], [120.187152, 23.680398], [120.186631, 23.680354], [120.186755, 23.680122], [120.186954, 23.680127], [120.186938, 23.679908], [120.186714, 23.679705], [120.186461, 23.679775], [120.186281, 23.680326], [120.186484, 23.680475], [120.186434, 23.680732], [120.186296, 23.68075], [120.186802, 23.680922], [120.186955, 23.681088], [120.186783, 23.681468], [120.187102, 23.68165], [120.187305, 23.681594], [120.187474, 23.681654], [120.187584, 23.681806], [120.187704, 23.681807], [120.187504, 23.682021], [120.187277, 23.682036], [120.187029, 23.681928], [120.1869, 23.681774], [120.186805, 23.681947], [120.186637, 23.681983], [120.186747, 23.682361], [120.186704, 23.68254], [120.186535, 23.682575], [120.186565, 23.682449], [120.186329, 23.681783], [120.186586, 23.681196], [120.186271, 23.68113], [120.187021, 23.68211], [120.187072, 23.682355], [120.18754, 23.682661], [120.187415, 23.682863], [120.187138, 23.682942], [120.187024, 23.682632], [120.186873, 23.682562], [120.186653, 23.682803], [120.186808, 23.682927], [120.186881, 23.683221], [120.187166, 23.683244], [120.187299, 23.6834], [120.187032, 23.683487], [120.187208, 23.68388], [120.187666, 23.683906], [120.187633, 23.6841], [120.187798, 23.684253], [120.187878, 23.683956], [120.187647, 23.68344], [120.187952, 23.682732], [120.187733, 23.682634], [120.187994, 23.682328], [120.188292, 23.682403], [120.187393, 23.682227], [120.188594, 23.683377], [120.189057, 23.683231], [120.187988, 23.684939], [120.187732, 23.685044], [120.187502, 23.685286], [120.187191, 23.68538], [120.187787, 23.685643], [120.18767, 23.68581], [120.187995, 23.685745], [120.188097, 23.686347], [120.186576, 23.686002], [120.185868, 23.686219], [120.185546, 23.686665], [120.185738, 23.686711], [120.185711, 23.68678], [120.185241, 23.686416], [120.185276, 23.686354], [120.185093, 23.686451], [120.18511, 23.686577], [120.184962, 23.686653], [120.184747, 23.687127], [120.184978, 23.687566], [120.184542, 23.688188], [120.184859, 23.688424], [120.185454, 23.688471], [120.185522, 23.688948], [120.185039, 23.689028], [120.18512, 23.689293], [120.184714, 23.689016], [120.184554, 23.689188], [120.183917, 23.687893], [120.184006, 23.687677], [120.183784, 23.687634], [120.184174, 23.686907], [120.184164, 23.68675], [120.183999, 23.686631], [120.183966, 23.686334], [120.183366, 23.686464], [120.183163, 23.686589], [120.182969, 23.686484], [120.182874, 23.68632], [120.182931, 23.686226], [120.183124, 23.6862], [120.182711, 23.686075], [120.182984, 23.685776], [120.182925, 23.685532], [120.183146, 23.685357], [120.183429, 23.68554], [120.183408, 23.685792], [120.183769, 23.685752], [120.183745, 23.68598], [120.183835, 23.686052], [120.183639, 23.686069], [120.184165, 23.685643], [120.184642, 23.685385], [120.184536, 23.685185], [120.184864, 23.685833], [120.185097, 23.685875], [120.185084, 23.686048], [120.185346, 23.685993], [120.185471, 23.686241], [120.183505, 23.686828], [120.183403, 23.6867], [120.183147, 23.686814], [120.183542, 23.687064], [120.183335, 23.687226], [120.182623, 23.686431], [120.183137, 23.684815], [120.183993, 23.684809], [120.188927, 23.685116], [120.189692, 23.685956], [120.189596, 23.687003], [120.189649, 23.68746], [120.189846, 23.687535], [120.189283, 23.688364], [120.189399, 23.69121], [120.189354, 23.691484], [120.18968, 23.69217], [120.187839, 23.694474], [120.187948, 23.694935], [120.187712, 23.69496], [120.187448, 23.695825], [120.185843, 23.69201], [120.190778, 23.685615], [120.189469, 23.681325], [120.189346, 23.681221], [120.189753, 23.680225], [120.189903, 23.68028], [120.189415, 23.679633], [120.189398, 23.679394], [120.189189, 23.679399], [120.189134, 23.679206], [120.189031, 23.679912], [120.188862, 23.680073], [120.188656, 23.679898], [120.188669, 23.679807], [120.188423, 23.679907], [120.187544, 23.679837], [120.187506, 23.679746], [120.187887, 23.679381], [120.187423, 23.679089], [120.187917, 23.678852], [120.187827, 23.678543], [120.187555, 23.678227], [120.187737, 23.676954], [120.186733, 23.677267], [120.186611, 23.677411], [120.186437, 23.677289], [120.186323, 23.677517], [120.18641, 23.677602], [120.186732, 23.67747]]}}, {"type": "Feature", "properties": {"district": "1000916", "segment": 5, "total_segments": 20, "km": 14.96, "villages": ["溪頂村", "海口村"]}, "geometry": {"type": "LineString", "coordinates": [[120.186126, 23.677384], [120.185863, 23.677548], [120.185975, 23.67809], [120.186056, 23.678103], [120.185693, 23.678373], [120.186231, 23.678618], [120.186695, 23.678488], [120.186879, 23.678919], [120.186886, 23.679338], [120.186598, 23.679019], [120.186375, 23.679068], [120.186356, 23.679203], [120.186534, 23.678206], [120.186712, 23.678354], [120.186885, 23.678259], [120.186931, 23.678316], [120.186867, 23.678227], [120.187064, 23.678549], [120.186112, 23.67691], [120.186149, 23.676644], [120.189754, 23.677416], [120.190059, 23.677885], [120.190413, 23.677822], [120.189953, 23.678791], [120.192346, 23.678585], [120.190358, 23.676473], [120.19019, 23.674752], [120.18203, 23.680252], [120.190455, 23.698753], [120.190727, 23.699263], [120.190889, 23.699233], [120.190991, 23.699336], [120.190864, 23.699582], [120.190216, 23.699902], [120.189985, 23.699778], [120.190349, 23.699504], [120.190613, 23.699475], [120.190527, 23.699321], [120.19114, 23.699489], [120.191667, 23.699283], [120.191755, 23.699065], [120.191684, 23.699046], [120.191824, 23.698983], [120.191879, 23.698747], [120.191563, 23.698835], [120.191354, 23.698793], [120.191303, 23.698585], [120.19107, 23.698976], [120.191349, 23.69917], [120.191293, 23.699747], [120.19119, 23.699736], [120.191116, 23.699865], [120.190826, 23.699998], [120.190621, 23.700217], [120.190267, 23.700213], [120.190342, 23.700674], [120.190494, 23.700748], [120.191177, 23.700712], [120.191026, 23.700586], [120.190994, 23.700449], [120.191216, 23.700495], [120.191235, 23.700414], [120.191315, 23.700391], [120.1913, 23.700465], [120.191555, 23.700333], [120.191608, 23.700382], [120.191764, 23.700325], [120.191781, 23.70025], [120.191842, 23.700295], [120.191628, 23.700302], [120.191624, 23.700034], [120.191435, 23.70007], [120.19069, 23.700563], [120.190198, 23.700693], [120.189461, 23.700754], [120.189575, 23.701077], [120.189509, 23.701199], [120.189553, 23.701461], [120.189812, 23.701227], [120.189977, 23.701296], [120.190312, 23.701211], [120.190322, 23.701023], [120.190558, 23.701098], [120.191046, 23.701004], [120.191007, 23.701437], [120.191071, 23.701574], [120.190628, 23.701587], [120.190406, 23.701982], [120.190269, 23.702079], [120.189544, 23.701979], [120.189509, 23.7021], [120.189537, 23.70184], [120.189163, 23.701843], [120.189209, 23.702171], [120.189124, 23.701486], [120.189033, 23.70152], [120.189085, 23.701303], [120.188952, 23.701145], [120.188994, 23.701055], [120.189113, 23.701126], [120.189937, 23.701039], [120.189511, 23.700302], [120.189444, 23.699761], [120.191586, 23.699721], [120.192015, 23.699511], [120.192078, 23.699326], [120.192264, 23.699261], [120.192334, 23.699424], [120.192246, 23.699468], [120.192235, 23.699806], [120.191975, 23.699885], [120.192569, 23.700002], [120.192653, 23.699909], [120.192557, 23.699719], [120.19295, 23.700061], [120.192988, 23.70022], [120.193538, 23.700011], [120.193614, 23.699918], [120.19397, 23.699884], [120.193763, 23.699718], [120.193998, 23.699689], [120.194067, 23.699391], [120.193834, 23.699387], [120.193799, 23.699284], [120.193555, 23.699525], [120.193434, 23.699452], [120.193302, 23.698672], [120.193409, 23.698632], [120.193636, 23.698762], [120.193591, 23.698867], [120.193756, 23.698983], [120.193715, 23.699073], [120.194035, 23.698961], [120.193903, 23.698792], [120.193987, 23.69867], [120.194186, 23.698629], [120.194199, 23.698754], [120.194459, 23.69874], [120.194436, 23.698806], [120.194396, 23.69851], [120.19417, 23.698285], [120.194433, 23.698071], [120.194168, 23.697751], [120.193803, 23.698019], [120.193708, 23.697861], [120.193455, 23.698305], [120.193771, 23.698481], [120.193764, 23.698404], [120.192873, 23.698679], [120.192906, 23.698503], [120.192555, 23.698568], [120.192057, 23.698478], [120.191952, 23.698133], [120.191719, 23.698245], [120.193131, 23.699056], [120.193075, 23.699463], [120.192453, 23.700548], [120.192161, 23.700632], [120.191856, 23.700548], [120.191811, 23.700619], [120.191764, 23.700565], [120.191716, 23.700635], [120.191677, 23.700585], [120.191399, 23.700641], [120.191644, 23.701132], [120.192368, 23.700907], [120.193339, 23.70088], [120.193407, 23.700436], [120.193657, 23.700293], [120.194005, 23.700316], [120.194017, 23.700419], [120.193889, 23.700565], [120.193842, 23.700533], [120.194531, 23.700483], [120.19466, 23.700567], [120.194881, 23.700503], [120.194911, 23.700306], [120.194726, 23.700326], [120.194798, 23.70012], [120.194326, 23.700099], [120.19416, 23.700284], [120.194223, 23.69968], [120.194599, 23.699383], [120.194822, 23.699545], [120.194967, 23.699421], [120.194815, 23.699321], [120.194769, 23.698908], [120.194674, 23.698856], [120.194685, 23.698685], [120.194948, 23.698614], [120.19492, 23.69854], [120.195111, 23.699085], [120.195186, 23.699245], [120.195245, 23.699236], [120.195294, 23.69954], [120.195027, 23.699672], [120.195179, 23.699966], [120.195021, 23.69997], [120.195072, 23.700104], [120.194557, 23.69996], [120.194618, 23.699735], [120.194562, 23.699658], [120.194439, 23.699739], [120.194152, 23.699185], [120.194271, 23.699084], [120.194425, 23.69923], [120.194516, 23.699018], [120.195566, 23.700315], [120.195116, 23.70079], [120.194772, 23.700755], [120.19469, 23.700862], [120.194644, 23.700766], [120.194052, 23.700841], [120.193656, 23.700582], [120.193023, 23.700602], [120.193445, 23.701407], [120.193284, 23.701658], [120.1936, 23.701956], [120.193796, 23.70188], [120.193803, 23.701957], [120.193927, 23.701861], [120.193945, 23.701959], [120.19429, 23.701986], [120.194181, 23.701638], [120.194625, 23.701101], [120.19468, 23.701128], [120.194513, 23.700906], [120.194944, 23.701274], [120.194892, 23.701803], [120.193719, 23.702529], [120.193637, 23.702696], [120.193869, 23.702704], [120.193897, 23.702649], [120.193611, 23.702945], [120.19319, 23.703007], [120.193163, 23.70316], [120.193772, 23.703956], [120.193945, 23.70395], [120.194486, 23.703488], [120.195081, 23.703591], [120.195127, 23.703775], [120.193446, 23.702201], [120.193224, 23.702099], [120.190215, 23.702447], [120.190045, 23.702749], [120.189634, 23.702627], [120.189563, 23.702842], [120.18976, 23.703341], [120.190383, 23.70412], [120.190317, 23.704289], [120.190486, 23.70571], [120.190611, 23.705615], [120.190731, 23.705845], [120.191036, 23.706014], [120.191174, 23.706388], [120.191938, 23.70705], [120.191443, 23.705266], [120.189944, 23.705687], [120.189845, 23.706427]]}}, {"type": "Feature", "properties": {"district": "1000916", "segment": 6, "total_segments": 20, "km": 13.84, "villages": ["海口村", "海南村"]}, "geometry": {"type": "LineString", "coordinates": [[120.188935, 23.703514], [120.187256, 23.702919], [120.181163, 23.705651], [120.176481, 23.706306], [120.176767, 23.707941], [120.173682, 23.705039], [120.171446, 23.706507], [120.181852, 23.710541], [120.182168, 23.710841], [120.182428, 23.712813], [120.192913, 23.709929], [120.193706, 23.708751], [120.197271, 23.699891], [120.197018, 23.698871], [120.196854, 23.698918], [120.196738, 23.69875], [120.197101, 23.698852], [120.197643, 23.698657], [120.19771, 23.698748], [120.19806, 23.69872], [120.198043, 23.698633], [120.198098, 23.698818], [120.198398, 23.699138], [120.198308, 23.699383], [120.198376, 23.699404], [120.198209, 23.699485], [120.198408, 23.699531], [120.198457, 23.699675], [120.198596, 23.699756], [120.19888, 23.699676], [120.198843, 23.699559], [120.198905, 23.699493], [120.198719, 23.699271], [120.19868, 23.699076], [120.198786, 23.699078], [120.198801, 23.699001], [120.198709, 23.698929], [120.198787, 23.698522], [120.198752, 23.698254], [120.198673, 23.698194], [120.198792, 23.697014], [120.198739, 23.696572], [120.19891, 23.696347], [120.198879, 23.69627], [120.199212, 23.696422], [120.199243, 23.696573], [120.199126, 23.696809], [120.199254, 23.697016], [120.199214, 23.697342], [120.199479, 23.69747], [120.199501, 23.697895], [120.199645, 23.698073], [120.199594, 23.698172], [120.199336, 23.698096], [120.199289, 23.697919], [120.199118, 23.698034], [120.199066, 23.697995], [120.199105, 23.698197], [120.198736, 23.698121], [120.198381, 23.69828], [120.198323, 23.698469], [120.198379, 23.698598], [120.197525, 23.698089], [120.197391, 23.697917], [120.197534, 23.697821], [120.197534, 23.697679], [120.19734, 23.697408], [120.197499, 23.697213], [120.197466, 23.697084], [120.197565, 23.696946], [120.197747, 23.696958], [120.196969, 23.697043], [120.196784, 23.697276], [120.196935, 23.697387], [120.196854, 23.697611], [120.196709, 23.697467], [120.196388, 23.697438], [120.196318, 23.697531], [120.196412, 23.697644], [120.196509, 23.698074], [120.196268, 23.698211], [120.196277, 23.698364], [120.196094, 23.698314], [120.196027, 23.698548], [120.196238, 23.698603], [120.196015, 23.698844], [120.195605, 23.698465], [120.195416, 23.698388], [120.19582, 23.697568], [120.195713, 23.697144], [120.195053, 23.697324], [120.194809, 23.697533], [120.195774, 23.696654], [120.196274, 23.697026], [120.196223, 23.697272], [120.196642, 23.696921], [120.196637, 23.696759], [120.196509, 23.696653], [120.196554, 23.69656], [120.196883, 23.696552], [120.196973, 23.696865], [120.197214, 23.696798], [120.19726, 23.696728], [120.196882, 23.696312], [120.198155, 23.695926], [120.198373, 23.696103], [120.198387, 23.697404], [120.198314, 23.697634], [120.198377, 23.697923], [120.198237, 23.698119], [120.198311, 23.698157], [120.198104, 23.697979], [120.198013, 23.697631], [120.197219, 23.697838], [120.197179, 23.69762], [120.196954, 23.69784], [120.197183, 23.698366], [120.196592, 23.699123], [120.197956, 23.69913], [120.19909, 23.699351], [120.199134, 23.699097], [120.199954, 23.698514], [120.200211, 23.698155], [120.200116, 23.697932], [120.200084, 23.697409], [120.199852, 23.697175], [120.199534, 23.697208], [120.199484, 23.696998], [120.199796, 23.696692], [120.200071, 23.696862], [120.200561, 23.69691], [120.200526, 23.696603], [120.200829, 23.696324], [120.201063, 23.6965], [120.201213, 23.696274], [120.201542, 23.696195], [120.20131, 23.695877], [120.200994, 23.696039], [120.200605, 23.696033], [120.200502, 23.69547], [120.199401, 23.696394], [120.199418, 23.696516], [120.198798, 23.695631], [120.198792, 23.695373], [120.198419, 23.694967], [120.198938, 23.694596], [120.198849, 23.694282], [120.198693, 23.694337], [120.198263, 23.69401], [120.198162, 23.693804], [120.198287, 23.693658], [120.198058, 23.693165], [120.198988, 23.693107], [120.199151, 23.693884], [120.199128, 23.691538], [120.19827, 23.690999], [120.198822, 23.689823], [120.199059, 23.689686], [120.203913, 23.695786], [120.204368, 23.697089], [120.203946, 23.697492], [120.199815, 23.697681], [120.199789, 23.69757], [120.199646, 23.697807], [120.199794, 23.697994], [120.199193, 23.697719]]}}, {"type": "Feature", "properties": {"district": "1000916", "segment": 7, "total_segments": 20, "km": 14.49, "villages": ["台西村", "海北村"]}, "geometry": {"type": "LineString", "coordinates": [[120.19937, 23.698374], [120.199458, 23.698584], [120.199681, 23.698506], [120.199959, 23.698269], [120.200015, 23.698309], [120.200035, 23.698231], [120.200094, 23.698271], [120.199923, 23.698128], [120.199768, 23.698246], [120.199708, 23.698782], [120.199451, 23.698908], [120.199595, 23.69937], [120.199679, 23.69951], [120.199769, 23.699522], [120.199881, 23.699869], [120.19976, 23.699952], [120.199918, 23.699939], [120.200052, 23.700067], [120.199834, 23.700167], [120.19986, 23.700391], [120.20015, 23.700354], [120.200384, 23.700425], [120.200412, 23.700521], [120.200534, 23.700491], [120.200594, 23.700651], [120.200416, 23.700694], [120.20036, 23.700551], [120.199913, 23.700611], [120.199955, 23.700779], [120.199892, 23.700523], [120.199183, 23.700658], [120.199202, 23.700937], [120.199048, 23.701055], [120.198755, 23.701091], [120.198657, 23.701033], [120.19876, 23.700996], [120.198833, 23.700819], [120.198455, 23.700869], [120.198502, 23.700987], [120.19848, 23.70073], [120.198309, 23.700693], [120.19815, 23.70082], [120.198091, 23.700981], [120.198032, 23.700549], [120.197065, 23.700671], [120.196841, 23.700621], [120.196806, 23.700677], [120.195342, 23.700746], [120.19544, 23.700507], [120.195231, 23.700483], [120.198107, 23.700311], [120.198162, 23.70022], [120.198642, 23.700262], [120.198651, 23.700008], [120.198739, 23.700051], [120.198704, 23.699947], [120.198519, 23.699987], [120.198592, 23.700181], [120.198455, 23.700193], [120.198476, 23.699962], [120.19831, 23.699957], [120.198152, 23.699979], [120.197984, 23.700199], [120.19773, 23.700109], [120.197674, 23.699967], [120.197029, 23.699892], [120.196947, 23.699986], [120.196711, 23.699957], [120.19594, 23.700224], [120.195992, 23.699658], [120.196074, 23.700883], [120.195916, 23.700966], [120.196222, 23.700982], [120.196528, 23.701109], [120.196464, 23.701317], [120.196975, 23.701457], [120.197117, 23.70123], [120.196908, 23.701005], [120.197546, 23.701092], [120.197598, 23.701214], [120.198265, 23.700488], [120.198373, 23.700551], [120.199142, 23.700415], [120.199221, 23.700275], [120.199103, 23.700201], [120.198953, 23.699874], [120.199387, 23.69968], [120.199433, 23.699501], [120.199901, 23.699329], [120.200022, 23.699775], [120.200135, 23.699865], [120.201094, 23.69946], [120.201232, 23.699568], [120.201629, 23.699457], [120.2017, 23.699507], [120.201681, 23.699401], [120.202168, 23.699319], [120.202497, 23.699169], [120.202492, 23.699278], [120.202796, 23.699087], [120.202592, 23.698761], [120.202183, 23.698886], [120.202361, 23.698771], [120.202977, 23.698634], [120.203381, 23.69841], [120.204092, 23.698481], [120.20441, 23.698415], [120.204675, 23.698211], [120.204787, 23.698218], [120.205205, 23.697673], [120.205673, 23.697858], [120.205705, 23.697789], [120.205116, 23.698633], [120.204367, 23.699202], [120.20333, 23.699326], [120.202499, 23.699864], [120.202314, 23.700074], [120.202105, 23.699888], [120.201638, 23.699709], [120.201581, 23.699194], [120.201667, 23.699088], [120.201764, 23.699135], [120.20187, 23.698982], [120.201248, 23.699239], [120.200979, 23.699651], [120.200186, 23.699994], [120.200254, 23.700041], [120.199382, 23.700119], [120.199068, 23.700664], [120.198974, 23.700704], [120.198781, 23.70022], [120.199578, 23.701037], [120.19961, 23.701171], [120.200042, 23.701135], [120.200158, 23.702055], [120.200306, 23.701907], [120.200802, 23.701771], [120.201176, 23.701818], [120.2008, 23.700889], [120.200592, 23.70092], [120.200863, 23.700439], [120.202206, 23.701381], [120.199543, 23.701746], [120.196597, 23.701754], [120.196197, 23.701826], [120.195844, 23.701293], [120.195429, 23.701075], [120.201225, 23.698655], [120.201476, 23.698642], [120.200153, 23.70198], [120.200239, 23.702621], [120.200452, 23.702738], [120.200272, 23.702871], [120.200257, 23.703319], [120.200501, 23.703273], [120.200701, 23.703353], [120.200633, 23.703502], [120.200683, 23.703658], [120.200824, 23.703736], [120.200675, 23.703827], [120.200719, 23.704074], [120.200919, 23.703958], [120.200492, 23.704208], [120.200577, 23.704776], [120.200766, 23.704932], [120.200245, 23.705065], [120.200145, 23.704688], [120.199988, 23.704584], [120.19986, 23.704618], [120.199739, 23.704324], [120.199417, 23.70434], [120.199395, 23.704161], [120.199482, 23.704165], [120.199477, 23.704033], [120.199324, 23.703836], [120.199865, 23.703806], [120.200034, 23.704026], [120.200052, 23.704202], [120.200369, 23.703977], [120.20031, 23.70362], [120.199947, 23.703493], [120.200002, 23.703349], [120.199819, 23.702321], [120.19961, 23.702357], [120.199633, 23.702529], [120.199427, 23.702719], [120.199229, 23.70267], [120.199265, 23.702489], [120.198979, 23.702528], [120.199077, 23.702668], [120.19911, 23.702967], [120.199191, 23.7031], [120.199345, 23.703126], [120.199345, 23.703366], [120.199388, 23.703489], [120.199462, 23.703461], [120.199022, 23.703792], [120.199245, 23.704566], [120.199292, 23.704637], [120.199481, 23.704536], [120.199456, 23.704485], [120.199558, 23.704746], [120.199363, 23.704902], [120.19926, 23.704854], [120.199258, 23.705115], [120.199473, 23.705145], [120.199927, 23.704704], [120.199967, 23.705405], [120.199767, 23.705453], [120.199921, 23.705679], [120.199715, 23.705823], [120.20011, 23.705814], [120.200237, 23.70593], [120.200249, 23.706427], [120.20034, 23.706441], [120.200142, 23.706629], [120.199996, 23.70705], [120.200371, 23.707415], [120.200461, 23.707617], [120.200092, 23.707648], [120.200457, 23.707288], [120.200819, 23.707415], [120.200809, 23.708092], [120.200935, 23.708673], [120.201086, 23.708765], [120.201254, 23.708676], [120.200861, 23.709179], [120.201014, 23.709555], [120.200995, 23.709911], [120.200534, 23.709839], [120.200586, 23.709781], [120.200497, 23.709056], [120.200605, 23.708973], [120.200505, 23.708711], [120.200257, 23.709066], [120.200077, 23.708421], [120.200129, 23.708179], [120.200495, 23.708123], [120.202864, 23.706924], [120.203074, 23.707017], [120.200979, 23.706199], [120.200198, 23.705435], [120.199294, 23.705593], [120.199098, 23.705105], [120.198772, 23.705206], [120.198341, 23.704616], [120.198561, 23.704375], [120.198474, 23.704317], [120.198543, 23.70427], [120.198378, 23.704235], [120.198806, 23.704509], [120.198978, 23.704461], [120.198678, 23.703488], [120.19877, 23.703089], [120.198701, 23.702995], [120.198772, 23.702826], [120.198708, 23.702651], [120.198021, 23.70293], [120.197254, 23.702974], [120.196802, 23.703334], [120.196406, 23.703383], [120.197625, 23.703681], [120.200498, 23.703019], [120.200651, 23.702342], [120.195161, 23.710709], [120.199362, 23.715771]]}}, {"type": "Feature", "properties": {"district": "1000916", "segment": 8, "total_segments": 20, "km": 14.79, "villages": ["五港村"]}, "geometry": {"type": "LineString", "coordinates": [[120.19904, 23.715839], [120.198832, 23.715525], [120.199121, 23.715483], [120.199509, 23.715247], [120.199526, 23.715161], [120.199427, 23.714604], [120.199263, 23.714444], [120.199599, 23.714337], [120.199615, 23.714176], [120.199923, 23.714059], [120.200008, 23.714179], [120.199995, 23.714519], [120.200172, 23.714538], [120.200212, 23.714664], [120.200056, 23.714702], [120.20023, 23.714944], [120.20002, 23.715051], [120.200114, 23.715201], [120.200519, 23.715184], [120.200545, 23.715372], [120.200449, 23.715498], [120.200543, 23.715905], [120.20078, 23.715878], [120.200808, 23.715962], [120.20069, 23.715643], [120.200721, 23.715225], [120.200616, 23.714986], [120.200531, 23.715052], [120.200507, 23.71488], [120.20062, 23.714742], [120.20097, 23.714699], [120.200918, 23.714554], [120.200977, 23.714349], [120.201386, 23.714576], [120.201489, 23.715664], [120.201068, 23.715663], [120.201004, 23.714806], [120.200276, 23.714245], [120.200237, 23.714037], [120.200529, 23.714021], [120.20051, 23.713931], [120.200667, 23.713911], [120.200512, 23.713611], [120.200367, 23.713671], [120.200152, 23.71333], [120.200407, 23.7131], [120.200861, 23.713136], [120.200864, 23.713397], [120.201263, 23.713277], [120.201763, 23.713784], [120.201832, 23.714355], [120.201975, 23.714699], [120.202501, 23.715099], [120.202605, 23.715283], [120.202333, 23.715436], [120.202795, 23.716022], [120.202485, 23.716207], [120.202259, 23.716194], [120.202008, 23.71656], [120.201943, 23.716826], [120.202165, 23.716832], [120.202302, 23.716995], [120.202431, 23.716931], [120.202568, 23.716617], [120.20252, 23.716577], [120.203159, 23.716317], [120.203247, 23.716762], [120.203914, 23.716463], [120.204537, 23.715807], [120.204795, 23.715685], [120.20382, 23.714792], [120.205546, 23.714201], [120.206453, 23.714952], [120.20699, 23.715127], [120.20709, 23.715575], [120.207014, 23.715606], [120.207283, 23.715227], [120.208095, 23.715289], [120.208168, 23.715192], [120.20796, 23.715152], [120.208247, 23.714841], [120.208436, 23.71475], [120.208245, 23.71446], [120.208439, 23.714072], [120.208283, 23.714104], [120.208309, 23.713904], [120.208578, 23.713889], [120.208623, 23.71401], [120.208912, 23.714059], [120.209112, 23.713934], [120.209105, 23.713813], [120.209265, 23.713711], [120.209366, 23.713781], [120.209228, 23.7136], [120.20924, 23.714058], [120.20957, 23.714272], [120.209645, 23.714247], [120.209535, 23.714523], [120.20931, 23.714354], [120.208791, 23.7143], [120.20878, 23.713473], [120.208599, 23.713428], [120.208558, 23.713315], [120.208034, 23.713352], [120.207913, 23.713504], [120.207944, 23.713593], [120.207712, 23.713561], [120.207803, 23.713065], [120.207907, 23.713107], [120.208141, 23.712926], [120.208045, 23.712811], [120.208198, 23.712868], [120.207524, 23.713043], [120.206982, 23.713325], [120.206977, 23.713704], [120.20718, 23.714126], [120.206783, 23.714487], [120.207014, 23.714602], [120.207576, 23.714453], [120.207887, 23.714736], [120.208001, 23.714661], [120.208349, 23.715023], [120.208684, 23.714973], [120.208479, 23.715546], [120.208291, 23.715468], [120.207869, 23.715614], [120.207747, 23.715509], [120.207664, 23.715799], [120.207729, 23.71613], [120.207921, 23.716356], [120.208083, 23.71675], [120.208434, 23.716746], [120.20849, 23.716847], [120.209145, 23.715291], [120.20949, 23.715193], [120.209671, 23.714988], [120.209934, 23.715111], [120.209871, 23.714617], [120.209322, 23.714787], [120.209367, 23.714925], [120.209542, 23.713983], [120.209555, 23.713165], [120.209763, 23.713098], [120.209738, 23.712954], [120.210046, 23.713035], [120.208756, 23.71243], [120.208448, 23.713543], [120.208502, 23.713698], [120.208247, 23.713598], [120.208119, 23.713712], [120.209626, 23.710518], [120.206928, 23.710067], [120.203779, 23.710709], [120.203786, 23.711179], [120.203037, 23.710983], [120.201189, 23.710933], [120.201115, 23.711346], [120.201214, 23.711666], [120.200838, 23.712089], [120.200747, 23.712011], [120.200722, 23.710899], [120.201121, 23.710591], [120.19918, 23.711889], [120.199318, 23.71228], [120.199854, 23.71323], [120.199794, 23.713474], [120.199123, 23.713978], [120.198639, 23.71355], [120.198198, 23.712902], [120.1973, 23.712789], [120.196962, 23.712841], [120.196763, 23.712707], [120.196428, 23.713039], [120.195856, 23.712947], [120.197106, 23.713324], [120.197011, 23.713702], [120.19774, 23.714694], [120.197909, 23.715101], [120.198545, 23.715363], [120.198613, 23.715245], [120.198926, 23.715245], [120.199177, 23.715005], [120.199581, 23.715284], [120.199591, 23.715483], [120.199867, 23.715538], [120.200026, 23.716066], [120.199855, 23.716088], [120.199788, 23.716435], [120.199924, 23.716363], [120.200188, 23.716476], [120.200372, 23.716858], [120.20006, 23.716952], [120.199754, 23.716754], [120.199859, 23.716566], [120.199567, 23.716608], [120.199138, 23.716052], [120.198778, 23.716159], [120.198536, 23.71574], [120.199251, 23.716786], [120.199495, 23.717023], [120.199288, 23.717469], [120.200098, 23.716782], [120.200196, 23.716345], [120.200352, 23.716223], [120.200179, 23.715765], [120.200255, 23.715549], [120.199802, 23.715248], [120.199971, 23.715015], [120.199714, 23.714913], [120.199797, 23.714607], [120.199789, 23.715892], [120.200511, 23.716128], [120.200937, 23.71657], [120.201177, 23.716542], [120.201219, 23.716768], [120.201049, 23.716821], [120.201116, 23.716966], [120.201011, 23.717236], [120.201159, 23.717311], [120.201135, 23.717552], [120.200755, 23.71783], [120.20063, 23.717133], [120.200817, 23.717095], [120.20038, 23.717166], [120.200865, 23.716832], [120.201312, 23.716946], [120.201367, 23.717159], [120.201501, 23.717024], [120.201669, 23.717065], [120.201544, 23.716754], [120.201488, 23.716801], [120.201459, 23.716464], [120.201651, 23.7163], [120.201495, 23.716073], [120.20114, 23.715941], [120.200995, 23.715802], [120.201176, 23.716322], [120.201162, 23.716473], [120.200804, 23.716191], [120.198959, 23.716562], [120.198449, 23.717584], [120.198316, 23.718156], [120.197625, 23.717769], [120.197105, 23.717596], [120.197398, 23.717279], [120.193733, 23.718923], [120.193252, 23.719608], [120.193212, 23.719805], [120.192965, 23.719822], [120.19293, 23.719641], [120.192575, 23.719646], [120.192078, 23.720035], [120.189894, 23.719738], [120.188969, 23.720275], [120.187999, 23.720303], [120.187984, 23.720118], [120.187761, 23.720127], [120.187767, 23.720072], [120.187854, 23.720572], [120.188065, 23.720542], [120.187463, 23.719111], [120.187263, 23.71718], [120.18967, 23.716639], [120.183332, 23.71964]]}}, {"type": "Feature", "properties": {"district": "1000916", "segment": 9, "total_segments": 20, "km": 14.99, "villages": ["五港村", "永豐村"]}, "geometry": {"type": "LineString", "coordinates": [[120.178723, 23.719414], [120.172098, 23.721813], [120.172869, 23.726537], [120.165474, 23.723019], [120.183973, 23.724466], [120.202799, 23.717546], [120.203418, 23.717835], [120.203595, 23.717831], [120.204229, 23.718066], [120.204892, 23.718422], [120.205699, 23.71865], [120.206133, 23.718964], [120.206903, 23.719028], [120.206753, 23.718241], [120.210492, 23.717075], [120.212084, 23.713886], [120.198799, 23.711277], [120.197363, 23.710257], [120.197323, 23.710291], [120.201464, 23.716973], [120.206419, 23.718914], [120.207187, 23.718859], [120.207279, 23.71895], [120.207328, 23.71845], [120.207992, 23.717736], [120.208177, 23.717652], [120.208279, 23.717691], [120.208467, 23.719335], [120.208684, 23.719923], [120.208572, 23.720173], [120.208476, 23.720225], [120.208418, 23.720062], [120.207739, 23.719425], [120.207622, 23.719545], [120.207184, 23.719189], [120.207867, 23.72089], [120.207979, 23.720891], [120.20804, 23.721109], [120.207812, 23.721146], [120.208257, 23.7208], [120.208439, 23.72087], [120.208545, 23.720747], [120.209318, 23.72099], [120.20952, 23.721183], [120.209544, 23.72105], [120.21008, 23.721176], [120.210361, 23.721547], [120.210682, 23.721734], [120.210782, 23.721329], [120.21109, 23.721165], [120.211095, 23.721057], [120.211328, 23.72101], [120.211524, 23.720839], [120.210543, 23.720916], [120.210392, 23.721037], [120.210475, 23.721156], [120.210669, 23.721109], [120.210509, 23.721347], [120.210409, 23.721812], [120.210303, 23.721892], [120.210228, 23.721793], [120.210134, 23.721921], [120.209902, 23.721495], [120.210128, 23.721103], [120.2101, 23.720998], [120.210691, 23.720521], [120.211198, 23.720441], [120.211043, 23.720282], [120.210773, 23.720211], [120.211638, 23.719959], [120.211689, 23.720156], [120.211925, 23.720162], [120.212048, 23.720328], [120.212427, 23.720237], [120.212622, 23.720069], [120.212684, 23.719944], [120.212635, 23.719828], [120.21215, 23.719296], [120.211911, 23.719312], [120.211885, 23.719475], [120.211773, 23.719298], [120.211616, 23.719377], [120.211669, 23.719559], [120.211892, 23.719828], [120.212049, 23.71978], [120.212284, 23.719989], [120.21237, 23.719926], [120.212758, 23.720187], [120.211696, 23.720452], [120.211439, 23.720373], [120.211578, 23.72018], [120.211411, 23.721312], [120.211242, 23.721509], [120.211292, 23.721679], [120.211233, 23.721711], [120.211239, 23.722035], [120.211024, 23.721911], [120.211014, 23.721582], [120.211125, 23.721415], [120.210771, 23.721989], [120.210697, 23.722016], [120.210499, 23.721847], [120.210191, 23.72227], [120.210066, 23.722262], [120.209962, 23.722475], [120.209855, 23.72251], [120.209966, 23.722628], [120.210268, 23.72268], [120.210373, 23.72228], [120.2108, 23.722221], [120.210818, 23.722132], [120.210933, 23.722088], [120.211013, 23.722136], [120.210884, 23.722361], [120.210917, 23.722454], [120.210772, 23.722534], [120.210807, 23.722797], [120.211092, 23.722831], [120.211117, 23.723015], [120.211133, 23.722625], [120.211222, 23.722424], [120.211166, 23.722339], [120.211243, 23.722235], [120.211476, 23.722316], [120.211912, 23.722177], [120.211984, 23.722252], [120.212063, 23.722145], [120.212481, 23.722079], [120.212658, 23.722325], [120.212417, 23.722515], [120.212319, 23.722326], [120.212228, 23.722425], [120.212295, 23.722545], [120.212207, 23.722604], [120.211972, 23.722463], [120.211753, 23.722548], [120.211756, 23.722757], [120.211953, 23.722733], [120.211967, 23.723352], [120.212097, 23.72343], [120.212016, 23.72385], [120.212151, 23.723838], [120.21233, 23.72369], [120.21234, 23.723322], [120.212224, 23.723422], [120.212217, 23.722972], [120.212322, 23.723052], [120.212562, 23.722974], [120.212696, 23.723454], [120.212514, 23.723502], [120.212472, 23.723597], [120.212834, 23.723419]]}}, {"type": "Feature", "properties": {"district": "1000916", "segment": 10, "total_segments": 20, "km": 12.89, "villages": ["永豐村", "蚊港村"]}, "geometry": {"type": "LineString", "coordinates": [[120.212896, 23.723498], [120.213409, 23.723282], [120.213224, 23.723264], [120.213013, 23.722803], [120.212921, 23.72282], [120.212928, 23.722743], [120.212791, 23.722702], [120.212728, 23.722583], [120.211713, 23.723083], [120.211639, 23.723227], [120.211476, 23.723165], [120.211586, 23.722621], [120.211438, 23.722516], [120.211561, 23.722438], [120.211185, 23.722683], [120.210731, 23.722433], [120.210383, 23.72285], [120.210394, 23.722978], [120.210506, 23.722983], [120.2108, 23.722029], [120.212817, 23.723164], [120.213288, 23.723162], [120.212545, 23.719406], [120.212673, 23.719104], [120.211849, 23.719068], [120.211338, 23.718886], [120.210871, 23.718965], [120.210715, 23.718921], [120.204964, 23.722098], [120.200661, 23.725637], [120.194742, 23.747956], [120.196543, 23.749018], [120.196457, 23.749771], [120.198613, 23.751485], [120.199413, 23.752258], [120.201063, 23.754618], [120.201088, 23.755314], [120.202943, 23.753674], [120.203371, 23.75407], [120.203136, 23.752995], [120.203191, 23.752978], [120.202886, 23.752762], [120.201781, 23.750056], [120.200032, 23.749751], [120.196328, 23.753892], [120.196385, 23.755109], [120.192195, 23.75159], [120.192232, 23.748986], [120.188163, 23.749742], [120.18816, 23.749942], [120.187806, 23.749576], [120.187796, 23.748777], [120.187756, 23.751832], [120.188103, 23.753236], [120.188016, 23.754915], [120.183739, 23.754836], [120.183378, 23.754268], [120.183416, 23.753381], [120.183781, 23.753361], [120.183464, 23.752049], [120.183465, 23.751164], [120.18383, 23.750463], [120.183548, 23.750373], [120.183545, 23.749971], [120.183807, 23.74867], [120.178311, 23.749733], [120.179488, 23.752391], [120.179741, 23.753348], [120.180685, 23.75508]]}}, {"type": "Feature", "properties": {"district": "1000916", "segment": 11, "total_segments": 20, "km": 14.97, "villages": ["蚊港村"]}, "geometry": {"type": "LineString", "coordinates": [[120.207998, 23.758682], [120.20801, 23.758783], [120.212707, 23.759371], [120.212977, 23.760715], [120.21284, 23.761115], [120.214231, 23.757878], [120.214337, 23.757095], [120.213603, 23.756464], [120.213314, 23.7552], [120.213616, 23.755061], [120.211964, 23.755295], [120.216437, 23.754928], [120.21634, 23.754201], [120.216335, 23.753065], [120.216134, 23.751513], [120.217603, 23.75164], [120.218079, 23.751072], [120.218139, 23.751092], [120.218052, 23.750995], [120.218295, 23.751025], [120.218309, 23.750906], [120.21841, 23.750881], [120.218027, 23.750304], [120.21819, 23.750277], [120.21819, 23.750191], [120.217973, 23.749996], [120.220171, 23.750109], [120.220156, 23.750432], [120.22102, 23.750935], [120.220073, 23.752014], [120.22009, 23.752464], [120.220286, 23.752759], [120.220479, 23.753398], [120.220146, 23.753515], [120.220723, 23.754194], [120.220793, 23.754393], [120.220655, 23.754521], [120.220617, 23.754716], [120.22046, 23.754675], [120.220259, 23.754782], [120.220235, 23.755052], [120.220027, 23.755252], [120.219926, 23.755156], [120.219936, 23.755003], [120.219799, 23.754719], [120.219532, 23.755012], [120.21959, 23.755062], [120.219554, 23.755304], [120.219311, 23.755183], [120.219409, 23.754863], [120.218951, 23.754939], [120.219143, 23.754601], [120.219145, 23.754393], [120.218847, 23.754325], [120.218645, 23.754071], [120.218898, 23.754089], [120.218578, 23.754482], [120.218701, 23.754626], [120.218274, 23.753941], [120.218905, 23.753493], [120.218626, 23.752907], [120.218051, 23.752824], [120.218766, 23.755529], [120.218888, 23.7557], [120.218918, 23.755908], [120.218686, 23.756077], [120.219097, 23.756184], [120.219575, 23.755729], [120.219808, 23.756009], [120.21988, 23.755817], [120.220345, 23.75588], [120.220293, 23.755447], [120.220483, 23.75527], [120.220462, 23.75513], [120.220663, 23.755026], [120.22058, 23.754917], [120.220822, 23.755025], [120.220913, 23.75482], [120.221038, 23.75487], [120.220979, 23.755181], [120.221067, 23.755441], [120.22127, 23.755564], [120.221342, 23.75581], [120.22103, 23.755947], [120.220941, 23.755665], [120.220744, 23.755536], [120.220735, 23.756188], [120.220833, 23.756412], [120.220689, 23.756646], [120.220492, 23.756612], [120.220325, 23.756475], [120.220055, 23.75659], [120.219654, 23.756462], [120.220001, 23.755546], [120.221239, 23.756207], [120.221648, 23.755874], [120.221625, 23.755591], [120.22232, 23.755595], [120.222514, 23.755397], [120.222409, 23.755103], [120.222598, 23.754975], [120.222396, 23.754804], [120.222885, 23.754573], [120.222517, 23.754368], [120.221999, 23.754473], [120.221915, 23.75473], [120.221771, 23.754663], [120.221466, 23.754745], [120.221588, 23.754933], [120.221409, 23.755068], [120.221421, 23.755132], [120.22139, 23.754983], [120.221815, 23.755359], [120.222136, 23.755274], [120.222104, 23.754905], [120.221981, 23.754923], [120.221973, 23.754297], [120.221888, 23.753974], [120.223246, 23.753615], [120.223201, 23.753321], [120.223564, 23.753161], [120.223859, 23.753956], [120.22424, 23.753725], [120.224264, 23.753409], [120.224258, 23.754042], [120.224146, 23.754365], [120.224351, 23.754435], [120.224381, 23.754604], [120.224001, 23.754824], [120.223827, 23.754773], [120.223569, 23.754902], [120.223463, 23.755287], [120.223495, 23.755462], [120.223791, 23.755298], [120.22406, 23.755264], [120.224362, 23.755724], [120.223633, 23.755984], [120.223477, 23.75588], [120.223268, 23.75605], [120.223032, 23.756077], [120.223011, 23.756315], [120.223165, 23.756328], [120.223243, 23.756299], [120.222739, 23.756314], [120.222593, 23.756389], [120.222404, 23.756336], [120.222276, 23.756467], [120.222021, 23.756381], [120.221992, 23.756692], [120.222015, 23.756198], [120.222232, 23.756175], [120.222314, 23.755944], [120.222517, 23.755952], [120.221963, 23.755831], [120.221791, 23.756231], [120.222834, 23.755523], [120.2231, 23.755463], [120.222975, 23.755283], [120.222846, 23.755336], [120.223074, 23.754483], [120.223309, 23.754233], [120.223242, 23.754001], [120.222871, 23.753994], [120.223944, 23.754179], [120.223808, 23.754417], [120.223958, 23.754519], [120.223632, 23.754479], [120.224729, 23.754467], [120.225357, 23.755972], [120.222609, 23.757613], [120.222253, 23.757381], [120.222087, 23.757456], [120.221106, 23.757438], [120.221961, 23.758384], [120.222584, 23.759366], [120.221716, 23.76012], [120.217811, 23.759958], [120.217751, 23.759232], [120.21663, 23.755742], [120.221144, 23.754258], [120.221134, 23.754042], [120.223077, 23.752322], [120.223569, 23.752611], [120.224037, 23.752681], [120.224647, 23.752569], [120.223024, 23.751758], [120.222963, 23.751141], [120.223411, 23.749965], [120.224114, 23.750173], [120.224265, 23.75014], [120.224217, 23.750619], [120.226137, 23.750386], [120.226403, 23.750498], [120.226546, 23.750434], [120.226712, 23.750657], [120.226865, 23.750513], [120.226853, 23.750287], [120.22736, 23.750214], [120.227314, 23.750495], [120.227071, 23.750682], [120.226108, 23.7508], [120.226439, 23.750101], [120.227024, 23.749979], [120.227193, 23.749633], [120.227373, 23.749793], [120.227689, 23.749817], [120.227704, 23.749451], [120.227391, 23.749294], [120.228005, 23.748841], [120.228145, 23.748679], [120.228122, 23.748613], [120.228345, 23.748505], [120.228275, 23.748948], [120.228488, 23.74898], [120.228231, 23.749332], [120.228359, 23.749467], [120.228618, 23.749476], [120.228762, 23.749588], [120.228698, 23.749685], [120.228745, 23.749789], [120.228986, 23.749715], [120.229292, 23.750021], [120.229223, 23.750212], [120.228884, 23.750347], [120.228967, 23.749525], [120.228872, 23.749501], [120.22917, 23.748827], [120.230139, 23.748616], [120.230694, 23.74896], [120.230745, 23.749397], [120.230251, 23.74959], [120.230952, 23.748456], [120.231113, 23.748426], [120.230757, 23.748064], [120.231553, 23.748944], [120.232422, 23.751123]]}}, {"type": "Feature", "properties": {"district": "1000916", "segment": 12, "total_segments": 20, "km": 9.56, "villages": ["蚊港村"]}, "geometry": {"type": "LineString", "coordinates": [[120.231624, 23.751359], [120.231391, 23.752202], [120.23108, 23.7522], [120.230594, 23.751599], [120.230479, 23.751329], [120.229615, 23.751347], [120.229409, 23.751151], [120.229894, 23.751052], [120.229097, 23.751967], [120.228847, 23.751929], [120.228171, 23.751498], [120.227758, 23.75147], [120.227778, 23.752159], [120.227907, 23.752233], [120.22667, 23.7497], [120.226823, 23.749521], [120.22657, 23.749357], [120.226654, 23.74923], [120.226756, 23.749222], [120.226599, 23.749056], [120.226637, 23.748793], [120.226411, 23.748846], [120.226389, 23.748608], [120.225992, 23.748559], [120.225982, 23.748432], [120.225786, 23.748435], [120.225858, 23.749157], [120.2262, 23.749266], [120.226098, 23.749416], [120.22624, 23.749454], [120.226121, 23.749584], [120.226158, 23.749757], [120.226404, 23.749817], [120.227024, 23.749301], [120.227266, 23.748836], [120.227223, 23.748672], [120.227023, 23.748463], [120.227237, 23.748356], [120.227708, 23.748753], [120.228576, 23.747906], [120.229106, 23.748142], [120.229077, 23.747525], [120.227966, 23.7472], [120.228036, 23.745875], [120.228346, 23.745795], [120.225998, 23.748023], [120.226428, 23.748275], [120.226614, 23.748201], [120.226592, 23.7484], [120.226113, 23.749016], [120.225251, 23.749812], [120.2248, 23.749924], [120.224996, 23.748072], [120.221583, 23.746163], [120.219834, 23.742971], [120.220448, 23.742658], [120.231267, 23.743134], [120.234278, 23.742943], [120.237096, 23.742285], [120.237432, 23.742474], [120.237796, 23.74208], [120.237762, 23.74189], [120.237166, 23.740785], [120.236619, 23.740682], [120.2367, 23.744894], [120.236851, 23.745425], [120.236562, 23.745728], [120.237292, 23.745491], [120.237338, 23.745619], [120.237047, 23.746418], [120.238213, 23.746511], [120.238968, 23.745092], [120.240449, 23.744172], [120.235391, 23.74573], [120.235442, 23.745881], [120.235174, 23.745788], [120.23636, 23.751141], [120.2336, 23.751561], [120.231569, 23.753115], [120.232155, 23.754665], [120.232338, 23.75468], [120.232244, 23.755011], [120.233109, 23.755695]]}}, {"type": "Feature", "properties": {"district": "1000916", "segment": 13, "total_segments": 20, "km": 14.55, "villages": ["和豐村"]}, "geometry": {"type": "LineString", "coordinates": [[120.226373, 23.7421], [120.225248, 23.740871], [120.223794, 23.740604], [120.223431, 23.739539], [120.22188, 23.73864], [120.221514, 23.738244], [120.221039, 23.738331], [120.221046, 23.738394], [120.220891, 23.738354], [120.220437, 23.738709], [120.220249, 23.739091], [120.22099, 23.738777], [120.221139, 23.739317], [120.220348, 23.738143], [120.220079, 23.738197], [120.220886, 23.737876], [120.221044, 23.737463], [120.221268, 23.737168], [120.221502, 23.737703], [120.223074, 23.737201], [120.220723, 23.735639], [120.218438, 23.736288], [120.218501, 23.736673], [120.21893, 23.737416], [120.218671, 23.73807], [120.218754, 23.738528], [120.218542, 23.738787], [120.218574, 23.739018], [120.218163, 23.739819], [120.218204, 23.739952], [120.217806, 23.739902], [120.217928, 23.740311], [120.218036, 23.740422], [120.217978, 23.740784], [120.217616, 23.740355], [120.217422, 23.740392], [120.217495, 23.740565], [120.216875, 23.741285], [120.216871, 23.741378], [120.216741, 23.741112], [120.216038, 23.741226], [120.216059, 23.740739], [120.215818, 23.740653], [120.21478, 23.740625], [120.213883, 23.738562], [120.216512, 23.737863], [120.216787, 23.738098], [120.217182, 23.7378], [120.216896, 23.737231], [120.216896, 23.736903], [120.217204, 23.736495], [120.21719, 23.736335], [120.217456, 23.736396], [120.21756, 23.736238], [120.217466, 23.73668], [120.216999, 23.735945], [120.217141, 23.735814], [120.216936, 23.735765], [120.216866, 23.735239], [120.216162, 23.735354], [120.215655, 23.735158], [120.215697, 23.733951], [120.215828, 23.7338], [120.215727, 23.73379], [120.215698, 23.733562], [120.216235, 23.733539], [120.216361, 23.733466], [120.216142, 23.733405], [120.216379, 23.733229], [120.216485, 23.733257], [120.216434, 23.733141], [120.216557, 23.732998], [120.216355, 23.732968], [120.215932, 23.733183], [120.216282, 23.733686], [120.21658, 23.733789], [120.216525, 23.734381], [120.216915, 23.734423], [120.216957, 23.734194], [120.217135, 23.734151], [120.217073, 23.733914], [120.217232, 23.733889], [120.217563, 23.733489], [120.21782, 23.733508], [120.217713, 23.733173], [120.217117, 23.73355], [120.216901, 23.733538], [120.216886, 23.733592], [120.216816, 23.733461], [120.216805, 23.733808], [120.21725, 23.73457], [120.217486, 23.734504], [120.217704, 23.734129], [120.217147, 23.732429], [120.217169, 23.731783], [120.215972, 23.732119], [120.215987, 23.732172], [120.214961, 23.732124], [120.214472, 23.731121], [120.213325, 23.729359], [120.213692, 23.728807], [120.213116, 23.728147], [120.213206, 23.728073], [120.212949, 23.727643], [120.212793, 23.727535], [120.212847, 23.727369], [120.21304, 23.727321], [120.212961, 23.726914], [120.212716, 23.726978], [120.212687, 23.726736], [120.212739, 23.726616], [120.212966, 23.72655], [120.213136, 23.726658], [120.212488, 23.72658], [120.212476, 23.726687], [120.212174, 23.725926], [120.212335, 23.725353], [120.212654, 23.725403], [120.212645, 23.724903], [120.212849, 23.724867], [120.212982, 23.725053], [120.213111, 23.725007], [120.213123, 23.724804], [120.213419, 23.724645], [120.213385, 23.724455], [120.213762, 23.724606], [120.213772, 23.724821], [120.213606, 23.724979], [120.21372, 23.725204], [120.213924, 23.725153], [120.214165, 23.725346], [120.213828, 23.72545], [120.213391, 23.725313], [120.213338, 23.724921], [120.213071, 23.725243], [120.21313, 23.725416], [120.213067, 23.725441], [120.212913, 23.724717], [120.212716, 23.724626], [120.212706, 23.724441], [120.212639, 23.72441], [120.212899, 23.724484], [120.212954, 23.724237], [120.212823, 23.724183], [120.212965, 23.724139], [120.213033, 23.724198], [120.213286, 23.7237], [120.213484, 23.723656], [120.213405, 23.723544], [120.213503, 23.723447], [120.213676, 23.723712], [120.213746, 23.723711], [120.213691, 23.723825], [120.213836, 23.723849], [120.213952, 23.724044], [120.212967, 23.723809], [120.212658, 23.723994], [120.212668, 23.724054], [120.212546, 23.723911], [120.212399, 23.723975], [120.212419, 23.724049], [120.212325, 23.723939], [120.211891, 23.724219], [120.211685, 23.724212], [120.21176, 23.724339], [120.21183, 23.72433], [120.211614, 23.724502], [120.211881, 23.725022], [120.21187, 23.72534], [120.211507, 23.725223], [120.211467, 23.724776], [120.211132, 23.724632], [120.210866, 23.724877], [120.210594, 23.724117], [120.21049, 23.724127], [120.210269, 23.723881], [120.210314, 23.72381], [120.210046, 23.723638], [120.209969, 23.723744], [120.209686, 23.723693], [120.209642, 23.723512], [120.209499, 23.723526], [120.209443, 23.723405], [120.209663, 23.72336], [120.209682, 23.723464], [120.209793, 23.723497], [120.210141, 23.7234], [120.210506, 23.723577], [120.210569, 23.723521], [120.210741, 23.723574], [120.210734, 23.72377], [120.210612, 23.72379], [120.210358, 23.72366], [120.210093, 23.723819], [120.210044, 23.724103], [120.209887, 23.724104], [120.20976, 23.724464], [120.209658, 23.724368], [120.20938, 23.724528], [120.208849, 23.724402], [120.208744, 23.724489], [120.208725, 23.724661], [120.208531, 23.724458], [120.208333, 23.724678], [120.208031, 23.724546], [120.20792, 23.724393], [120.208123, 23.724313], [120.208107, 23.723961], [120.208585, 23.723813], [120.208836, 23.723434], [120.20865, 23.723387], [120.208618, 23.723432], [120.208879, 23.723684], [120.209079, 23.724056], [120.208836, 23.724176], [120.209228, 23.723972], [120.209485, 23.724066], [120.209601, 23.724217], [120.209765, 23.72402], [120.210089, 23.724393], [120.210196, 23.724244], [120.210327, 23.724316], [120.21019, 23.724703], [120.210255, 23.72472], [120.210026, 23.724828], [120.209717, 23.724793], [120.209868, 23.724986], [120.209497, 23.724974], [120.209417, 23.725378], [120.209058, 23.725496], [120.208972, 23.725303], [120.208835, 23.725416], [120.209215, 23.724975], [120.209037, 23.724714], [120.209997, 23.724623], [120.210246, 23.724939], [120.209855, 23.72546], [120.209449, 23.726765], [120.209468, 23.727021], [120.209558, 23.727109], [120.211368, 23.726081], [120.211988, 23.726446], [120.212153, 23.724491], [120.212237, 23.724413], [120.211605, 23.724438], [120.211547, 23.724281], [120.21149, 23.724309], [120.211416, 23.723809], [120.211292, 23.723609], [120.211339, 23.723497], [120.211209, 23.723374], [120.211148, 23.723048], [120.211468, 23.723204], [120.21157, 23.723412], [120.211889, 23.723464], [120.211586, 23.723655], [120.211589, 23.723725], [120.21188, 23.723905], [120.21259, 23.723875], [120.211804, 23.722976], [120.210946, 23.723215], [120.210821, 23.723031], [120.210617, 23.722942], [120.210551, 23.723142], [120.210623, 23.723255], [120.210383, 23.723304], [120.210279, 23.723126], [120.210379, 23.723136], [120.209745, 23.722892], [120.209597, 23.722739], [120.209883, 23.722742], [120.210172, 23.72286], [120.209468, 23.723212], [120.209501, 23.723024], [120.209267, 23.723099], [120.209024, 23.72293], [120.209146, 23.722874], [120.208812, 23.723031], [120.209035, 23.723242], [120.210819, 23.722844], [120.211185, 23.724323], [120.210881, 23.724163], [120.210804, 23.723914], [120.20748, 23.724554], [120.205771, 23.727367], [120.204244, 23.727527], [120.204962, 23.729587], [120.207354, 23.728594]]}}, {"type": "Feature", "properties": {"district": "1000916", "segment": 14, "total_segments": 20, "km": 14.89, "villages": ["和豐村"]}, "geometry": {"type": "LineString", "coordinates": [[120.212609, 23.728618], [120.212763, 23.728492], [120.212732, 23.728407], [120.214659, 23.728435], [120.215131, 23.726708], [120.215408, 23.726516], [120.215628, 23.726473], [120.215624, 23.726398], [120.215686, 23.726656], [120.21518, 23.726058], [120.215468, 23.725917], [120.215224, 23.725631], [120.214918, 23.725587], [120.214135, 23.725734], [120.218087, 23.725944], [120.218011, 23.723859], [120.223657, 23.724615], [120.223855, 23.725642], [120.221652, 23.728782], [120.220911, 23.730128], [120.222182, 23.731156], [120.222496, 23.731222], [120.222841, 23.731718], [120.221004, 23.732212], [120.22082, 23.732884], [120.219382, 23.731713], [120.227035, 23.730401], [120.226966, 23.730066], [120.226572, 23.729919], [120.226916, 23.729645], [120.226867, 23.729271], [120.226761, 23.729285], [120.226674, 23.729134], [120.227304, 23.728644], [120.227856, 23.728391], [120.227837, 23.728167], [120.228111, 23.728217], [120.228112, 23.72836], [120.227764, 23.728869], [120.227721, 23.729207], [120.227958, 23.729293], [120.228013, 23.728953], [120.228254, 23.72888], [120.228511, 23.729023], [120.228638, 23.728834], [120.22835, 23.728692], [120.228366, 23.728073], [120.228628, 23.727973], [120.228832, 23.728299], [120.228082, 23.727967], [120.228164, 23.727842], [120.227387, 23.727959], [120.227375, 23.728095], [120.227156, 23.728013], [120.227059, 23.728247], [120.227148, 23.728381], [120.227526, 23.728313], [120.227545, 23.728993], [120.228899, 23.729313], [120.228977, 23.729276], [120.22889, 23.729518], [120.229799, 23.730312], [120.228304, 23.731701], [120.22911, 23.733453], [120.229304, 23.733509], [120.22932, 23.733804], [120.229222, 23.734147], [120.229959, 23.734461], [120.230142, 23.734732], [120.229951, 23.734893], [120.229881, 23.734709], [120.22964, 23.734896], [120.22951, 23.734559], [120.230374, 23.734259], [120.229715, 23.733889], [120.228938, 23.734993], [120.228864, 23.735408], [120.228904, 23.736678], [120.229422, 23.737375], [120.230091, 23.737195], [120.230069, 23.736937], [120.229646, 23.738076], [120.231665, 23.737011], [120.230619, 23.735599], [120.230356, 23.735679], [120.232695, 23.734682], [120.233739, 23.736144], [120.236209, 23.732942], [120.235908, 23.732534], [120.236059, 23.732378], [120.236074, 23.732222], [120.236387, 23.73217], [120.236285, 23.732399], [120.236187, 23.731943], [120.235916, 23.731557], [120.235644, 23.731583], [120.23554, 23.73146], [120.235687, 23.731304], [120.235524, 23.731133], [120.235282, 23.731309], [120.23519, 23.730996], [120.234986, 23.730976], [120.234985, 23.730789], [120.235205, 23.730673], [120.235435, 23.730684], [120.235298, 23.73041], [120.235067, 23.730542], [120.234703, 23.73023], [120.234599, 23.730041], [120.234838, 23.729988], [120.234802, 23.729692], [120.235019, 23.729449], [120.235342, 23.72967], [120.235286, 23.729904], [120.235128, 23.73008], [120.235714, 23.730122], [120.235766, 23.729944], [120.235972, 23.729918], [120.236177, 23.730084], [120.236152, 23.730313], [120.235996, 23.730511], [120.235845, 23.730611], [120.235781, 23.730432], [120.236212, 23.730571], [120.236338, 23.730505], [120.235936, 23.731069], [120.236292, 23.731362], [120.23659, 23.731325], [120.236606, 23.731243], [120.236873, 23.731574], [120.236834, 23.731764], [120.236534, 23.731525], [120.235639, 23.731853], [120.23568, 23.73252], [120.235092, 23.732174], [120.235167, 23.731531], [120.234677, 23.730826], [120.235805, 23.729456], [120.235672, 23.729272], [120.235768, 23.728915], [120.235747, 23.728225], [120.235276, 23.728291], [120.236081, 23.729627], [120.236909, 23.730047], [120.236925, 23.728915], [120.237263, 23.727891], [120.234204, 23.725928], [120.233231, 23.724339], [120.232907, 23.724167], [120.232902, 23.723462], [120.23324, 23.723227], [120.233374, 23.723014], [120.232876, 23.722736], [120.232797, 23.722935], [120.232629, 23.72291], [120.232729, 23.723156], [120.232911, 23.723097], [120.232605, 23.722641], [120.232307, 23.722535], [120.232278, 23.722841], [120.231095, 23.723018], [120.231221, 23.722554], [120.231062, 23.722013], [120.231804, 23.721663], [120.232064, 23.72176], [120.232457, 23.721554], [120.232722, 23.722019], [120.232591, 23.72218], [120.232346, 23.721959], [120.23301, 23.721836], [120.233256, 23.721968], [120.233345, 23.722517], [120.233624, 23.722407], [120.233931, 23.722103], [120.233921, 23.721991], [120.23354, 23.722], [120.2333, 23.721785], [120.233753, 23.721457], [120.23358, 23.720894], [120.233101, 23.721439], [120.232912, 23.72152], [120.232785, 23.721455], [120.232826, 23.721099], [120.233978, 23.722271], [120.233621, 23.722771], [120.234601, 23.722775], [120.234627, 23.722854], [120.235051, 23.722938], [120.234829, 23.723221], [120.235309, 23.723681], [120.235333, 23.724168], [120.236704, 23.722725], [120.236131, 23.722179], [120.234692, 23.721446], [120.234639, 23.720101], [120.235694, 23.719713], [120.23558, 23.719234]]}}, {"type": "Feature", "properties": {"district": "1000916", "segment": 15, "total_segments": 20, "km": 14.67, "villages": ["和豐村"]}, "geometry": {"type": "LineString", "coordinates": [[120.232466, 23.718653], [120.232433, 23.718356], [120.232296, 23.718359], [120.232269, 23.718199], [120.232085, 23.718824], [120.238344, 23.720822], [120.239797, 23.720757], [120.240612, 23.722798], [120.239517, 23.723029], [120.240361, 23.724316], [120.242924, 23.725539], [120.237972, 23.733522], [120.238126, 23.733942], [120.237584, 23.733814], [120.237305, 23.73323], [120.236764, 23.733152], [120.237677, 23.734577], [120.237873, 23.73477], [120.238081, 23.735537], [120.23859, 23.735125], [120.238416, 23.73439], [120.238895, 23.735492], [120.238919, 23.737642], [120.2384, 23.737966], [120.239609, 23.737927], [120.239621, 23.738052], [120.239787, 23.738127], [120.240021, 23.738424], [120.241065, 23.739083], [120.241508, 23.738538], [120.241709, 23.738679], [120.241842, 23.739571], [120.242648, 23.739094], [120.243006, 23.738641], [120.243598, 23.738119], [120.240618, 23.74154], [120.241474, 23.742072], [120.241221, 23.742593], [120.231635, 23.739693], [120.229478, 23.740625], [120.225964, 23.739509], [120.226018, 23.737623], [120.224009, 23.742236], [120.221084, 23.742066], [120.221089, 23.74195], [120.218242, 23.741148], [120.217302, 23.741976], [120.21551, 23.742846], [120.217552, 23.739465], [120.217118, 23.739144], [120.21146, 23.7331], [120.206121, 23.737433], [120.204169, 23.737087], [120.204121, 23.737776], [120.204929, 23.739267], [120.205206, 23.739376], [120.206679, 23.742575], [120.206598, 23.743902], [120.206962, 23.74373], [120.207164, 23.744505], [120.207055, 23.745226], [120.207506, 23.7459], [120.207579, 23.746143], [120.207245, 23.746068], [120.206935, 23.746223], [120.206806, 23.747153], [120.209305, 23.746668], [120.208762, 23.744768], [120.208995, 23.744462], [120.208046, 23.744966], [120.202969, 23.74579], [120.203072, 23.746996], [120.200182, 23.742388], [120.1997, 23.742553], [120.199321, 23.740494], [120.19855, 23.73918]]}}, {"type": "Feature", "properties": {"district": "1000916", "segment": 16, "total_segments": 20, "km": 14.02, "villages": ["和豐村"]}, "geometry": {"type": "LineString", "coordinates": [[120.193148, 23.740517], [120.192926, 23.740179], [120.192506, 23.74145], [120.192495, 23.742417], [120.194087, 23.742698], [120.196182, 23.747606], [120.192315, 23.747546], [120.192583, 23.747067], [120.192347, 23.746679], [120.192651, 23.746548], [120.192399, 23.744952], [120.188278, 23.745678], [120.187941, 23.745313], [120.188019, 23.743923], [120.188333, 23.743437], [120.188421, 23.741768], [120.188031, 23.740916], [120.1884, 23.740602], [120.18816, 23.740353], [120.188185, 23.739643], [120.188411, 23.739558], [120.184183, 23.740312], [120.184094, 23.740412], [120.183745, 23.741174], [120.184071, 23.741635], [120.183669, 23.743791], [120.183657, 23.74528], [120.183594, 23.745541], [120.184008, 23.745531], [120.183623, 23.746055], [120.183621, 23.746301], [120.179758, 23.745453], [120.179427, 23.7451], [120.179485, 23.742979], [120.179825, 23.742902], [120.179802, 23.742381], [120.179499, 23.742024], [120.179507, 23.741152], [120.177115, 23.739567], [120.175136, 23.740337], [120.17509, 23.741085], [120.177238, 23.74703], [120.177377, 23.747182], [120.179635, 23.746873], [120.179638, 23.746009], [120.188161, 23.747462], [120.201458, 23.726085], [120.202387, 23.72549], [120.196301, 23.72379], [120.224677, 23.719694]]}}, {"type": "Feature", "properties": {"district": "1000916", "segment": 17, "total_segments": 20, "km": 14.95, "villages": ["和豐村", "富琦村"]}, "geometry": {"type": "LineString", "coordinates": [[120.233534, 23.728831], [120.234009, 23.720495], [120.232038, 23.719118], [120.229828, 23.718152], [120.22872, 23.718197], [120.226667, 23.717332], [120.226533, 23.719407], [120.223309, 23.718704], [120.219576, 23.718521], [120.217983, 23.7213], [120.217222, 23.721952], [120.217671, 23.723166], [120.218163, 23.723089], [120.218882, 23.72282], [120.219349, 23.722901], [120.219211, 23.724066], [120.216773, 23.723813], [120.21682, 23.723559], [120.216596, 23.723605], [120.216399, 23.723523], [120.215464, 23.723641], [120.215226, 23.723862], [120.215128, 23.72376], [120.215025, 23.723879], [120.214766, 23.723721], [120.21474, 23.723857], [120.215, 23.724066], [120.21511, 23.724012], [120.215195, 23.724194], [120.215435, 23.724402], [120.21544, 23.72415], [120.215151, 23.724527], [120.21532, 23.724985], [120.215527, 23.724966], [120.215848, 23.725182], [120.216143, 23.725239], [120.216381, 23.724926], [120.216311, 23.724776], [120.216655, 23.724932], [120.216807, 23.7249], [120.216776, 23.725114], [120.21709, 23.725397], [120.217251, 23.724928], [120.214812, 23.7243], [120.214559, 23.724618], [120.214679, 23.724719], [120.214285, 23.724389], [120.214271, 23.72406], [120.213882, 23.724396], [120.214069, 23.724728], [120.213977, 23.724882], [120.213963, 23.723519], [120.21384, 23.72333], [120.213569, 23.72316], [120.213558, 23.723015], [120.213421, 23.722978], [120.213452, 23.722908], [120.21333, 23.722859], [120.213019, 23.722433], [120.212985, 23.722247], [120.213223, 23.722165], [120.213253, 23.722024], [120.21343, 23.72186], [120.213601, 23.722353], [120.213935, 23.722219], [120.21406, 23.722536], [120.213656, 23.722541], [120.212996, 23.722024], [120.212585, 23.721932], [120.21256, 23.721611], [120.212621, 23.7215], [120.212449, 23.721493], [120.212422, 23.721318], [120.212521, 23.721205], [120.212653, 23.721206], [120.212913, 23.721377], [120.21311, 23.721301], [120.213143, 23.721418], [120.213494, 23.721007], [120.213422, 23.720618], [120.212582, 23.72075], [120.212446, 23.720855], [120.212466, 23.720955], [120.212272, 23.721086], [120.212211, 23.720967], [120.211938, 23.720939], [120.211815, 23.720778], [120.212273, 23.720689], [120.212183, 23.720853], [120.212249, 23.721299], [120.212195, 23.721701], [120.212263, 23.721813], [120.212057, 23.721999], [120.211411, 23.722106], [120.211423, 23.721565], [120.211548, 23.721346], [120.211686, 23.72133], [120.211738, 23.721427], [120.211638, 23.721476], [120.211773, 23.72167], [120.211769, 23.72193], [120.21153, 23.721913], [120.211324, 23.722081], [120.211982, 23.721693], [120.211886, 23.721508], [120.211965, 23.721452], [120.211821, 23.721152], [120.212032, 23.721211], [120.212051, 23.72187], [120.212483, 23.721887], [120.212761, 23.722105], [120.21286, 23.721643], [120.213236, 23.721704], [120.213835, 23.721633], [120.214029, 23.721415], [120.214355, 23.721334], [120.21446, 23.72145], [120.214332, 23.72157], [120.214837, 23.721293], [120.21472, 23.721417], [120.214789, 23.721502], [120.214583, 23.721635], [120.214828, 23.721595], [120.214909, 23.721459], [120.21501, 23.721481], [120.214611, 23.721196], [120.214596, 23.721991], [120.214756, 23.721996], [120.214732, 23.722608], [120.214908, 23.722755], [120.214966, 23.722923], [120.214756, 23.723167], [120.214816, 23.723435], [120.214865, 23.723473], [120.21491, 23.723405], [120.21464, 23.723523], [120.214288, 23.723329], [120.214123, 23.723048], [120.214206, 23.722975], [120.214087, 23.722966], [120.213978, 23.723122], [120.213719, 23.723013], [120.214171, 23.722799], [120.214159, 23.722707], [120.214397, 23.722928], [120.215109, 23.722621], [120.215048, 23.7224], [120.215426, 23.722342], [120.216162, 23.722065], [120.216022, 23.721826], [120.215513, 23.722572], [120.215577, 23.722874], [120.215424, 23.723409], [120.215088, 23.723413], [120.212958, 23.721118], [120.213011, 23.720249], [120.213159, 23.719916], [120.213096, 23.719646], [120.213166, 23.719474], [120.213007, 23.719351], [120.212981, 23.71922], [120.213149, 23.71889], [120.21364, 23.71939], [120.213566, 23.719511], [120.213824, 23.719725], [120.214186, 23.719675], [120.214188, 23.719729], [120.214165, 23.7195], [120.213977, 23.719098], [120.214382, 23.718293], [120.213873, 23.717772], [120.213816, 23.717254], [120.213859, 23.716733], [120.214506, 23.716519], [120.215559, 23.718035], [120.215992, 23.718185], [120.21592, 23.718918], [120.214672, 23.72003], [120.214435, 23.720068], [120.216538, 23.720398], [120.220501, 23.714353], [120.220229, 23.713615], [120.219671, 23.713633], [120.220195, 23.713084], [120.220114, 23.712791], [120.219666, 23.712225], [120.219417, 23.712289], [120.219789, 23.711962], [120.219802, 23.711614], [120.219553, 23.711559], [120.219826, 23.711287], [120.219846, 23.711145], [120.219999, 23.711185], [120.219753, 23.710768], [120.219625, 23.710778], [120.219775, 23.710618], [120.220234, 23.710598], [120.21995, 23.710044], [120.219754, 23.709974], [120.219709, 23.710072], [120.219577, 23.71011], [120.219412, 23.710646], [120.219248, 23.710717], [120.219274, 23.710934], [120.219437, 23.710987], [120.219459, 23.711109], [120.219597, 23.711024], [120.2204, 23.711001], [120.220515, 23.711262], [120.220127, 23.71163], [120.220143, 23.711716], [120.22034, 23.711828], [120.220207, 23.71193], [120.221087, 23.711207], [120.22244, 23.710548], [120.22058, 23.709485], [120.219742, 23.709556], [120.219701, 23.709695], [120.21923, 23.709802], [120.219075, 23.710107], [120.218869, 23.709694], [120.218294, 23.709813], [120.217503, 23.71061], [120.218524, 23.710962], [120.218784, 23.711248], [120.218891, 23.708799], [120.218255, 23.708602], [120.218554, 23.707997], [120.218386, 23.707859], [120.217861, 23.708023], [120.217784, 23.706993], [120.219171, 23.706231], [120.21938, 23.706363], [120.219621, 23.706704], [120.219965, 23.706674], [120.219934, 23.707004], [120.220541, 23.706955], [120.220546, 23.706816], [120.220368, 23.706576], [120.220756, 23.706544], [120.220496, 23.70615], [120.220726, 23.706032]]}}, {"type": "Feature", "properties": {"district": "1000916", "segment": 18, "total_segments": 20, "km": 10.0, "villages": ["富琦村"]}, "geometry": {"type": "LineString", "coordinates": [[120.220702, 23.705459], [120.220117, 23.706105], [120.221925, 23.705576], [120.222701, 23.705654], [120.224753, 23.708331], [120.225122, 23.708228], [120.225164, 23.708916], [120.226488, 23.708387], [120.225822, 23.707426], [120.22767, 23.710334], [120.226622, 23.711055], [120.226473, 23.711459], [120.22634, 23.711527], [120.226326, 23.711688], [120.226168, 23.711649], [120.226187, 23.711786], [120.22644, 23.711983], [120.226799, 23.711733], [120.227063, 23.711712], [120.227022, 23.711973], [120.226233, 23.712081], [120.225992, 23.71196], [120.225481, 23.712012], [120.225241, 23.711842], [120.22522, 23.711717], [120.225672, 23.711513], [120.22548, 23.711136], [120.226173, 23.711237], [120.22606, 23.712343], [120.223612, 23.713015], [120.228572, 23.714367], [120.228516, 23.715455], [120.228328, 23.715559], [120.230823, 23.716344], [120.234012, 23.714969], [120.234778, 23.718289], [120.230832, 23.712746], [120.229726, 23.711453], [120.229135, 23.710503], [120.216557, 23.709429], [120.215433, 23.709394], [120.216133, 23.708177], [120.216965, 23.705138], [120.211753, 23.709847], [120.215876, 23.712915], [120.225107, 23.722975]]}}, {"type": "Feature", "properties": {"district": "1000916", "segment": 19, "total_segments": 20, "km": 15.0, "villages": ["山寮村", "光華村"]}, "geometry": {"type": "LineString", "coordinates": [[120.217861, 23.70537], [120.219176, 23.703823], [120.218847, 23.701901], [120.219023, 23.701824], [120.218863, 23.701654], [120.219186, 23.701634], [120.21821, 23.701286], [120.218195, 23.701066], [120.218004, 23.701227], [120.21781, 23.701243], [120.217673, 23.701474], [120.21753, 23.701335], [120.217482, 23.701059], [120.217283, 23.701139], [120.217268, 23.701262], [120.217547, 23.701771], [120.217497, 23.702107], [120.21719, 23.702287], [120.217221, 23.702384], [120.217954, 23.701592], [120.21771, 23.700935], [120.217831, 23.70093], [120.217651, 23.700515], [120.217794, 23.700475], [120.217512, 23.700438], [120.217461, 23.700639], [120.217322, 23.700722], [120.217109, 23.700141], [120.217247, 23.700027], [120.217698, 23.700056], [120.217825, 23.699966], [120.21793, 23.700206], [120.218173, 23.700383], [120.218267, 23.700278], [120.218386, 23.700317], [120.218666, 23.700195], [120.218695, 23.699987], [120.218944, 23.700026], [120.218955, 23.700364], [120.218628, 23.700525], [120.218623, 23.700683], [120.218399, 23.700669], [120.218145, 23.700895], [120.218048, 23.700708], [120.218113, 23.700131], [120.2189, 23.699539], [120.219092, 23.699296], [120.217689, 23.69885], [120.217347, 23.699506], [120.216767, 23.700069], [120.216823, 23.700232], [120.216551, 23.700265], [120.216284, 23.700166], [120.216285, 23.700103], [120.213439, 23.700359], [120.213167, 23.700905], [120.212828, 23.701015], [120.21265, 23.70085], [120.212713, 23.700777], [120.212466, 23.700828], [120.212439, 23.700517], [120.212786, 23.700111], [120.212703, 23.699777], [120.213133, 23.69969], [120.212201, 23.700072], [120.211941, 23.699845], [120.211612, 23.699969], [120.212153, 23.700574], [120.211822, 23.701504], [120.211965, 23.70164], [120.212259, 23.701547], [120.21265, 23.701546], [120.212681, 23.701882], [120.212893, 23.701874], [120.212048, 23.701897], [120.211654, 23.702009], [120.211426, 23.702199], [120.211464, 23.702491], [120.21111, 23.702442], [120.211106, 23.702325], [120.212041, 23.702311], [120.21216, 23.702177], [120.211981, 23.70214], [120.212149, 23.702621], [120.210652, 23.699987], [120.209532, 23.699743], [120.209333, 23.699928], [120.209084, 23.700012], [120.208927, 23.699839], [120.20882, 23.700073], [120.208491, 23.699835], [120.208578, 23.699693], [120.208302, 23.699721], [120.208285, 23.69985], [120.208107, 23.699649], [120.207987, 23.69981], [120.208066, 23.70022], [120.207524, 23.700501], [120.207176, 23.700165], [120.207311, 23.699815], [120.207048, 23.699529], [120.206723, 23.699803], [120.207538, 23.699495], [120.207854, 23.699598], [120.208208, 23.69937], [120.208834, 23.699265], [120.208898, 23.699156], [120.20899, 23.699243], [120.209259, 23.699121], [120.209228, 23.699491], [120.208677, 23.698748], [120.208415, 23.698584], [120.208225, 23.69888], [120.207993, 23.698966], [120.207977, 23.698793], [120.207714, 23.698821], [120.20794, 23.699168], [120.208242, 23.699129], [120.207452, 23.697999], [120.207228, 23.698034], [120.207163, 23.697903], [120.207491, 23.697744], [120.207463, 23.697519], [120.207299, 23.697256], [120.207042, 23.697451], [120.211108, 23.698861], [120.213376, 23.698221], [120.222189, 23.702755], [120.223755, 23.702897], [120.226506, 23.703923], [120.217934, 23.692918], [120.216556, 23.693682], [120.215581, 23.693722], [120.215453, 23.693926], [120.215033, 23.693955], [120.215632, 23.69324], [120.216052, 23.691277], [120.218999, 23.690426], [120.213154, 23.693625], [120.212953, 23.693707], [120.212752, 23.693408], [120.212889, 23.694736], [120.212097, 23.695081], [120.212015, 23.695211], [120.211775, 23.694835], [120.211842, 23.694787], [120.211588, 23.694933], [120.211464, 23.694264], [120.210813, 23.694794], [120.210807, 23.695124], [120.210628, 23.695111], [120.210175, 23.694671], [120.210356, 23.694495], [120.210248, 23.694332], [120.210336, 23.694146], [120.210458, 23.694078], [120.210357, 23.694003], [120.210433, 23.693759], [120.210343, 23.693217], [120.21003, 23.693333], [120.209862, 23.693019], [120.209818, 23.692664], [120.209533, 23.692522], [120.209629, 23.692413], [120.209262, 23.692392], [120.209339, 23.692433], [120.209426, 23.692078], [120.209166, 23.691836], [120.209311, 23.691696], [120.209494, 23.691794], [120.209538, 23.691578], [120.209163, 23.691178], [120.209029, 23.691114], [120.208724, 23.691137], [120.208876, 23.69146], [120.208858, 23.691593], [120.20876, 23.691581], [120.208805, 23.6919], [120.208711, 23.692527], [120.208764, 23.692535], [120.208165, 23.692412], [120.20832, 23.692183], [120.208382, 23.691799], [120.208087, 23.691822], [120.208128, 23.691956], [120.20777, 23.692231], [120.207765, 23.692379], [120.207599, 23.69195], [120.207821, 23.691491], [120.207987, 23.691405], [120.208209, 23.691476], [120.208393, 23.690926], [120.208192, 23.690928], [120.208104, 23.690789], [120.208099, 23.690623], [120.208347, 23.690369], [120.208156, 23.690188], [120.208772, 23.690112], [120.208894, 23.690274], [120.20894, 23.690843], [120.207814, 23.691062], [120.207712, 23.69097], [120.207535, 23.69101], [120.207409, 23.690699], [120.207698, 23.690675], [120.207512, 23.690331], [120.207613, 23.691373], [120.206881, 23.691185], [120.206312, 23.690403], [120.206286, 23.690226], [120.204809, 23.689485], [120.204527, 23.690135], [120.209168, 23.692085], [120.208911, 23.692897], [120.20869, 23.692973]]}}, {"type": "Feature", "properties": {"district": "1000916", "segment": 20, "total_segments": 20, "km": 2.65, "villages": ["光華村"]}, "geometry": {"type": "LineString", "coordinates": [[120.209142, 23.693064], [120.209703, 23.693437], [120.209938, 23.693831], [120.209858, 23.693927], [120.210221, 23.693893], [120.210203, 23.694022], [120.209793, 23.694333], [120.209875, 23.694528], [120.209532, 23.69457], [120.209446, 23.694343], [120.209201, 23.694484], [120.208974, 23.694501], [120.209047, 23.693861], [120.209007, 23.693701], [120.208816, 23.693587], [120.209306, 23.693747], [120.20934, 23.693658], [120.209435, 23.693664], [120.209476, 23.693869], [120.21016, 23.693548], [120.210693, 23.693599], [120.210549, 23.694316], [120.209535, 23.69464], [120.20903, 23.695945], [120.209507, 23.696261], [120.209767, 23.696061], [120.210176, 23.695903], [120.2103, 23.696082], [120.210574, 23.696188], [120.208697, 23.696493], [120.207537, 23.69705], [120.206967, 23.695932], [120.207524, 23.695406], [120.207045, 23.694503], [120.208032, 23.694285], [120.214096, 23.695534]]}}]}