{"type": "FeatureCollection", "features": [{"type": "Feature", "properties": {"district": "6400100", "segment": 1, "total_segments": 6, "km": 12.27, "villages": ["中原里", "中山里", "陸橋里", "教仁里"]}, "geometry": {"type": "LineString", "coordinates": [[120.282114, 22.625673], [120.282104, 22.625621], [120.282689, 22.625353], [120.282658, 22.625479], [120.282771, 22.625615], [120.282805, 22.62585], [120.282945, 22.625986], [120.282662, 22.62603], [120.282781, 22.626121], [120.282784, 22.626256], [120.28272, 22.626292], [120.282615, 22.626202], [120.282374, 22.625668], [120.282255, 22.625809], [120.282354, 22.625881], [120.282189, 22.625911], [120.282062, 22.625639], [120.282574, 22.625533], [120.282652, 22.625642], [120.282486, 22.625704], [120.282628, 22.625967], [120.282477, 22.626052], [120.282528, 22.626201], [120.282379, 22.626246], [120.28243, 22.626354], [120.282631, 22.626265], [120.28236, 22.626209], [120.282265, 22.62604], [120.282449, 22.625641], [120.283082, 22.62611], [120.283145, 22.626403], [120.282985, 22.626519], [120.283092, 22.626592], [120.283272, 22.627017], [120.283515, 22.626964], [120.283367, 22.626809], [120.283228, 22.626367], [120.282613, 22.626691], [120.282716, 22.626726], [120.282915, 22.62716], [120.283075, 22.627139], [120.283175, 22.627226], [120.282993, 22.627296], [120.283012, 22.627016], [120.282845, 22.626726], [120.28263, 22.62659], [120.283249, 22.626855], [120.283405, 22.626765], [120.283519, 22.627055], [120.28332, 22.627144], [120.283586, 22.627028], [120.28371, 22.627344], [120.283765, 22.627327], [120.283766, 22.627417], [120.283451, 22.627499], [120.283525, 22.627734], [120.283622, 22.627651], [120.283895, 22.628095], [120.284116, 22.628023], [120.283803, 22.627564], [120.283862, 22.627535], [120.283794, 22.627507], [120.283718, 22.627602], [120.283705, 22.627525], [120.283586, 22.627606], [120.283168, 22.627597], [120.283521, 22.628319], [120.283786, 22.628167], [120.283562, 22.627802], [120.283617, 22.627798], [120.283767, 22.628067], [120.283553, 22.628064], [120.283375, 22.627695], [120.283385, 22.627453], [120.282775, 22.627774], [120.283007, 22.628259], [120.283059, 22.628226], [120.283006, 22.628344], [120.283077, 22.628516], [120.282932, 22.628587], [120.28287, 22.628596], [120.282481, 22.627908], [120.282726, 22.627801], [120.28261, 22.627529], [120.282132, 22.627708], [120.2818, 22.62702], [120.281385, 22.627235], [120.281614, 22.627624], [120.281564, 22.627651], [120.281645, 22.627679], [120.281738, 22.627931], [120.282039, 22.627779], [120.281724, 22.627218], [120.281569, 22.627299], [120.28176, 22.627597], [120.282155, 22.627265], [120.282048, 22.627003], [120.282123, 22.626949], [120.282195, 22.627112], [120.282366, 22.626932], [120.282234, 22.626814], [120.281961, 22.626939], [120.281539, 22.626052], [120.281737, 22.625882], [120.282113, 22.62657], [120.281658, 22.626766], [120.281269, 22.626078], [120.280911, 22.626275], [120.280988, 22.626429], [120.281251, 22.626331], [120.281197, 22.62624], [120.28084, 22.626281], [120.281242, 22.626942], [120.281516, 22.626825], [120.281403, 22.626612], [120.281594, 22.626793], [120.282389, 22.627077], [120.282422, 22.627275], [120.282538, 22.627231], [120.282488, 22.627149], [120.282594, 22.627357], [120.282629, 22.627282], [120.282681, 22.627501], [120.282415, 22.627004], [120.282321, 22.628006], [120.28269, 22.628694], [120.282523, 22.628712], [120.28218, 22.628068], [120.282275, 22.628024], [120.281933, 22.628203], [120.282278, 22.628828], [120.282483, 22.628841], [120.282521, 22.628748], [120.282371, 22.628693], [120.282169, 22.628331], [120.281996, 22.628449], [120.282894, 22.628415], [120.282914, 22.628461], [120.275175, 22.630323], [120.275095, 22.630151], [120.274994, 22.630187], [120.274704, 22.629689], [120.272459, 22.629552], [120.279824, 22.627914], [120.280214, 22.627744], [120.280307, 22.627916], [120.279924, 22.628077], [120.279901, 22.627996], [120.280046, 22.628243], [120.28043, 22.628042], [120.280507, 22.628156], [120.280856, 22.628757], [120.280534, 22.62895], [120.280435, 22.628825], [120.28063, 22.628729], [120.280548, 22.62859], [120.280347, 22.628689], [120.280241, 22.628531], [120.280463, 22.628425], [120.28038, 22.62829], [120.280148, 22.628404], [120.280684, 22.628089], [120.280789, 22.628252], [120.280901, 22.628226], [120.280794, 22.628036], [120.280664, 22.628044], [120.280535, 22.627818], [120.280612, 22.627791], [120.280409, 22.627637], [120.280642, 22.627611], [120.28082, 22.62744], [120.280882, 22.627621], [120.280723, 22.627692], [120.28087, 22.627756], [120.281066, 22.627667], [120.280916, 22.627485], [120.281057, 22.627342], [120.281472, 22.628213], [120.281263, 22.628029], [120.281064, 22.627983], [120.280992, 22.62782], [120.281097, 22.62773], [120.280919, 22.627603], [120.280777, 22.627846], [120.281021, 22.628172], [120.281016, 22.628353], [120.281122, 22.628525], [120.280995, 22.628456], [120.280953, 22.628542], [120.281014, 22.628642], [120.280836, 22.628352], [120.281211, 22.628281], [120.281564, 22.62859], [120.28152, 22.628767], [120.281695, 22.629015], [120.281636, 22.629066], [120.2817, 22.62916], [120.282006, 22.629016], [120.281718, 22.628519], [120.281774, 22.628481], [120.281674, 22.62878], [120.281823, 22.628826], [120.281729, 22.628994], [120.281442, 22.628812], [120.281333, 22.628896], [120.281464, 22.629131], [120.281378, 22.629112], [120.281209, 22.629256], [120.281003, 22.629057], [120.281115, 22.629022], [120.281191, 22.629121], [120.280353, 22.627456], [120.280141, 22.627536], [120.279748, 22.626839], [120.279968, 22.626741], [120.280323, 22.62742], [120.280698, 22.627241], [120.28041, 22.626761], [120.280264, 22.626814], [120.280492, 22.62724], [120.280835, 22.627115], [120.280753, 22.627078], [120.280557, 22.626644], [120.280683, 22.626635], [120.280951, 22.627106], [120.280508, 22.626409], [120.280288, 22.626589], [120.280231, 22.626742], [120.279987, 22.626398], [120.280161, 22.626308], [120.279805, 22.625683], [120.279661, 22.625746], [120.279983, 22.626253], [120.279727, 22.62636], [120.279519, 22.62589], [120.279414, 22.625871], [120.278658, 22.626238], [120.278822, 22.626329], [120.278904, 22.626266], [120.278861, 22.626383], [120.279066, 22.6267], [120.279101, 22.626592], [120.279288, 22.626566], [120.279123, 22.626321], [120.278997, 22.626438], [120.279039, 22.626303], [120.279364, 22.626178], [120.279635, 22.626604], [120.279812, 22.626532], [120.279741, 22.626396], [120.279589, 22.626622], [120.279503, 22.626964], [120.279946, 22.627644], [120.279721, 22.627748], [120.279582, 22.627461], [120.279653, 22.627426], [120.279453, 22.627244], [120.279519, 22.627208], [120.279432, 22.627072], [120.279311, 22.627063], [120.279433, 22.627], [120.27935, 22.626142], [120.279509, 22.62579], [120.280126, 22.625513], [120.280423, 22.62612], [120.280228, 22.626074], [120.280027, 22.625693], [120.280397, 22.625388], [120.280733, 22.626013], [120.280783, 22.625995], [120.281111, 22.625788], [120.280805, 22.625191], [120.280504, 22.625325], [120.281269, 22.624971], [120.28134, 22.625356], [120.281417, 22.625311], [120.28154, 22.625483], [120.281479, 22.625528], [120.28128, 22.625437], [120.281303, 22.625618], [120.28135, 22.625582], [120.28121, 22.625428], [120.281221, 22.625334], [120.281053, 22.625183], [120.281236, 22.625157], [120.281376, 22.625234], [120.281141, 22.625328], [120.281306, 22.625726], [120.281948, 22.62544], [120.281747, 22.624987], [120.282038, 22.62489], [120.282178, 22.625143], [120.28208, 22.625034], [120.281972, 22.625034], [120.282018, 22.624862], [120.281845, 22.6246], [120.281921, 22.624663], [120.282204, 22.624466], [120.282353, 22.624738], [120.282081, 22.624828], [120.282036, 22.624745], [120.282008, 22.624826], [120.281773, 22.624644], [120.281579, 22.624734], [120.281616, 22.624824], [120.282379, 22.624799], [120.282562, 22.625163], [120.282393, 22.625314], [120.282167, 22.625188], [120.282195, 22.625351], [120.282078, 22.625423], [120.282004, 22.625359], [120.282285, 22.625333], [120.28232, 22.62499], [120.28084, 22.626281]]}}, {"type": "Feature", "properties": {"district": "6400100", "segment": 2, "total_segments": 6, "km": 10.29, "villages": ["港都里", "江西里", "新豐里"]}, "geometry": {"type": "LineString", "coordinates": [[120.280824, 22.624731], [120.280919, 22.624505], [120.280639, 22.623976], [120.280596, 22.623917], [120.280544, 22.623989], [120.280493, 22.623926], [120.280366, 22.623989], [120.28064, 22.624344], [120.280409, 22.62378], [120.280541, 22.623736], [120.280435, 22.623365], [120.280394, 22.623293], [120.280096, 22.623373], [120.28025, 22.623689], [120.280928, 22.623406], [120.280963, 22.623469], [120.281143, 22.623404], [120.280996, 22.623553], [120.281045, 22.623719], [120.281246, 22.623676], [120.28136, 22.623893], [120.281264, 22.623947], [120.28147, 22.624318], [120.281459, 22.624426], [120.281622, 22.624337], [120.281424, 22.624011], [120.281599, 22.623915], [120.28177, 22.624304], [120.281885, 22.624257], [120.281421, 22.623523], [120.281537, 22.623451], [120.282037, 22.624153], [120.281948, 22.624221], [120.281647, 22.623398], [120.281379, 22.623557], [120.281576, 22.623867], [120.281221, 22.623883], [120.281209, 22.623621], [120.281336, 22.623306], [120.281549, 22.623208], [120.281355, 22.622905], [120.280949, 22.623286], [120.280789, 22.623076], [120.280549, 22.622481], [120.280598, 22.622454], [120.280354, 22.622019], [120.280241, 22.622172], [120.28034, 22.622349], [120.280463, 22.622327], [120.280445, 22.622525], [120.280098, 22.62265], [120.279899, 22.622541], [120.279748, 22.622622], [120.279641, 22.622585], [120.279582, 22.622458], [120.279757, 22.62236], [120.279715, 22.622305], [120.27991, 22.622369], [120.279674, 22.621926], [120.279655, 22.62217], [120.279452, 22.622268], [120.279343, 22.622114], [120.279484, 22.622042], [120.279775, 22.622459], [120.280217, 22.622118], [120.280011, 22.621765], [120.280223, 22.621712], [120.280256, 22.621838], [120.280467, 22.621777], [120.280666, 22.622147], [120.280818, 22.621922], [120.280966, 22.622239], [120.280812, 22.622319], [120.280627, 22.621533], [120.280358, 22.62164], [120.280459, 22.621749], [120.280539, 22.621686], [120.280647, 22.621768], [120.280539, 22.621821], [120.284949, 22.620324], [120.279568, 22.622912], [120.279136, 22.623016], [120.279031, 22.622645], [120.279347, 22.622529], [120.279377, 22.62259], [120.279157, 22.62242], [120.278994, 22.622492], [120.278928, 22.62241], [120.279205, 22.622339], [120.279215, 22.622168], [120.27879, 22.622373], [120.278925, 22.622681], [120.278633, 22.622815], [120.27877, 22.623051], [120.278453, 22.623176], [120.278337, 22.622995], [120.278562, 22.622887], [120.278594, 22.622996], [120.278304, 22.623184], [120.278239, 22.62313], [120.278288, 22.623003], [120.278198, 22.623012], [120.27811, 22.622867], [120.27859, 22.622701], [120.278483, 22.622487], [120.277998, 22.622713], [120.278082, 22.622804], [120.27766, 22.623317], [120.277814, 22.623453], [120.278081, 22.623337], [120.278054, 22.623264], [120.278115, 22.623427], [120.277937, 22.623535], [120.278353, 22.623341], [120.278448, 22.623474], [120.278566, 22.623384], [120.278512, 22.623302], [120.27871, 22.623222], [120.278673, 22.623348], [120.278862, 22.623205], [120.278824, 22.623132], [120.278338, 22.623247], [120.277778, 22.62267], [120.278092, 22.622406], [120.278003, 22.62225], [120.278105, 22.622217], [120.277776, 22.622306], [120.277735, 22.622224], [120.277379, 22.62243], [120.277968, 22.6219], [120.278758, 22.622328], [120.279107, 22.622384], [120.279878, 22.623733], [120.279928, 22.623968], [120.280087, 22.62388], [120.279878, 22.623486], [120.279622, 22.623651], [120.279695, 22.623759], [120.279561, 22.62384], [120.279484, 22.623695], [120.279677, 22.624021], [120.279971, 22.624273], [120.280247, 22.624126], [120.280379, 22.624503], [120.280091, 22.624538], [120.280036, 22.624438], [120.279948, 22.624483], [120.280035, 22.62461], [120.28007, 22.624329], [120.279511, 22.62448], [120.27953, 22.624779], [120.279923, 22.62516], [120.279525, 22.62533], [120.279381, 22.625094], [120.279453, 22.62505], [120.27952, 22.625167], [120.279686, 22.625087], [120.279729, 22.625159], [120.279636, 22.624987], [120.279421, 22.624941], [120.27932, 22.624778], [120.279235, 22.624814], [120.279306, 22.624987], [120.279079, 22.62514], [120.279249, 22.625401], [120.278799, 22.625552], [120.278673, 22.625525], [120.278691, 22.625383], [120.279006, 22.625222], [120.278925, 22.62508], [120.278607, 22.625239], [120.278542, 22.625106], [120.27896, 22.624916], [120.279029, 22.62505], [120.278859, 22.624734], [120.278469, 22.624979], [120.279072, 22.624632], [120.279192, 22.624698], [120.279153, 22.624768], [120.279218, 22.624602], [120.279367, 22.624543], [120.279585, 22.624626], [120.279639, 22.624725], [120.279185, 22.624001], [120.279031, 22.624199], [120.2789, 22.624225], [120.27876, 22.624071], [120.278952, 22.623982], [120.278927, 22.62428], [120.279463, 22.625357], [120.278439, 22.62593], [120.280583, 22.62491], [120.280104, 22.623915], [120.278709, 22.622201], [120.278251, 22.621396], [120.278314, 22.62136], [120.278144, 22.621305], [120.278656, 22.621072], [120.278633, 22.621325], [120.278496, 22.621306], [120.27858, 22.621451], [120.278774, 22.62137], [120.278803, 22.621479], [120.278627, 22.621551], [120.2788, 22.621741], [120.278901, 22.621715], [120.278836, 22.62157], [120.279, 22.621483], [120.278885, 22.62125], [120.279097, 22.621166], [120.279058, 22.621078], [120.279354, 22.62181], [120.279195, 22.621858], [120.279137, 22.621751], [120.278922, 22.621769], [120.278912, 22.622058], [120.279044, 22.621986], [120.278727, 22.622021], [120.27844, 22.621415], [120.278043, 22.621359], [120.278075, 22.621467], [120.277946, 22.621503], [120.278115, 22.621883], [120.27805, 22.622], [120.278162, 22.621955], [120.278377, 22.622335], [120.278266, 22.622317], [120.278121, 22.622443], [120.277927, 22.62209], [120.277924, 22.621674], [120.277859, 22.621611], [120.277792, 22.621665], [120.277836, 22.621755], [120.277747, 22.621728], [120.277681, 22.621592], [120.277857, 22.621486], [120.278558, 22.622082], [120.279813, 22.621487], [120.280324, 22.620565], [120.270561, 22.623538]]}}, {"type": "Feature", "properties": {"district": "6400100", "segment": 3, "total_segments": 6, "km": 11.64, "villages": ["江南里", "新化里", "河濱里", "南端里"]}, "geometry": {"type": "LineString", "coordinates": [[120.280812, 22.621407], [120.281072, 22.621354], [120.28104, 22.621435], [120.281377, 22.622022], [120.281816, 22.6218], [120.28169, 22.621781], [120.281531, 22.621483], [120.281339, 22.62159], [120.281517, 22.621591], [120.281367, 22.621211], [120.281449, 22.621166], [120.281192, 22.621251], [120.281323, 22.621482], [120.281376, 22.621374], [120.281768, 22.621366], [120.281989, 22.621692], [120.282376, 22.621504], [120.282236, 22.621468], [120.282179, 22.621278], [120.282114, 22.621314], [120.282164, 22.621402], [120.281927, 22.621502], [120.282007, 22.621593], [120.282077, 22.621557], [120.282037, 22.621349], [120.281989, 22.621277], [120.281873, 22.621331], [120.282299, 22.621116], [120.282372, 22.621288], [120.282274, 22.621206], [120.282476, 22.621532], [120.281958, 22.621755], [120.281952, 22.621024], [120.280908, 22.621588], [120.281151, 22.622122], [120.281098, 22.621688], [120.280881, 22.621534], [120.282169, 22.624059], [120.283552, 22.62337], [120.283306, 22.623616], [120.283588, 22.624062], [120.282446, 22.620456], [120.282752, 22.620251], [120.28257, 22.619844], [120.282109, 22.620058], [120.282069, 22.62013], [120.282275, 22.620483], [120.282389, 22.620421], [120.282397, 22.620321], [120.28223, 22.620131], [120.282589, 22.620069], [120.28264, 22.620169], [120.282495, 22.620271], [120.282434, 22.620254], [120.28256, 22.620015], [120.282831, 22.620215], [120.283228, 22.620045], [120.283069, 22.619638], [120.283344, 22.619531], [120.28335, 22.619215], [120.283684, 22.6191], [120.283342, 22.619106], [120.282667, 22.619591], [120.282575, 22.619433], [120.282422, 22.619518], [120.282502, 22.619667], [120.281978, 22.619876], [120.281898, 22.619761], [120.281644, 22.619941], [120.281926, 22.620541], [120.281275, 22.620894], [120.281117, 22.620596], [120.280735, 22.620775], [120.280588, 22.621], [120.28069, 22.621181], [120.280979, 22.621092], [120.280713, 22.621253], [120.280456, 22.620914], [120.282541, 22.619645], [120.28388, 22.619253], [120.283973, 22.619163], [120.284004, 22.619209], [120.283872, 22.618901], [120.28425, 22.618801], [120.284643, 22.618868], [120.284656, 22.619119], [120.284338, 22.619788], [120.28388, 22.620093], [120.283969, 22.620292], [120.284002, 22.620184], [120.284373, 22.620123], [120.284398, 22.61996], [120.284462, 22.620078], [120.284442, 22.620204], [120.284328, 22.620286], [120.284026, 22.620347], [120.284061, 22.620464], [120.284212, 22.620591], [120.284458, 22.620421], [120.284512, 22.62055], [120.28464, 22.620494], [120.28461, 22.620435], [120.28473, 22.620467], [120.284516, 22.620195], [120.284406, 22.620601], [120.283466, 22.620976], [120.283332, 22.620678], [120.283574, 22.620562], [120.28352, 22.620471], [120.283723, 22.620327], [120.283605, 22.620119], [120.283136, 22.620334], [120.283195, 22.620461], [120.283567, 22.620273], [120.283086, 22.620296], [120.282865, 22.620405], [120.283301, 22.621147], [120.283061, 22.6212], [120.282909, 22.621349], [120.28259, 22.620936], [120.282942, 22.620775], [120.283091, 22.621092], [120.283494, 22.621027], [120.283563, 22.620805], [120.283824, 22.620618], [120.283865, 22.620689], [120.283808, 22.620472], [120.28367, 22.620508], [120.283777, 22.620418], [120.283861, 22.620056], [120.283805, 22.619985], [120.284042, 22.61994], [120.283995, 22.619846], [120.28358, 22.620065], [120.283359, 22.62057], [120.28323, 22.620632], [120.283213, 22.620506], [120.282543, 22.620855], [120.282448, 22.620674], [120.282577, 22.620699], [120.28262, 22.620575], [120.282803, 22.620486], [120.282831, 22.62054], [120.282766, 22.620567], [120.282804, 22.62138], [120.283302, 22.622258], [120.283534, 22.622259], [120.283368, 22.622385], [120.283409, 22.622621], [120.283542, 22.622711], [120.283792, 22.623272], [120.284125, 22.623189], [120.284127, 22.623102], [120.284313, 22.623012], [120.284056, 22.622929], [120.283722, 22.622432], [120.28359, 22.622494], [120.283842, 22.622974], [120.283908, 22.622947], [120.283811, 22.622992], [120.284122, 22.622795], [120.283917, 22.622423], [120.283955, 22.62236], [120.283895, 22.622297], [120.283815, 22.622387], [120.283674, 22.621871], [120.283463, 22.62197], [120.283374, 22.621825], [120.283273, 22.621868], [120.283199, 22.621905], [120.283555, 22.621763], [120.283654, 22.621835], [120.283899, 22.621728], [120.283866, 22.621665], [120.284318, 22.621485], [120.284419, 22.621613], [120.28438, 22.621658], [120.283979, 22.621873], [120.283935, 22.6218], [120.284029, 22.621972], [120.284055, 22.622018], [120.284119, 22.62191], [120.284471, 22.62174], [120.284517, 22.621821], [120.284452, 22.621703], [120.284876, 22.622473], [120.284735, 22.622517], [120.284547, 22.622282], [120.284607, 22.622126], [120.284545, 22.622011], [120.284414, 22.622004], [120.284407, 22.622082], [120.284258, 22.622145], [120.284554, 22.622652], [120.284433, 22.622724], [120.284146, 22.622199], [120.285179, 22.622122], [120.285284, 22.622222], [120.285092, 22.622284], [120.285219, 22.62252], [120.285562, 22.622413], [120.285593, 22.622196], [120.285443, 22.621924], [120.285373, 22.622024], [120.285464, 22.622167], [120.285298, 22.622362], [120.284983, 22.622636], [120.284475, 22.622886], [120.285159, 22.621585], [120.284267, 22.621395], [120.28538, 22.621123], [120.285504, 22.621067], [120.285568, 22.621239], [120.285869, 22.621138], [120.285809, 22.621086], [120.285827, 22.621328], [120.286135, 22.621819], [120.286048, 22.621863], [120.286079, 22.621944], [120.286226, 22.621856], [120.286343, 22.622037], [120.286038, 22.622222], [120.285828, 22.621855], [120.286548, 22.621342], [120.286697, 22.621657], [120.286581, 22.621704], [120.286206, 22.62116], [120.286523, 22.620975], [120.286702, 22.620919], [120.286802, 22.621073], [120.286612, 22.621198], [120.286565, 22.621099], [120.286644, 22.621122], [120.286746, 22.620901], [120.287444, 22.620624], [120.287553, 22.620816], [120.287435, 22.620788], [120.287372, 22.620913], [120.287079, 22.621011], [120.287011, 22.620884], [120.287168, 22.62083], [120.287103, 22.621056], [120.287289, 22.621517], [120.287638, 22.621347], [120.287745, 22.621248], [120.287725, 22.621113], [120.287406, 22.620579], [120.287381, 22.620407], [120.287119, 22.620505], [120.286992, 22.620143], [120.286681, 22.620286], [120.286807, 22.620657], [120.287037, 22.62055], [120.286844, 22.620291], [120.286652, 22.620232], [120.286238, 22.620492], [120.286429, 22.620818], [120.286486, 22.620791], [120.286584, 22.620719], [120.286463, 22.620502], [120.285711, 22.620759], [120.285601, 22.620727], [120.285663, 22.620869], [120.285388, 22.620868], [120.285576, 22.621474], [120.28575, 22.621411], [120.285611, 22.621569], [120.286501, 22.621207], [120.286652, 22.621298], [120.286851, 22.621163], [120.287082, 22.621616], [120.286917, 22.621725], [120.286721, 22.621312], [120.286467, 22.621152], [120.286363, 22.621179], [120.2864, 22.621247], [120.286176, 22.620925], [120.28666, 22.621868], [120.287844, 22.621276], [120.287322, 22.620289], [120.287151, 22.620379], [120.287099, 22.620288], [120.287255, 22.620181], [120.287279, 22.620226], [120.287179, 22.620144], [120.287168, 22.620016], [120.287027, 22.620125], [120.285177, 22.620207], [120.285142, 22.620144], [120.285209, 22.620117], [120.284856, 22.62026], [120.284918, 22.620333], [120.284863, 22.62036], [120.28511, 22.620243], [120.285173, 22.620279], [120.284974, 22.620053], [120.284829, 22.62017], [120.284782, 22.620079], [120.285132, 22.619963], [120.28491, 22.619431], [120.284496, 22.619681], [120.284624, 22.619799], [120.284757, 22.619727], [120.28467, 22.61988], [120.284724, 22.620143], [120.284779, 22.619919], [120.284916, 22.619854], [120.28521, 22.619982], [120.284862, 22.618545], [120.286078, 22.618077]]}}, {"type": "Feature", "properties": {"district": "6400100", "segment": 4, "total_segments": 6, "km": 10.79, "villages": ["沙地里", "育仁里", "光明里", "新樂里"]}, "geometry": {"type": "LineString", "coordinates": [[120.287368, 22.619867], [120.287539, 22.620143], [120.287612, 22.620092], [120.287647, 22.620236], [120.287724, 22.620201], [120.287596, 22.620263], [120.287886, 22.620581], [120.287797, 22.620625], [120.287753, 22.620553], [120.28789, 22.620797], [120.288072, 22.620591], [120.287984, 22.620438], [120.288086, 22.620284], [120.288291, 22.620167], [120.288356, 22.620317], [120.288233, 22.620375], [120.288338, 22.620456], [120.288836, 22.620215], [120.288802, 22.620124], [120.288513, 22.620231], [120.288462, 22.620078], [120.288637, 22.619997], [120.288521, 22.619824], [120.288587, 22.619798], [120.288209, 22.619968], [120.288088, 22.619701], [120.287988, 22.619759], [120.288138, 22.620004], [120.28782, 22.620102], [120.287444, 22.619839], [120.287985, 22.619624], [120.287764, 22.619822], [120.287935, 22.619831], [120.288234, 22.619661], [120.288331, 22.619833], [120.288431, 22.619635], [120.2883, 22.619508], [120.288192, 22.619556], [120.288433, 22.62052], [120.288651, 22.620674], [120.288696, 22.620828], [120.288497, 22.62099], [120.288061, 22.621141], [120.287985, 22.620915], [120.288446, 22.620825], [120.288426, 22.620728], [120.288157, 22.620708], [120.287925, 22.62087], [120.288757, 22.620693], [120.288787, 22.620783], [120.288947, 22.620721], [120.288582, 22.617997], [120.289154, 22.621011], [120.288909, 22.621199], [120.28863, 22.621279], [120.288773, 22.621488], [120.28884, 22.621461], [120.288919, 22.62166], [120.288704, 22.621641], [120.2888, 22.621596], [120.288728, 22.621515], [120.288519, 22.621622], [120.288583, 22.621433], [120.288512, 22.621387], [120.288289, 22.621513], [120.288458, 22.621818], [120.288519, 22.621776], [120.28856, 22.621884], [120.288692, 22.621849], [120.288767, 22.621966], [120.288558, 22.622083], [120.28855, 22.621983], [120.288628, 22.621975], [120.288634, 22.62174], [120.288575, 22.621713], [120.288799, 22.621768], [120.289031, 22.622031], [120.289003, 22.62175], [120.289115, 22.621381], [120.28899, 22.621344], [120.288138, 22.621909], [120.288325, 22.62219], [120.287919, 22.62236], [120.287784, 22.622386], [120.28749, 22.621886], [120.287726, 22.621763], [120.287932, 22.622215], [120.288137, 22.62209], [120.287824, 22.622278], [120.287813, 22.62245], [120.287414, 22.622611], [120.287354, 22.622538], [120.287548, 22.622458], [120.287446, 22.622213], [120.287206, 22.622359], [120.287249, 22.62244], [120.287399, 22.622358], [120.287302, 22.622664], [120.287087, 22.622772], [120.286971, 22.622747], [120.286919, 22.622551], [120.286614, 22.622752], [120.286551, 22.622598], [120.286627, 22.622464], [120.286509, 22.622327], [120.286171, 22.622506], [120.286249, 22.622732], [120.286364, 22.622705], [120.286359, 22.622805], [120.286475, 22.622913], [120.286455, 22.622768], [120.286638, 22.622797], [120.286719, 22.62286], [120.286699, 22.622951], [120.286849, 22.622933], [120.2867, 22.622607], [120.286525, 22.622507], [120.286567, 22.622309], [120.286756, 22.622183], [120.286922, 22.622346], [120.286924, 22.622175], [120.287324, 22.621969], [120.287355, 22.622016], [120.287127, 22.622221], [120.287187, 22.622465], [120.28682, 22.622156], [120.286636, 22.622986], [120.286492, 22.623022], [120.286513, 22.623094], [120.28732, 22.623143], [120.287591, 22.622955], [120.28797, 22.623272], [120.287903, 22.623615], [120.288857, 22.622942], [120.289157, 22.62264], [120.28883, 22.622445], [120.288001, 22.626026], [120.286753, 22.624671], [120.286765, 22.624315], [120.28664, 22.624206], [120.28672, 22.624143], [120.286646, 22.624016], [120.286153, 22.62424], [120.286245, 22.624565], [120.286326, 22.62452], [120.286105, 22.624666], [120.285766, 22.624665], [120.285883, 22.624302], [120.285613, 22.623939], [120.285389, 22.624119], [120.285144, 22.624154], [120.285322, 22.624407], [120.285427, 22.624366], [120.285379, 22.624308], [120.285496, 22.624237], [120.285528, 22.6243], [120.285644, 22.624192], [120.285761, 22.624328], [120.285159, 22.624623], [120.285121, 22.624551], [120.285025, 22.624605], [120.285085, 22.624704], [120.285189, 22.624732], [120.285183, 22.62466], [120.285278, 22.624823], [120.285202, 22.624857], [120.285308, 22.624868], [120.285377, 22.624977], [120.284902, 22.625182], [120.284744, 22.624784], [120.284875, 22.624658], [120.285042, 22.625011], [120.285489, 22.624778], [120.285466, 22.624733], [120.285552, 22.624905], [120.28499, 22.624252], [120.284746, 22.624369], [120.284571, 22.62425], [120.284574, 22.624169], [120.28487, 22.624053], [120.284652, 22.6237], [120.284522, 22.623727], [120.284584, 22.623555], [120.284537, 22.623429], [120.284466, 22.623383], [120.283956, 22.62358], [120.284202, 22.623888], [120.284273, 22.623783], [120.284172, 22.623698], [120.284502, 22.623349], [120.284789, 22.623434], [120.284988, 22.623848], [120.285084, 22.623792], [120.285136, 22.623892], [120.285229, 22.623854], [120.285471, 22.623722], [120.285353, 22.623667], [120.285502, 22.623595], [120.285233, 22.623034], [120.284826, 22.623231], [120.285049, 22.62353], [120.285285, 22.623396], [120.285333, 22.623491], [120.285148, 22.623594], [120.284977, 22.623566], [120.28536, 22.622935], [120.285415, 22.622909], [120.285515, 22.623117], [120.285627, 22.623081], [120.285552, 22.622955], [120.285666, 22.622946], [120.285774, 22.623136], [120.285664, 22.62319], [120.285694, 22.623244], [120.285907, 22.623064], [120.285914, 22.623128], [120.286077, 22.623083], [120.285923, 22.622703], [120.285563, 22.622828], [120.28557, 22.623216], [120.285734, 22.623587], [120.286064, 22.623426], [120.286004, 22.623282], [120.286136, 22.623165], [120.286576, 22.623952], [120.286039, 22.624113], [120.286094, 22.624194], [120.286042, 22.624022], [120.285886, 22.623787], [120.285842, 22.623814], [120.286335, 22.623608], [120.286373, 22.623807], [120.286124, 22.62395], [120.2858, 22.623389], [120.285938, 22.623317], [120.285093, 22.623919], [120.284669, 22.623989], [120.28447, 22.624079], [120.284493, 22.624205], [120.284314, 22.624212], [120.284533, 22.624605], [120.286204, 22.625314], [120.28627, 22.62517], [120.284541, 22.625334], [120.284331, 22.624948], [120.284019, 22.624989], [120.283898, 22.624789], [120.284138, 22.624615], [120.284206, 22.624725], [120.284092, 22.625097], [120.283861, 22.625178], [120.284063, 22.62554], [120.284543, 22.62537], [120.284354, 22.62528], [120.284066, 22.625413], [120.284088, 22.625269], [120.284311, 22.62516], [120.283896, 22.625042], [120.283837, 22.624925], [120.283713, 22.624951], [120.283677, 22.624852], [120.28381, 22.624834], [120.283799, 22.625033], [120.283551, 22.625167], [120.28378, 22.625511], [120.283182, 22.62578], [120.282947, 22.625345], [120.282843, 22.625281], [120.282999, 22.625255], [120.283072, 22.625355], [120.283454, 22.625492], [120.283579, 22.625438], [120.283312, 22.625112], [120.283028, 22.625165], [120.282937, 22.624975], [120.283393, 22.624778], [120.283052, 22.624217], [120.282873, 22.624297], [120.282787, 22.624188], [120.28239, 22.624412], [120.282558, 22.62454], [120.282754, 22.625073], [120.282836, 22.624983], [120.282715, 22.62473], [120.282806, 22.624685], [120.282916, 22.624902], [120.283135, 22.624795], [120.283052, 22.624641], [120.2829, 22.624708], [120.282783, 22.62464], [120.282669, 22.624378], [120.283627, 22.623858], [120.28385, 22.624213], [120.283756, 22.624328], [120.283905, 22.624511], [120.283664, 22.624608], [120.283666, 22.624692], [120.283572, 22.624634], [120.283447, 22.624255], [120.283312, 22.624119], [120.283951, 22.624374], [120.283488, 22.624959], [120.283467, 22.625107], [120.283525, 22.625131], [120.283326, 22.625338], [120.283414, 22.625519], [120.28321, 22.625585], [120.283208, 22.625816], [120.283277, 22.625961], [120.284027, 22.625567], [120.281456, 22.626683]]}}, {"type": "Feature", "properties": {"district": "6400100", "segment": 5, "total_segments": 6, "km": 10.49, "villages": ["瀨南里", "府北里", "壽星里"]}, "geometry": {"type": "LineString", "coordinates": [[120.283339, 22.626234], [120.28357, 22.626241], [120.284, 22.626009], [120.284168, 22.626389], [120.284342, 22.626561], [120.284221, 22.626751], [120.283758, 22.626965], [120.283756, 22.626833], [120.283417, 22.626304], [120.28363, 22.626414], [120.283923, 22.626244], [120.283987, 22.626307], [120.283857, 22.626415], [120.283971, 22.626442], [120.283831, 22.626677], [120.283942, 22.626795], [120.284072, 22.626651], [120.283973, 22.626686], [120.283679, 22.626504], [120.284055, 22.626362], [120.284021, 22.626271], [120.284356, 22.626204], [120.284656, 22.626518], [120.285116, 22.626337], [120.285046, 22.626236], [120.285258, 22.626602], [120.285151, 22.626728], [120.284684, 22.62687], [120.284754, 22.626997], [120.28495, 22.626867], [120.284893, 22.627124], [120.284997, 22.627206], [120.284896, 22.62725], [120.284811, 22.627096], [120.284719, 22.627132], [120.284769, 22.627223], [120.284646, 22.627321], [120.284584, 22.627601], [120.284474, 22.627655], [120.284347, 22.627428], [120.284073, 22.627373], [120.284287, 22.627817], [120.284256, 22.627955], [120.284509, 22.627845], [120.284319, 22.627645], [120.284089, 22.627156], [120.284427, 22.62705], [120.284588, 22.626893], [120.284625, 22.626951], [120.284356, 22.627011], [120.284254, 22.627211], [120.28431, 22.627284], [120.283879, 22.627248], [120.283953, 22.627163], [120.283997, 22.627355], [120.284723, 22.627421], [120.284859, 22.627521], [120.284913, 22.627485], [120.284869, 22.627395], [120.285075, 22.62754], [120.285115, 22.62745], [120.285205, 22.627486], [120.285192, 22.627243], [120.285377, 22.627216], [120.285203, 22.627062], [120.285091, 22.627152], [120.285228, 22.627143], [120.285104, 22.627311], [120.285058, 22.627269], [120.285119, 22.627342], [120.285352, 22.627451], [120.285644, 22.627299], [120.285283, 22.626674], [120.284398, 22.62667], [120.284372, 22.626119], [120.284285, 22.625983], [120.284556, 22.625993], [120.284605, 22.6261], [120.284812, 22.625868], [120.284722, 22.625723], [120.284615, 22.625687], [120.284329, 22.625848], [120.28375, 22.626007], [120.28498, 22.627612], [120.284925, 22.627682], [120.282122, 22.621196], [120.285954, 22.626604], [120.286737, 22.626671], [120.285784, 22.627573], [120.285878, 22.627787], [120.285653, 22.628373], [120.285546, 22.628337], [120.285607, 22.628283], [120.285537, 22.628219], [120.285473, 22.628246], [120.285465, 22.62812], [120.285642, 22.627994], [120.285361, 22.628065], [120.28524, 22.627812], [120.285402, 22.627749], [120.285474, 22.627858], [120.285512, 22.627786], [120.285379, 22.627705], [120.28572, 22.627606], [120.285652, 22.627723], [120.285732, 22.627895], [120.28544, 22.627948], [120.285568, 22.627876], [120.285595, 22.628129], [120.285267, 22.628155], [120.284977, 22.62828], [120.284833, 22.627991], [120.285094, 22.627883], [120.285223, 22.628119], [120.285078, 22.628172], [120.285166, 22.628335], [120.285321, 22.628255], [120.285361, 22.628336], [120.285285, 22.628399], [120.285047, 22.628479], [120.285036, 22.628362], [120.285115, 22.628353], [120.284943, 22.628543], [120.284688, 22.628062], [120.284454, 22.628233], [120.284551, 22.628305], [120.284682, 22.628658], [120.284881, 22.62858], [120.284826, 22.628822], [120.284953, 22.629174], [120.284793, 22.629282], [120.28469, 22.629155], [120.28457, 22.629254], [120.28448, 22.629226], [120.284428, 22.629136], [120.28466, 22.629037], [120.284598, 22.628875], [120.284355, 22.629079], [120.284338, 22.629018], [120.284201, 22.62908], [120.284198, 22.629144], [120.284362, 22.629202], [120.284078, 22.629098], [120.283868, 22.628853], [120.283903, 22.629052], [120.284089, 22.62889], [120.284002, 22.628782], [120.283939, 22.628828], [120.283895, 22.628628], [120.283987, 22.628565], [120.284167, 22.628836], [120.284115, 22.628927], [120.284305, 22.628837], [120.28419, 22.628701], [120.284237, 22.628792], [120.28442, 22.628783], [120.284227, 22.62843], [120.284326, 22.628395], [120.284251, 22.628277], [120.284153, 22.628376], [120.284173, 22.628674], [120.283928, 22.628404], [120.283617, 22.628572], [120.283841, 22.62879], [120.284013, 22.628384], [120.28435, 22.628496], [120.284561, 22.628974], [120.284698, 22.629074], [120.284672, 22.629263], [120.285071, 22.629417], [120.285244, 22.629356], [120.285331, 22.62914], [120.285586, 22.629439], [120.285545, 22.62952], [120.285909, 22.629666], [120.286173, 22.629125], [120.286054, 22.629073], [120.286172, 22.62899], [120.286163, 22.628872], [120.286242, 22.628927], [120.286307, 22.628801], [120.285984, 22.628863], [120.285904, 22.629034], [120.285733, 22.62897], [120.28584, 22.628691], [120.286007, 22.628384], [120.286087, 22.628502], [120.2864, 22.628594], [120.286454, 22.628489], [120.286345, 22.628443], [120.286413, 22.628157], [120.286526, 22.628052], [120.286691, 22.628107], [120.286654, 22.628201], [120.286329, 22.628485], [120.286248, 22.628177], [120.286097, 22.628168], [120.286188, 22.627944], [120.286486, 22.628034], [120.285503, 22.628328], [120.284804, 22.628018], [120.284424, 22.628178], [120.284222, 22.629541], [120.284309, 22.629737], [120.284559, 22.630133], [120.284679, 22.63004], [120.284579, 22.629868], [120.284706, 22.629886], [120.284831, 22.630132], [120.285335, 22.629907], [120.284744, 22.629706], [120.284618, 22.629733], [120.284613, 22.629597], [120.28446, 22.629642], [120.283947, 22.629973], [120.283999, 22.630236], [120.284187, 22.63039], [120.283909, 22.630533], [120.283871, 22.630407], [120.283725, 22.630641], [120.283328, 22.63082], [120.283318, 22.630648], [120.283627, 22.630532], [120.283538, 22.630279], [120.283457, 22.630269], [120.283522, 22.630396], [120.283431, 22.630414], [120.283377, 22.630314], [120.283448, 22.63045], [120.283343, 22.630549], [120.283263, 22.63043], [120.283169, 22.630494], [120.283232, 22.630602], [120.282925, 22.630023], [120.283313, 22.629844], [120.283431, 22.630152], [120.283279, 22.630115], [120.283232, 22.630015], [120.283087, 22.630102], [120.283188, 22.630331], [120.282718, 22.629652], [120.282837, 22.629594], [120.282763, 22.629462], [120.28261, 22.629445], [120.282616, 22.629263], [120.282433, 22.629118], [120.282847, 22.628966], [120.283184, 22.629735], [120.282918, 22.629806], [120.28288, 22.62968], [120.283009, 22.62959], [120.282911, 22.6294], [120.283104, 22.629123], [120.283011, 22.628886], [120.28332, 22.62876], [120.283253, 22.628701], [120.283337, 22.628932], [120.283202, 22.629121], [120.283408, 22.629618], [120.283686, 22.629459], [120.283515, 22.629124], [120.283833, 22.629681], [120.28381, 22.629819], [120.283555, 22.629872], [120.28422, 22.631067], [120.283981, 22.631149], [120.28388, 22.630957], [120.283552, 22.631146], [120.283682, 22.6312], [120.283646, 22.631318], [120.28376, 22.631336], [120.283948, 22.631689], [120.284248, 22.631573], [120.283997, 22.631193], [120.283894, 22.631228], [120.284061, 22.631536], [120.283861, 22.631779], [120.283738, 22.631553], [120.283874, 22.631192], [120.283831, 22.63112], [120.283485, 22.631091], [120.28437, 22.630743], [120.284491, 22.631168], [120.284624, 22.631313], [120.284557, 22.631367], [120.285091, 22.631158], [120.284924, 22.630834], [120.285053, 22.630737], [120.285133, 22.630918], [120.284886, 22.630808], [120.284902, 22.630709], [120.284756, 22.630545], [120.284974, 22.630439], [120.284935, 22.63052], [120.285006, 22.630646], [120.285213, 22.630557], [120.285254, 22.630444], [120.28514, 22.630466], [120.285084, 22.630367], [120.285327, 22.630287], [120.285471, 22.630612], [120.285376, 22.630955], [120.285194, 22.631018], [120.285196, 22.631117], [120.285278, 22.631117], [120.285196, 22.631397], [120.285357, 22.630756], [120.285609, 22.63031], [120.285554, 22.630197]]}}, {"type": "Feature", "properties": {"district": "6400100", "segment": 6, "total_segments": 6, "km": 7.59, "villages": ["博愛里", "慈愛里", "藍橋里"]}, "geometry": {"type": "LineString", "coordinates": [[120.282636, 22.630302], [120.282587, 22.630211], [120.28246, 22.630337], [120.282193, 22.630417], [120.28228, 22.630508], [120.282047, 22.63057], [120.281787, 22.630045], [120.281716, 22.629963], [120.281647, 22.630035], [120.28157, 22.629936], [120.281696, 22.629792], [120.281566, 22.629809], [120.281561, 22.629647], [120.281783, 22.629639], [120.281759, 22.62944], [120.282127, 22.629252], [120.282365, 22.629732], [120.282189, 22.629686], [120.282066, 22.629459], [120.281892, 22.629504], [120.282217, 22.630083], [120.282066, 22.630155], [120.282104, 22.630218], [120.281708, 22.629467], [120.28138, 22.629492], [120.281015, 22.629644], [120.281168, 22.629844], [120.281252, 22.629799], [120.28118, 22.62969], [120.28139, 22.629998], [120.281308, 22.630052], [120.281236, 22.629934], [120.281419, 22.630116], [120.281472, 22.630089], [120.281352, 22.630161], [120.28149, 22.630351], [120.281619, 22.630279], [120.281794, 22.630596], [120.281646, 22.63055], [120.281571, 22.630432], [120.281518, 22.629854], [120.281001, 22.629382], [120.280876, 22.629454], [120.280753, 22.629237], [120.280861, 22.629174], [120.280926, 22.629292], [120.282346, 22.629882], [120.282412, 22.630048], [120.282535, 22.630003], [120.274119, 22.631781], [120.274699, 22.632922], [120.281788, 22.630912], [120.281793, 22.63084], [120.281995, 22.630994], [120.282203, 22.630932], [120.282071, 22.630751], [120.281948, 22.630804], [120.282299, 22.631113], [120.282533, 22.631566], [120.282372, 22.631583], [120.282318, 22.6317], [120.282462, 22.631737], [120.282628, 22.632225], [120.282753, 22.632262], [120.282876, 22.632127], [120.28294, 22.632181], [120.2834, 22.632012], [120.283503, 22.631832], [120.2836, 22.631914], [120.283274, 22.631433], [120.282905, 22.631287], [120.282777, 22.631386], [120.282933, 22.631693], [120.283212, 22.631758], [120.283053, 22.631983], [120.283084, 22.632065], [120.282613, 22.631701], [120.282737, 22.631332], [120.282597, 22.631168], [120.2828, 22.631079], [120.282553, 22.630746], [120.282422, 22.6308], [120.282503, 22.631006], [120.282571, 22.630961], [120.282558, 22.631096], [120.282884, 22.630962], [120.282916, 22.631034], [120.282988, 22.630911], [120.283045, 22.631008], [120.283089, 22.630972], [120.283113, 22.631162], [120.28297, 22.63126], [120.282916, 22.630776], [120.282786, 22.630537], [120.282419, 22.630625], [120.28209, 22.631229], [120.284831, 22.631702], [120.284768, 22.631738], [120.284595, 22.631819], [120.284778, 22.631991], [120.284803, 22.63219], [120.284956, 22.632172], [120.285034, 22.631956], [120.284967, 22.631974], [120.284879, 22.632407], [120.284742, 22.632411], [120.284792, 22.632533], [120.28463, 22.632644], [120.284358, 22.632721], [120.284315, 22.632612], [120.284441, 22.632539], [120.284285, 22.632549], [120.28423, 22.632449], [120.284219, 22.632341], [120.28439, 22.632432], [120.284328, 22.632441], [120.284481, 22.632385], [120.284573, 22.63255], [120.284607, 22.63244], [120.284514, 22.632346], [120.284616, 22.632279], [120.284671, 22.63237], [120.284351, 22.632105], [120.284287, 22.631935], [120.284397, 22.6319], [120.284571, 22.632216], [120.28416, 22.632199], [120.284084, 22.632041], [120.284238, 22.631952], [120.28404, 22.632051], [120.284049, 22.632114], [120.28397, 22.63206], [120.284099, 22.632276], [120.283827, 22.632366], [120.283702, 22.632149], [120.283905, 22.632511], [120.283837, 22.632601], [120.283898, 22.632728], [120.284065, 22.6329], [120.283914, 22.632953], [120.283833, 22.632792], [120.283635, 22.632844], [120.28372, 22.633025], [120.283822, 22.63299], [120.283663, 22.633058], [120.283988, 22.633595], [120.284103, 22.633586], [120.283902, 22.633197], [120.284067, 22.633164], [120.284114, 22.633036], [120.284338, 22.633416], [120.28433, 22.633551], [120.284434, 22.633498], [120.2841, 22.63365], [120.284106, 22.633731], [120.284213, 22.633424], [120.284102, 22.633256], [120.283863, 22.633215], [120.2835, 22.633421], [120.283246, 22.633059], [120.283006, 22.632498], [120.282877, 22.63257], [120.283151, 22.632999], [120.283575, 22.632826], [120.283376, 22.632382], [120.28437, 22.632766], [120.28451, 22.63301], [120.284625, 22.632778], [120.28475, 22.632731], [120.284615, 22.633074], [120.284623, 22.633273], [120.284798, 22.631937], [120.284993, 22.631893], [120.284903, 22.631675], [120.285398, 22.631014], [120.284297, 22.634183], [120.284555, 22.63432], [120.284467, 22.634392], [120.284177, 22.634228], [120.284224, 22.634156], [120.283981, 22.634074], [120.283516, 22.633457], [120.284259, 22.634174]]}}]}