{"type": "FeatureCollection", "features": [{"type": "Feature", "properties": {"district": "6400600", "segment": 1, "total_segments": 10, "km": 12.35, "villages": ["中東里", "興昌里", "文昌里"]}, "geometry": {"type": "LineString", "coordinates": [[120.310444, 22.633819], [120.309909, 22.633835], [120.309889, 22.633681], [120.310404, 22.633629], [120.310409, 22.633738], [120.310388, 22.633277], [120.31035, 22.633349], [120.309296, 22.633372], [120.309305, 22.633561], [120.31021, 22.633502], [120.309702, 22.633843], [120.308908, 22.633898], [120.308855, 22.633262], [120.308881, 22.633162], [120.309056, 22.633154], [120.309018, 22.632655], [120.30896, 22.632658], [120.308818, 22.63267], [120.308857, 22.632869], [120.308652, 22.632827], [120.308669, 22.632999], [120.308506, 22.633016], [120.308504, 22.632926], [120.308515, 22.633188], [120.308567, 22.63347], [120.309039, 22.633461], [120.309082, 22.633831], [120.307674, 22.634015], [120.307709, 22.6335], [120.307578, 22.632795], [120.308115, 22.63278], [120.308124, 22.633312], [120.307976, 22.633285], [120.307975, 22.633339], [120.307947, 22.632878], [120.308663, 22.632717], [120.308714, 22.632427], [120.308665, 22.632096], [120.308576, 22.632098], [120.308557, 22.631355], [120.309111, 22.631312], [120.308928, 22.631139], [120.30834, 22.631191], [120.308426, 22.632436], [120.308547, 22.632429], [120.308585, 22.63224], [120.308844, 22.632179], [120.308842, 22.632084], [120.309113, 22.632049], [120.309104, 22.632125], [120.309221, 22.632144], [120.309286, 22.632035], [120.309663, 22.632013], [120.309695, 22.632254], [120.309537, 22.632377], [120.308851, 22.632412], [120.30899, 22.632231], [120.30921, 22.631556], [120.309691, 22.631489], [120.309711, 22.631683], [120.309648, 22.631618], [120.309755, 22.631604], [120.309738, 22.631296], [120.309663, 22.631296], [120.309823, 22.631297], [120.309751, 22.631094], [120.309113, 22.631122], [120.30852, 22.631273], [120.309283, 22.632631], [120.309032, 22.633325], [120.309085, 22.633416], [120.306945, 22.633899], [120.310081, 22.631074], [120.310648, 22.63095], [120.310909, 22.631232], [120.311783, 22.631468], [120.312838, 22.631346], [120.312933, 22.631391], [120.312922, 22.631175], [120.311792, 22.631296], [120.311863, 22.632173], [120.312123, 22.632092], [120.312604, 22.632121], [120.312572, 22.631974], [120.312309, 22.631976], [120.312363, 22.63203], [120.312458, 22.632022], [120.312054, 22.631975], [120.311917, 22.632019], [120.311813, 22.632181], [120.311222, 22.632224], [120.311218, 22.63254], [120.310585, 22.632582], [120.310575, 22.632754], [120.311643, 22.63265], [120.311604, 22.632524], [120.311665, 22.632515], [120.311277, 22.632543], [120.311324, 22.632875], [120.311947, 22.63276], [120.312834, 22.632719], [120.312845, 22.632601], [120.312916, 22.632601], [120.312083, 22.632625], [120.312003, 22.632489], [120.312893, 22.632412], [120.313018, 22.632485], [120.313129, 22.63293], [120.311879, 22.632949], [120.311866, 22.632868], [120.31194, 22.633139], [120.312458, 22.633132], [120.31247, 22.633313], [120.31207, 22.633386], [120.312061, 22.63329], [120.311894, 22.633313], [120.311899, 22.633393], [120.31187, 22.633211], [120.310594, 22.633305], [120.310601, 22.63344], [120.311702, 22.6334], [120.311702, 22.633328], [120.311704, 22.633572], [120.311496, 22.633611], [120.311508, 22.633715], [120.31159, 22.633716], [120.311701, 22.633698], [120.31175, 22.633572], [120.312455, 22.63346], [120.312563, 22.633304], [120.313168, 22.633256], [120.313157, 22.633113], [120.313192, 22.633583], [120.310631, 22.633784], [120.310654, 22.633603], [120.311369, 22.633597], [120.311371, 22.633019], [120.310601, 22.63307], [120.31059, 22.63289], [120.311267, 22.632883], [120.311425, 22.633001], [120.311698, 22.632985], [120.311951, 22.632489], [120.311834, 22.632498], [120.311939, 22.631812], [120.312963, 22.631753], [120.312943, 22.631563], [120.311962, 22.631739], [120.312159, 22.631089], [120.312148, 22.630899], [120.312709, 22.630866], [120.311709, 22.630923], [120.312968, 22.631798], [120.312825, 22.632014], [120.313674, 22.6317], [120.313668, 22.631562], [120.313818, 22.632045], [120.314196, 22.63193], [120.314285, 22.631984], [120.31485, 22.631941], [120.315131, 22.631798], [120.31523, 22.631835], [120.315243, 22.631446], [120.314573, 22.631498], [120.314488, 22.631579], [120.314641, 22.631624], [120.315473, 22.631592], [120.31547, 22.631538], [120.315624, 22.631556], [120.315612, 22.63143], [120.316292, 22.631379], [120.316302, 22.631514], [120.315806, 22.631551], [120.315803, 22.631729], [120.316569, 22.631687], [120.316552, 22.631813], [120.316636, 22.631814], [120.315734, 22.631864], [120.315649, 22.631818], [120.315721, 22.631737], [120.315568, 22.631899], [120.315448, 22.631908], [120.315528, 22.631177], [120.315993, 22.631124], [120.315979, 22.631007], [120.315453, 22.631059], [120.315448, 22.630996], [120.315444, 22.631176], [120.315166, 22.631193], [120.315153, 22.631013], [120.314112, 22.631135], [120.314079, 22.631261], [120.314987, 22.631192], [120.315168, 22.631247], [120.315122, 22.630714], [120.314925, 22.630822], [120.314243, 22.630855], [120.313701, 22.63116], [120.314027, 22.631497], [120.314296, 22.631486], [120.314341, 22.631858], [120.314764, 22.631766], [120.315154, 22.631968], [120.315288, 22.631958], [120.315307, 22.632259], [120.315098, 22.63234], [120.314935, 22.632285], [120.314344, 22.632337], [120.314408, 22.632463], [120.315038, 22.63243], [120.31505, 22.632547], [120.315176, 22.632539], [120.315192, 22.632413], [120.315326, 22.632431], [120.315322, 22.632323], [120.315492, 22.632251], [120.317051, 22.632095], [120.316989, 22.632321], [120.316397, 22.632309], [120.315541, 22.632423], [120.315536, 22.632333], [120.315561, 22.632613], [120.316876, 22.63251], [120.316904, 22.632429], [120.316876, 22.632645], [120.314514, 22.632834], [120.314502, 22.632602], [120.315341, 22.632532], [120.315349, 22.632609], [120.314269, 22.632483], [120.314101, 22.632319], [120.313777, 22.63237], [120.313797, 22.632551], [120.31391, 22.632758], [120.314244, 22.632751], [120.314049, 22.631866], [120.313871, 22.631874], [120.314092, 22.631857], [120.315424, 22.63077], [120.315593, 22.630834], [120.315633, 22.630771], [120.315556, 22.630707], [120.316715, 22.630694], [120.316783, 22.63111], [120.316492, 22.6311], [120.316484, 22.630973], [120.316678, 22.630965], [120.316794, 22.631318], [120.316497, 22.631352], [120.316509, 22.631488], [120.317081, 22.631418], [120.317119, 22.631129], [120.317201, 22.631283], [120.317083, 22.631454], [120.3171, 22.631644], [120.317193, 22.631635], [120.317117, 22.63177], [120.316794, 22.631768], [120.31734, 22.631374], [120.317467, 22.630679], [120.317607, 22.630707], [120.317654, 22.630554], [120.317544, 22.630842], [120.317307, 22.630832], [120.317349, 22.630579], [120.31709, 22.630705], [120.317307, 22.630868], [120.316122, 22.631062]]}}, {"type": "Feature", "properties": {"district": "6400600", "segment": 2, "total_segments": 10, "km": 9.74, "villages": ["順昌里", "開平里"]}, "geometry": {"type": "LineString", "coordinates": [[120.316264, 22.632872], [120.316793, 22.632841], [120.316763, 22.632934], [120.316497, 22.633023], [120.315605, 22.633082], [120.315564, 22.633344], [120.315649, 22.633469], [120.31595, 22.633436], [120.315975, 22.633358], [120.316524, 22.633348], [120.316619, 22.633418], [120.316661, 22.633226], [120.315715, 22.633222], [120.315606, 22.633046], [120.31565, 22.63297], [120.315114, 22.633008], [120.31512, 22.633117], [120.314173, 22.633203], [120.313964, 22.633211], [120.313953, 22.633103], [120.314955, 22.633007], [120.315007, 22.633272], [120.315393, 22.633258], [120.3154, 22.633315], [120.315375, 22.633455], [120.315302, 22.633411], [120.315117, 22.633503], [120.314167, 22.633562], [120.31448, 22.633318], [120.314516, 22.633936], [120.315049, 22.633884], [120.315029, 22.634028], [120.314522, 22.634035], [120.314416, 22.633944], [120.313918, 22.634024], [120.313929, 22.634123], [120.314338, 22.634053], [120.314351, 22.634242], [120.313964, 22.634259], [120.313975, 22.634412], [120.315044, 22.634245], [120.315053, 22.634317], [120.315037, 22.634128], [120.314609, 22.634207], [120.314632, 22.634541], [120.314288, 22.634567], [120.314374, 22.63501], [120.314576, 22.63492], [120.314636, 22.634885], [120.314593, 22.634623], [120.314767, 22.634524], [120.315081, 22.634534], [120.315061, 22.634661], [120.314784, 22.634804], [120.314786, 22.634614], [120.314475, 22.634768], [120.314192, 22.63479], [120.314171, 22.634542], [120.31401, 22.634611], [120.314053, 22.635153], [120.314208, 22.635094], [120.314194, 22.634824], [120.314467, 22.635236], [120.315169, 22.634887], [120.315239, 22.635122], [120.315245, 22.635203], [120.314861, 22.635436], [120.31487, 22.6355], [120.314198, 22.636084], [120.314137, 22.636038], [120.314108, 22.636237], [120.313979, 22.635377], [120.314293, 22.635308], [120.314401, 22.635543], [120.314518, 22.635543], [120.314795, 22.635409], [120.314745, 22.635237], [120.314439, 22.635399], [120.31438, 22.635281], [120.31443, 22.635254], [120.314563, 22.635614], [120.314299, 22.635777], [120.314911, 22.635211], [120.315091, 22.635139], [120.315007, 22.635302], [120.3153, 22.635185], [120.315882, 22.634709], [120.3158, 22.634626], [120.31544, 22.634888], [120.315482, 22.634988], [120.315355, 22.63477], [120.315331, 22.634393], [120.315488, 22.634401], [120.315464, 22.634653], [120.315693, 22.634501], [120.315854, 22.634185], [120.315528, 22.63404], [120.316186, 22.633835], [120.316544, 22.633818], [120.316549, 22.634224], [120.316293, 22.634368], [120.31624, 22.634241], [120.316216, 22.633907], [120.316399, 22.633899], [120.316428, 22.634179], [120.316073, 22.632885], [120.315349, 22.633045], [120.315307, 22.633163], [120.313803, 22.633271], [120.313782, 22.633051], [120.313994, 22.634566], [120.313052, 22.634232], [120.31214, 22.634077], [120.310939, 22.634119], [120.31099, 22.634282], [120.311186, 22.634274], [120.311229, 22.634446], [120.310695, 22.634475], [120.31071, 22.634597], [120.311619, 22.634538], [120.311577, 22.634429], [120.311271, 22.634446], [120.31174, 22.634403], [120.311819, 22.634909], [120.311645, 22.634881], [120.311565, 22.634781], [120.310841, 22.634832], [120.310887, 22.634932], [120.311463, 22.63488], [120.311481, 22.63516], [120.311834, 22.635107], [120.311848, 22.635188], [120.311823, 22.635008], [120.311436, 22.635169], [120.310964, 22.635185], [120.311159, 22.635083], [120.310796, 22.635058], [120.31071, 22.635072], [120.310799, 22.635248], [120.310057, 22.635244], [120.310071, 22.635118], [120.310566, 22.635093], [120.310551, 22.634815], [120.309385, 22.634886], [120.309399, 22.635064], [120.309649, 22.635017], [120.309651, 22.635187], [120.309578, 22.635197], [120.30969, 22.635189], [120.309686, 22.635324], [120.309776, 22.63532], [120.309638, 22.635331], [120.309912, 22.635253], [120.309899, 22.634964], [120.309969, 22.634955], [120.309825, 22.634963], [120.310112, 22.635017], [120.3107, 22.634915], [120.310733, 22.634765], [120.310848, 22.634941], [120.310702, 22.634978], [120.310448, 22.63465], [120.310437, 22.634469], [120.310381, 22.634568], [120.309453, 22.634628], [120.309343, 22.634284], [120.310395, 22.634207], [120.312175, 22.634518], [120.312845, 22.635762], [120.311817, 22.635857], [120.311806, 22.63573], [120.311809, 22.635893], [120.311579, 22.635865], [120.31158, 22.636163], [120.311946, 22.636099], [120.311955, 22.636526], [120.311866, 22.636534], [120.311843, 22.636435], [120.310925, 22.636557], [120.31107, 22.636635], [120.311735, 22.636543], [120.311646, 22.636245], [120.311456, 22.636144], [120.310896, 22.636196], [120.310902, 22.636359], [120.311431, 22.636271], [120.310889, 22.636151], [120.310394, 22.636176], [120.310391, 22.635969], [120.310057, 22.635994], [120.310053, 22.636212], [120.310166, 22.636206], [120.309525, 22.636281], [120.309583, 22.636452], [120.309864, 22.63639], [120.309877, 22.636553], [120.30958, 22.636561], [120.309589, 22.636669], [120.309958, 22.636589], [120.310505, 22.636637], [120.310433, 22.635966], [120.3106, 22.635954], [120.310546, 22.63555], [120.308704, 22.635708], [120.308742, 22.636529], [120.30897, 22.636521], [120.308927, 22.636062], [120.308786, 22.63607], [120.308779, 22.636006], [120.308957, 22.635989], [120.308913, 22.635754], [120.30912, 22.635791], [120.309067, 22.635965], [120.309127, 22.636586], [120.309322, 22.636596], [120.309361, 22.636506], [120.309246, 22.635918], [120.309239, 22.635783], [120.309312, 22.635731], [120.309255, 22.635313], [120.309012, 22.63533], [120.308965, 22.634797], [120.308857, 22.634806], [120.308901, 22.635339], [120.30867, 22.635347], [120.3086, 22.634825], [120.308746, 22.63484], [120.308752, 22.634902], [120.3087, 22.634386], [120.309169, 22.634337], [120.309107, 22.634464], [120.309022, 22.634445], [120.30917, 22.634874], [120.309175, 22.635241], [120.309453, 22.634709], [120.30903, 22.634662], [120.308968, 22.636062], [120.310789, 22.635831], [120.311684, 22.63554]]}}, {"type": "Feature", "properties": {"district": "6400600", "segment": 3, "total_segments": 10, "km": 9.89, "villages": ["南港里", "成功里", "德政里"]}, "geometry": {"type": "LineString", "coordinates": [[120.308438, 22.635825], [120.308413, 22.635666], [120.30806, 22.635687], [120.308137, 22.63602], [120.308111, 22.636356], [120.308479, 22.636436], [120.308441, 22.635868], [120.308234, 22.636058], [120.30825, 22.636338], [120.307886, 22.636382], [120.307834, 22.636228], [120.307888, 22.636129], [120.307985, 22.636157], [120.307998, 22.636284], [120.30768, 22.636288], [120.307681, 22.636361], [120.307614, 22.636038], [120.306777, 22.636106], [120.30678, 22.636212], [120.307547, 22.636299], [120.307518, 22.635929], [120.30728, 22.635792], [120.306556, 22.635852], [120.306567, 22.636205], [120.30673, 22.636205], [120.306672, 22.635952], [120.307279, 22.635923], [120.307475, 22.635766], [120.307629, 22.635758], [120.307577, 22.63592], [120.307855, 22.635967], [120.307819, 22.635731], [120.307962, 22.635725], [120.307929, 22.635434], [120.307806, 22.635451], [120.307808, 22.635325], [120.308028, 22.635269], [120.30804, 22.635425], [120.308359, 22.635409], [120.308331, 22.634847], [120.307797, 22.634909], [120.307809, 22.635217], [120.306743, 22.635221], [120.306742, 22.635104], [120.30655, 22.635068], [120.306489, 22.635123], [120.306536, 22.635536], [120.307623, 22.63546], [120.307516, 22.635342], [120.306662, 22.635401], [120.306857, 22.635077], [120.307545, 22.635044], [120.307497, 22.634818], [120.30711, 22.634852], [120.306962, 22.63477], [120.306863, 22.634893], [120.306512, 22.634922], [120.306502, 22.634867], [120.306511, 22.63475], [120.306739, 22.634726], [120.306861, 22.634463], [120.307526, 22.634421], [120.307536, 22.634683], [120.307132, 22.634726], [120.307486, 22.634764], [120.307987, 22.635429], [120.308482, 22.636482], [120.306288, 22.636239], [120.306282, 22.636095], [120.305361, 22.636199], [120.305368, 22.636281], [120.30617, 22.636221], [120.305934, 22.635904], [120.306321, 22.635901], [120.306281, 22.635562], [120.305318, 22.635648], [120.30518, 22.63563], [120.305195, 22.635467], [120.306254, 22.6354], [120.306259, 22.635463], [120.306228, 22.635119], [120.305367, 22.635197], [120.305419, 22.635324], [120.306155, 22.635291], [120.305988, 22.634938], [120.305179, 22.634943], [120.305085, 22.634558], [120.305892, 22.634522], [120.305921, 22.634802], [120.305716, 22.634819], [120.30562, 22.634812], [120.30608, 22.634513], [120.30618, 22.634866], [120.306492, 22.634552], [120.305381, 22.635333], [120.305148, 22.635324], [120.305152, 22.635204], [120.305239, 22.635895], [120.305206, 22.636307], [120.305341, 22.636028], [120.305845, 22.635994], [120.305877, 22.635886], [120.305338, 22.635928], [120.306177, 22.634126], [120.305968, 22.633241], [120.305933, 22.632561], [120.304945, 22.632598], [120.304955, 22.632682], [120.304911, 22.632441], [120.305827, 22.632425], [120.305787, 22.632246], [120.305156, 22.632288], [120.305165, 22.632162], [120.304916, 22.632169], [120.304902, 22.632299], [120.305439, 22.632093], [120.305774, 22.632084], [120.305874, 22.632237], [120.30603, 22.632244], [120.305919, 22.63184], [120.305975, 22.631685], [120.305926, 22.631352], [120.304866, 22.631417], [120.304899, 22.631962], [120.305179, 22.631936], [120.305162, 22.631864], [120.305028, 22.631872], [120.305038, 22.631701], [120.305841, 22.631641], [120.305703, 22.631866], [120.305291, 22.631906], [120.306035, 22.632346], [120.306046, 22.632553], [120.306288, 22.632528], [120.306267, 22.632338], [120.306603, 22.632376], [120.307239, 22.632271], [120.30732, 22.632279], [120.307329, 22.632526], [120.30629, 22.632584], [120.306263, 22.63213], [120.306717, 22.631986], [120.307326, 22.631954], [120.307346, 22.632131], [120.30676, 22.632169], [120.306735, 22.631821], [120.307255, 22.631756], [120.307178, 22.631587], [120.306745, 22.631612], [120.30673, 22.631311], [120.307235, 22.631286], [120.307301, 22.631577], [120.30747, 22.631548], [120.30755, 22.632389], [120.307656, 22.632362], [120.307678, 22.632182], [120.307807, 22.632309], [120.307795, 22.632444], [120.308145, 22.632418], [120.308056, 22.631786], [120.3078, 22.631812], [120.307733, 22.631703], [120.308099, 22.631701], [120.308034, 22.631179], [120.307719, 22.631203], [120.307702, 22.631304], [120.307485, 22.631218], [120.30746, 22.631411], [120.307717, 22.631459], [120.307722, 22.63155], [120.307869, 22.631541], [120.307615, 22.631982], [120.307694, 22.632471], [120.307637, 22.632505], [120.307384, 22.632523], [120.306444, 22.631808], [120.30643, 22.631481], [120.304991, 22.632986], [120.305226, 22.633914], [120.306503, 22.630831], [120.30721, 22.630796], [120.307214, 22.630584], [120.30678, 22.630254], [120.306385, 22.630279], [120.306394, 22.630468], [120.306093, 22.630445], [120.306095, 22.629935], [120.306919, 22.629921], [120.306923, 22.630047], [120.307155, 22.630039], [120.307051, 22.629145], [120.306039, 22.629203], [120.306058, 22.629438], [120.306972, 22.629325], [120.306957, 22.629596], [120.306088, 22.629646], [120.306099, 22.629827], [120.306965, 22.629731], [120.30687, 22.630065], [120.306496, 22.630081], [120.306087, 22.629592], [120.305986, 22.628914], [120.306068, 22.628854], [120.307064, 22.628788], [120.307038, 22.628946], [120.306838, 22.629038], [120.306166, 22.629059], [120.306115, 22.6306]]}}, {"type": "Feature", "properties": {"district": "6400600", "segment": 4, "total_segments": 10, "km": 13.04, "villages": ["仁聲里", "德望里", "光耀里", "德生里"]}, "geometry": {"type": "LineString", "coordinates": [[120.307438, 22.630474], [120.307476, 22.630754], [120.30794, 22.63072], [120.307659, 22.630648], [120.307432, 22.630401], [120.307392, 22.629932], [120.307451, 22.629932], [120.307301, 22.629711], [120.30728, 22.629519], [120.307449, 22.629476], [120.307462, 22.629661], [120.307639, 22.629469], [120.307914, 22.629455], [120.307907, 22.630413], [120.307691, 22.630281], [120.307674, 22.630041], [120.307849, 22.629283], [120.307282, 22.629308], [120.307226, 22.628757], [120.307547, 22.628736], [120.307499, 22.628605], [120.307293, 22.628658], [120.307165, 22.627902], [120.307211, 22.627818], [120.307478, 22.627886], [120.307598, 22.627771], [120.307741, 22.62777], [120.307749, 22.628208], [120.307685, 22.628262], [120.307636, 22.62811], [120.30751, 22.62821], [120.307654, 22.628415], [120.307675, 22.628618], [120.307795, 22.628615], [120.30777, 22.628317], [120.30783, 22.629049], [120.30775, 22.629053], [120.307844, 22.62922], [120.307582, 22.629147], [120.307563, 22.628912], [120.308115, 22.62881], [120.308126, 22.628378], [120.30838, 22.628337], [120.308389, 22.628419], [120.308359, 22.628112], [120.308535, 22.628031], [120.308486, 22.62786], [120.308649, 22.627869], [120.308648, 22.62823], [120.308554, 22.628203], [120.308564, 22.628067], [120.308592, 22.628718], [120.308692, 22.628826], [120.308723, 22.629161], [120.308603, 22.629232], [120.308615, 22.628916], [120.308421, 22.628934], [120.308501, 22.629232], [120.308418, 22.629232], [120.308208, 22.62887], [120.308408, 22.628843], [120.308421, 22.628898], [120.308409, 22.628663], [120.308318, 22.628707], [120.308325, 22.628617], [120.308669, 22.628574], [120.308691, 22.628736], [120.308896, 22.628746], [120.309935, 22.628597], [120.309963, 22.628706], [120.309924, 22.62838], [120.309412, 22.62843], [120.309188, 22.628567], [120.309196, 22.62863], [120.309046, 22.628644], [120.309037, 22.628494], [120.308929, 22.628502], [120.308928, 22.62862], [120.308673, 22.628528], [120.308661, 22.628447], [120.308881, 22.628258], [120.308871, 22.628105], [120.308977, 22.628261], [120.309188, 22.62826], [120.309167, 22.628487], [120.309589, 22.62818], [120.309993, 22.628173], [120.309933, 22.627843], [120.308354, 22.627862], [120.308082, 22.627781], [120.30804, 22.628041], [120.308249, 22.630468], [120.308433, 22.630586], [120.308795, 22.630588], [120.308841, 22.630179], [120.308718, 22.62963], [120.308761, 22.629432], [120.308633, 22.629467], [120.308653, 22.62954], [120.308334, 22.629479], [120.308497, 22.629638], [120.308514, 22.629756], [120.308694, 22.629784], [120.308964, 22.629689], [120.308952, 22.629369], [120.309218, 22.629443], [120.310088, 22.629356], [120.310124, 22.629603], [120.309117, 22.629688], [120.309218, 22.629832], [120.308998, 22.629884], [120.309003, 22.630142], [120.309136, 22.630142], [120.309416, 22.630058], [120.310141, 22.630043], [120.310138, 22.629824], [120.309313, 22.629828], [120.309319, 22.630251], [120.309217, 22.630255], [120.309296, 22.630554], [120.309897, 22.630502], [120.309979, 22.62941], [120.309724, 22.629112], [120.308965, 22.629203], [120.308898, 22.628959], [120.308934, 22.628886], [120.309052, 22.628982], [120.310041, 22.628868], [120.310047, 22.628932], [120.308763, 22.629226], [120.308691, 22.630186], [120.31035, 22.63027], [120.311464, 22.630166], [120.311481, 22.630344], [120.311333, 22.630463], [120.310532, 22.630478], [120.31037, 22.630035], [120.31036, 22.629782], [120.311101, 22.629767], [120.311183, 22.629665], [120.311387, 22.629651], [120.311456, 22.629759], [120.311469, 22.629958], [120.310483, 22.62999], [120.310327, 22.629493], [120.310431, 22.629547], [120.311391, 22.629533], [120.311409, 22.629391], [120.311387, 22.62929], [120.310853, 22.629287], [120.310754, 22.628926], [120.311051, 22.628909], [120.310974, 22.6288], [120.310691, 22.628807], [120.310719, 22.628926], [120.310876, 22.62861], [120.310839, 22.628375], [120.311006, 22.628349], [120.310997, 22.628475], [120.311101, 22.628394], [120.311265, 22.628449], [120.311214, 22.62812], [120.310283, 22.627848], [120.310142, 22.628031], [120.310204, 22.628399], [120.310788, 22.628357], [120.310743, 22.628555], [120.310307, 22.628562], [120.310299, 22.628996], [120.310362, 22.629077], [120.310242, 22.629095], [120.311353, 22.629064], [120.311383, 22.62891], [120.311312, 22.628801], [120.311131, 22.628801], [120.311133, 22.628627], [120.311062, 22.628633], [120.311274, 22.62854], [120.311956, 22.628542], [120.311997, 22.628443], [120.312099, 22.628543], [120.312331, 22.628544], [120.312361, 22.628969], [120.312083, 22.628931], [120.311565, 22.629019], [120.311581, 22.62874], [120.312224, 22.628733], [120.312242, 22.628869], [120.312417, 22.628969], [120.312595, 22.628961], [120.312537, 22.628671], [120.312406, 22.628707], [120.312712, 22.628681], [120.312787, 22.629431], [120.312661, 22.629376], [120.312286, 22.629447], [120.311735, 22.629406], [120.311802, 22.629499], [120.311634, 22.629516], [120.311574, 22.629467], [120.311571, 22.629194], [120.311767, 22.629165], [120.311731, 22.62938], [120.311716, 22.629229], [120.312678, 22.629196], [120.312287, 22.62938], [120.312314, 22.629835], [120.312379, 22.629867], [120.311643, 22.62995], [120.311616, 22.629679], [120.312558, 22.62962], [120.312643, 22.629647], [120.312599, 22.629864], [120.312476, 22.629872], [120.312475, 22.629773], [120.31217, 22.629833], [120.312137, 22.629727], [120.311763, 22.629756], [120.311741, 22.630131], [120.31287, 22.630055], [120.312877, 22.630226], [120.312754, 22.63013], [120.312353, 22.630159], [120.312357, 22.630226], [120.311683, 22.630221], [120.311691, 22.630357], [120.312287, 22.630305], [120.312288, 22.630395], [120.311679, 22.630447], [120.311659, 22.63014], [120.312786, 22.629828], [120.312783, 22.629648], [120.311847, 22.628867], [120.311768, 22.628885], [120.31151, 22.628279], [120.311908, 22.628434], [120.312171, 22.627803], [120.313016, 22.627942], [120.313102, 22.627834], [120.312257, 22.627577], [120.312229, 22.62765], [120.312299, 22.62729], [120.312041, 22.627053], [120.31219, 22.627027], [120.313037, 22.627313], [120.313174, 22.627446], [120.313158, 22.62769], [120.311886, 22.627233], [120.31181, 22.627386], [120.311988, 22.627486], [120.31204, 22.627432], [120.311872, 22.627693], [120.311469, 22.627271], [120.311219, 22.627206], [120.31127, 22.627021], [120.311669, 22.627123], [120.311742, 22.626943], [120.311353, 22.626806], [120.311916, 22.626944], [120.311206, 22.627455], [120.310404, 22.626775], [120.310055, 22.626683], [120.309902, 22.627233], [120.309843, 22.627224], [120.310169, 22.627063], [120.308838, 22.626696], [120.308851, 22.627012], [120.30896, 22.626877], [120.309232, 22.627212], [120.309631, 22.627223], [120.309718, 22.626736], [120.309836, 22.626619], [120.309739, 22.626591], [120.309649, 22.62669], [120.30887, 22.626443], [120.309046, 22.626092], [120.309139, 22.626038], [120.309976, 22.626376], [120.309872, 22.626484], [120.309838, 22.626411], [120.30928, 22.626252], [120.309143, 22.626191], [120.309042, 22.626019], [120.308661, 22.625855], [120.308823, 22.626046], [120.308799, 22.6261], [120.308591, 22.626045], [120.308527, 22.626189], [120.308719, 22.62628], [120.308644, 22.62646], [120.308456, 22.626387], [120.308443, 22.626477], [120.308679, 22.626542], [120.308654, 22.626847], [120.308079, 22.626774], [120.308108, 22.626539], [120.308309, 22.626594], [120.308305, 22.626666], [120.308165, 22.626657], [120.308114, 22.626449], [120.308181, 22.62616], [120.308293, 22.626143], [120.308211, 22.626052], [120.308307, 22.625836], [120.30842, 22.6258], [120.308498, 22.626261], [120.308628, 22.626307], [120.308737, 22.626235], [120.3096, 22.626555], [120.310115, 22.626521], [120.310413, 22.626666], [120.310497, 22.626531], [120.310172, 22.626376], [120.308845, 22.626642], [120.308427, 22.626595], [120.308416, 22.626676], [120.308556, 22.626695], [120.308158, 22.626919], [120.308115, 22.627099], [120.308354, 22.627206], [120.309107, 22.627212], [120.310134, 22.627908], [120.312742, 22.627995], [120.313434, 22.628197], [120.313344, 22.628043], [120.313485, 22.627492], [120.313951, 22.627657], [120.313811, 22.627909], [120.313468, 22.627754], [120.313508, 22.627655], [120.313666, 22.627701], [120.313433, 22.627474], [120.313653, 22.628179]]}}, {"type": "Feature", "properties": {"district": "6400600", "segment": 5, "total_segments": 10, "km": 11.5, "villages": ["永寧里", "浩然里", "正氣里"]}, "geometry": {"type": "LineString", "coordinates": [[120.307747, 22.627007], [120.307825, 22.626251], [120.307976, 22.625681], [120.306919, 22.625304], [120.306891, 22.625441], [120.307246, 22.62556], [120.30727, 22.625497], [120.307117, 22.625894], [120.30613, 22.62554], [120.306166, 22.625366], [120.3074, 22.625823], [120.307428, 22.62576], [120.307594, 22.625832], [120.307484, 22.626266], [120.307574, 22.626289], [120.307761, 22.62571], [120.307387, 22.625868], [120.307236, 22.626337], [120.307223, 22.626445], [120.307389, 22.626491], [120.307402, 22.626392], [120.307549, 22.62654], [120.307544, 22.627006], [120.307389, 22.62701], [120.307374, 22.626617], [120.307143, 22.626776], [120.307138, 22.627122], [120.307688, 22.627106], [120.30679, 22.626906], [120.306973, 22.62648], [120.307034, 22.626083], [120.306012, 22.625744], [120.305973, 22.62588], [120.306779, 22.626099], [120.306906, 22.62622], [120.306865, 22.626326], [120.305969, 22.625988], [120.305948, 22.626169], [120.306847, 22.626434], [120.306528, 22.625322], [120.306218, 22.625258], [120.306304, 22.625086], [120.30676, 22.625242], [120.305597, 22.625011], [120.305602, 22.624858], [120.305122, 22.624693], [120.304904, 22.625126], [120.305166, 22.625235], [120.305823, 22.625437], [120.305686, 22.625237], [120.305207, 22.625073], [120.305674, 22.624868], [120.305986, 22.624986], [120.305944, 22.625148], [120.304987, 22.626585], [120.305592, 22.624451], [120.305192, 22.624329], [120.305387, 22.623737], [120.306394, 22.624063], [120.306258, 22.624386], [120.305463, 22.624116], [120.305577, 22.624276], [120.305756, 22.624324], [120.3057, 22.62447], [120.307462, 22.625064], [120.307478, 22.624748], [120.306566, 22.624455], [120.306605, 22.624311], [120.307536, 22.624622], [120.307589, 22.624496], [120.306665, 22.624194], [120.306794, 22.623842], [120.30689, 22.62387], [120.306864, 22.62396], [120.306949, 22.623707], [120.307656, 22.623911], [120.307716, 22.623955], [120.30769, 22.624099], [120.307225, 22.623943], [120.30715, 22.624142], [120.307764, 22.624334], [120.307949, 22.623811], [120.30688, 22.623499], [120.306826, 22.623653], [120.306417, 22.623524], [120.306386, 22.62366], [120.306531, 22.62378], [120.306452, 22.623913], [120.306008, 22.623776], [120.305693, 22.623666], [120.305847, 22.623341], [120.306262, 22.623479], [120.306184, 22.623587], [120.306283, 22.623623], [120.30595, 22.623513], [120.306035, 22.62318], [120.306608, 22.623372], [120.305755, 22.623088], [120.306451, 22.624608], [120.308185, 22.625302], [120.308436, 22.624644], [120.307872, 22.624473], [120.307892, 22.624631], [120.307749, 22.624885], [120.307922, 22.624965], [120.307972, 22.624823], [120.308124, 22.624872], [120.307943, 22.625093], [120.307708, 22.624984], [120.30812, 22.623866], [120.308625, 22.624103], [120.308975, 22.624121], [120.309378, 22.624253], [120.309483, 22.624092], [120.309185, 22.62397], [120.309537, 22.623141], [120.309384, 22.623069], [120.309287, 22.623208], [120.309038, 22.623902], [120.309452, 22.623944], [120.309934, 22.622772], [120.310091, 22.622827], [120.309848, 22.623188], [120.310176, 22.62322], [120.311246, 22.623639], [120.311193, 22.623791], [120.310067, 22.623436], [120.310128, 22.62333], [120.310503, 22.623176], [120.310457, 22.623047], [120.30973, 22.622699], [120.309482, 22.622742], [120.311381, 22.623276], [120.311322, 22.6234], [120.310671, 22.623183], [120.311532, 22.623681], [120.310872, 22.625358], [120.309892, 22.624915], [120.308718, 22.623796], [120.308479, 22.623443], [120.308729, 22.622954], [120.308847, 22.622415], [120.308703, 22.622369], [120.308641, 22.622464], [120.308201, 22.623642], [120.308282, 22.6237], [120.308403, 22.623729], [120.308436, 22.62356], [120.308745, 22.623355], [120.308946, 22.622698], [120.309137, 22.62276], [120.308855, 22.623507], [120.308174, 22.623259], [120.308266, 22.623004], [120.308158, 22.623035], [120.307205, 22.622724], [120.307001, 22.623256], [120.308056, 22.62355], [120.308133, 22.623351], [120.30796, 22.623364], [120.307179, 22.623099], [120.307262, 22.622914], [120.308105, 22.623189], [120.30836, 22.622614], [120.307547, 22.622392], [120.307471, 22.622545], [120.307276, 22.622499], [120.307425, 22.621972], [120.308511, 22.622305], [120.308411, 22.622495], [120.306191, 22.621699], [120.305992, 22.622087], [120.306998, 22.622416], [120.30709, 22.622173], [120.30691, 22.622107], [120.306861, 22.622226], [120.306714, 22.622225], [120.306819, 22.622074], [120.306257, 22.621961], [120.306237, 22.621555], [120.30718, 22.621866], [120.306841, 22.622822], [120.306466, 22.622649], [120.306385, 22.6225], [120.306809, 22.622582], [120.30675, 22.623056], [120.306473, 22.622965], [120.306421, 22.623037], [120.305826, 22.622847], [120.305855, 22.622762], [120.305747, 22.622718], [120.305711, 22.622808], [120.305799, 22.622583], [120.306662, 22.62293], [120.306621, 22.623101], [120.30674, 22.623138], [120.306502, 22.623064], [120.306272, 22.622631], [120.306363, 22.622432], [120.305906, 22.622303], [120.305842, 22.622474], [120.305931, 22.62224], [120.307224, 22.622679], [120.30751, 22.622563], [120.30817, 22.622783], [120.308914, 22.622443], [120.30922, 22.622543], [120.309152, 22.622715], [120.308045, 22.623603]]}}, {"type": "Feature", "properties": {"district": "6400600", "segment": 6, "total_segments": 10, "km": 11.09, "villages": ["振華里", "振成里", "玉衡里"]}, "geometry": {"type": "LineString", "coordinates": [[120.305494, 22.622704], [120.305823, 22.621806], [120.304634, 22.62138], [120.304692, 22.62125], [120.305527, 22.621516], [120.305539, 22.621236], [120.304859, 22.621015], [120.304621, 22.620943], [120.304346, 22.62153], [120.305622, 22.621959], [120.30545, 22.622103], [120.304328, 22.621768], [120.304227, 22.621962], [120.304804, 22.622127], [120.304736, 22.622266], [120.304389, 22.622152], [120.30456, 22.622433], [120.305469, 22.622745], [120.305424, 22.622491], [120.305267, 22.622273], [120.305027, 22.622363], [120.304773, 22.622285], [120.304441, 22.622396], [120.304185, 22.622305], [120.304141, 22.622169], [120.303808, 22.622186], [120.302566, 22.621783], [120.302795, 22.621215], [120.30408, 22.621682], [120.304011, 22.621858], [120.30375, 22.621942], [120.303698, 22.621923], [120.303787, 22.62177], [120.302905, 22.621477], [120.302794, 22.621621], [120.303465, 22.621841], [120.30376, 22.621346], [120.302866, 22.621044], [120.303067, 22.620476], [120.303682, 22.620668], [120.304356, 22.620897], [120.304273, 22.621122], [120.304203, 22.6212], [120.303989, 22.621185], [120.303101, 22.620882], [120.303159, 22.620738], [120.304124, 22.621058], [120.303982, 22.62141], [120.303794, 22.621364], [120.304171, 22.621432], [120.304098, 22.62163], [120.304326, 22.621709], [120.304873, 22.621573], [120.302752, 22.620848], [120.30241, 22.62171], [120.302192, 22.621646], [120.302317, 22.621421], [120.302386, 22.621439], [120.30228, 22.621411], [120.302329, 22.621285], [120.302433, 22.621322], [120.302385, 22.621231], [120.302563, 22.620796], [120.302394, 22.620762], [120.302353, 22.620845], [120.302221, 22.620698], [120.302094, 22.621086], [120.302228, 22.621158], [120.302278, 22.621059], [120.302209, 22.621203], [120.302026, 22.621257], [120.301994, 22.621365], [120.302749, 22.620772], [120.302906, 22.620412], [120.302411, 22.620245], [120.302306, 22.62049], [120.302597, 22.620582], [120.302645, 22.620474], [120.302482, 22.621999], [120.303749, 22.62242], [120.303679, 22.622646], [120.302444, 22.622153], [120.302288, 22.62244], [120.302282, 22.622522], [120.302387, 22.622577], [120.303568, 22.62297], [120.303637, 22.622754], [120.302554, 22.622415], [120.302205, 22.62228], [120.302228, 22.622215], [120.302088, 22.62256], [120.302236, 22.622694], [120.302105, 22.622982], [120.302255, 22.623046], [120.302879, 22.623265], [120.302929, 22.623214], [120.303357, 22.623416], [120.303502, 22.623124], [120.303151, 22.623032], [120.303088, 22.623256], [120.303191, 22.623294], [120.303177, 22.623062], [120.303063, 22.622977], [120.302321, 22.622739], [120.302268, 22.623335], [120.30328, 22.623683], [120.303336, 22.623538], [120.302605, 22.623291], [120.302226, 22.623326], [120.302016, 22.623253], [120.302071, 22.623145], [120.301859, 22.62308], [120.301778, 22.623179], [120.301435, 22.623069], [120.301495, 22.622618], [120.301659, 22.6224], [120.301693, 22.62214], [120.301806, 22.622304], [120.301772, 22.622391], [120.302154, 22.622075], [120.301906, 22.621916], [120.30166, 22.622743], [120.302955, 22.622236], [120.303941, 22.622647], [120.303849, 22.62289], [120.303911, 22.622994], [120.303826, 22.623008], [120.304081, 22.623126], [120.304205, 22.623118], [120.304275, 22.622955], [120.304702, 22.623102], [120.304602, 22.622923], [120.304216, 22.622793], [120.304127, 22.622765], [120.304073, 22.6229], [120.303987, 22.622873], [120.30416, 22.622928], [120.304283, 22.622603], [120.304206, 22.622548], [120.30539, 22.62296], [120.305162, 22.623492], [120.305005, 22.623437], [120.304989, 22.623618], [120.304852, 22.623706], [120.304762, 22.623681], [120.304787, 22.623559], [120.304185, 22.623417], [120.304121, 22.623325], [120.303743, 22.623188], [120.303564, 22.623648], [120.303689, 22.623675], [120.303644, 22.623811], [120.30352, 22.623765], [120.304866, 22.624213], [120.305102, 22.623655], [120.304823, 22.623792], [120.304726, 22.623761], [120.304658, 22.623851], [120.303896, 22.623622], [120.303952, 22.623478], [120.303788, 22.623558], [120.303939, 22.623758], [120.304742, 22.624023], [120.304773, 22.623355], [120.30437, 22.623227], [120.304089, 22.624351], [120.303134, 22.624116], [120.303105, 22.624197], [120.303011, 22.624178], [120.302406, 22.623987], [120.302421, 22.624091], [120.303071, 22.624318], [120.302995, 22.6245], [120.302665, 22.624423], [120.30197, 22.624175], [120.302027, 22.62402], [120.302239, 22.624075], [120.302331, 22.623769], [120.302157, 22.623723], [120.302632, 22.623805], [120.303156, 22.624034], [120.302678, 22.624584], [120.301919, 22.624354], [120.301925, 22.62449], [120.302172, 22.624581], [120.302165, 22.624779], [120.302477, 22.624738], [120.302471, 22.624898], [120.301981, 22.624953], [120.302007, 22.625203], [120.302411, 22.625144], [120.302465, 22.624982], [120.30256, 22.624959], [120.302518, 22.624898], [120.302613, 22.624858], [120.302834, 22.624937], [120.302737, 22.625153], [120.302521, 22.625161], [120.302358, 22.625337], [120.301726, 22.625433], [120.301783, 22.625692], [120.301942, 22.625778], [120.301935, 22.625531], [120.302062, 22.625511], [120.302092, 22.625718], [120.302128, 22.625556], [120.302207, 22.625547], [120.302065, 22.626126], [120.301642, 22.626084], [120.301495, 22.625046], [120.301513, 22.62495], [120.30169, 22.624934], [120.301757, 22.625121], [120.301892, 22.625103], [120.301834, 22.624639], [120.301933, 22.624601], [120.30196, 22.624811], [120.30211, 22.624782], [120.302307, 22.624609], [120.302187, 22.624536], [120.30224, 22.625006], [120.302122, 22.62505], [120.302306, 22.625036], [120.301674, 22.625238], [120.301649, 22.624646], [120.301477, 22.624631], [120.301485, 22.624776], [120.30144, 22.624352], [120.3015, 22.6241], [120.301701, 22.623973], [120.301689, 22.623558], [120.302831, 22.624728], [120.302658, 22.62623], [120.302432, 22.626092], [120.302205, 22.626495], [120.302556, 22.626971], [120.302855, 22.626821], [120.30292, 22.626961], [120.303083, 22.626823], [120.303449, 22.626898], [120.30346, 22.626817], [120.30323, 22.626798], [120.303263, 22.6265], [120.302965, 22.626381], [120.302854, 22.626509], [120.302923, 22.626614], [120.303326, 22.626663], [120.303344, 22.62651], [120.303631, 22.62659], [120.304172, 22.626784], [120.304167, 22.627019], [120.303935, 22.627003], [120.30395, 22.626882], [120.303526, 22.626844], [120.303508, 22.627052], [120.303206, 22.627033], [120.303608, 22.627049], [120.30175, 22.626224]]}}, {"type": "Feature", "properties": {"district": "6400600", "segment": 7, "total_segments": 10, "km": 9.11, "villages": ["漢民里", "華聲里", "蕉園里", "東坡里"]}, "geometry": {"type": "LineString", "coordinates": [[120.302687, 22.627663], [120.302915, 22.627682], [120.303003, 22.62779], [120.303095, 22.627689], [120.303389, 22.627783], [120.303542, 22.627775], [120.303572, 22.627694], [120.30419, 22.627719], [120.304242, 22.628103], [120.303021, 22.628144], [120.302788, 22.628214], [120.302733, 22.627948], [120.30276, 22.62773], [120.302852, 22.627937], [120.303006, 22.627989], [120.30403, 22.62793], [120.304238, 22.628274], [120.304322, 22.628826], [120.302868, 22.628909], [120.302801, 22.628386], [120.304104, 22.628346], [120.304104, 22.628483], [120.302874, 22.628567], [120.303, 22.628739], [120.304132, 22.628662], [120.303433, 22.627693], [120.302624, 22.628457], [120.302617, 22.628954], [120.302377, 22.628971], [120.302435, 22.628465], [120.302471, 22.62889], [120.301948, 22.628958], [120.301938, 22.628336], [120.302414, 22.62786], [120.304524, 22.627829], [120.304536, 22.628008], [120.304757, 22.628033], [120.305588, 22.627973], [120.305973, 22.62802], [120.305959, 22.627803], [120.306975, 22.627826], [120.30697, 22.62797], [120.306049, 22.627993], [120.305981, 22.628345], [120.305996, 22.628562], [120.306984, 22.628413], [120.307017, 22.628595], [120.304621, 22.628775], [120.304615, 22.628574], [120.305247, 22.628595], [120.305672, 22.628524], [120.305721, 22.628651], [120.305656, 22.628317], [120.305336, 22.628428], [120.304864, 22.628461], [120.304592, 22.628446], [120.30457, 22.628385], [120.304561, 22.628263], [120.305465, 22.628202], [120.305449, 22.627711], [120.305526, 22.627711], [120.304576, 22.627688], [120.306105, 22.628192], [120.306704, 22.628106], [120.306705, 22.628294], [120.306133, 22.628328], [120.307036, 22.628296], [120.306986, 22.628109], [120.305756, 22.628949], [120.304604, 22.628974], [120.304727, 22.629532], [120.304848, 22.629469], [120.305798, 22.629437], [120.305745, 22.629292], [120.305801, 22.629229], [120.304777, 22.629288], [120.304823, 22.629153], [120.305705, 22.629094], [120.30581, 22.629654], [120.30479, 22.629695], [120.304733, 22.629794], [120.304771, 22.630245], [120.305805, 22.630133], [120.305802, 22.629744], [120.305684, 22.629825], [120.304976, 22.629858], [120.304986, 22.630048], [120.305635, 22.630005], [120.305612, 22.630412], [120.304971, 22.63046], [120.304973, 22.630599], [120.305514, 22.630565], [120.30557, 22.630728], [120.305328, 22.630744], [120.30534, 22.63088], [120.305884, 22.630846], [120.305887, 22.630684], [120.305651, 22.630728], [120.305702, 22.630538], [120.305833, 22.630571], [120.305819, 22.630404], [120.305677, 22.630412], [120.305143, 22.630762], [120.305223, 22.630889], [120.304864, 22.630905], [120.304794, 22.63039], [120.304927, 22.630607], [120.304948, 22.630057], [120.304697, 22.629694], [120.30441, 22.62972], [120.302908, 22.629831], [120.302932, 22.630039], [120.304421, 22.62992], [120.304424, 22.630139], [120.3044, 22.630253], [120.302946, 22.630374], [120.302943, 22.630183], [120.304243, 22.630099], [120.30425, 22.630565], [120.303707, 22.630515], [120.303724, 22.630692], [120.303942, 22.630684], [120.303486, 22.630881], [120.302814, 22.630929], [120.302669, 22.629125], [120.302386, 22.629115], [120.302345, 22.629208], [120.302435, 22.629703], [120.302654, 22.629839], [120.302547, 22.629976], [120.302608, 22.630145], [120.302421, 22.629961], [120.30253, 22.63038], [120.302472, 22.630532], [120.30268, 22.630588], [120.302498, 22.630682], [120.302462, 22.630795], [120.302208, 22.630659], [120.30204, 22.629866], [120.302309, 22.629816], [120.302352, 22.630321], [120.302589, 22.630264], [120.302611, 22.630358], [120.302662, 22.630143], [120.302467, 22.629829], [120.302277, 22.629732], [120.302035, 22.629765], [120.302004, 22.629591], [120.302279, 22.629564], [120.302289, 22.629642], [120.302275, 22.629466], [120.302235, 22.629169], [120.301987, 22.629177], [120.302025, 22.629513], [120.302457, 22.629381], [120.302444, 22.629203], [120.30259, 22.629622], [120.302862, 22.629589], [120.302875, 22.629681], [120.302823, 22.6291], [120.303103, 22.629109], [120.303139, 22.629272], [120.304228, 22.62923], [120.304329, 22.629214], [120.30432, 22.628997], [120.303202, 22.629101], [120.303093, 22.629281], [120.302891, 22.629289], [120.304144, 22.629383], [120.304217, 22.629548], [120.30389, 22.629573], [120.304356, 22.629548], [120.304351, 22.629332], [120.303613, 22.630123], [120.303123, 22.630293], [120.303111, 22.630203], [120.302827, 22.631082], [120.302664, 22.631085], [120.30251, 22.630836]]}}, {"type": "Feature", "properties": {"district": "6400600", "segment": 8, "total_segments": 10, "km": 10.57, "villages": ["愛平里", "黎明里", "新江里", "建華里"]}, "geometry": {"type": "LineString", "coordinates": [[120.302689, 22.631573], [120.302602, 22.631807], [120.30229, 22.632079], [120.3024, 22.63285], [120.302898, 22.632831], [120.302925, 22.632775], [120.302895, 22.632405], [120.302809, 22.632408], [120.302888, 22.632323], [120.302854, 22.631565], [120.302778, 22.631567], [120.303028, 22.631641], [120.303082, 22.631737], [120.303071, 22.631575], [120.303411, 22.631549], [120.303274, 22.631702], [120.303598, 22.632051], [120.303679, 22.632048], [120.303683, 22.632246], [120.303229, 22.632271], [120.303129, 22.632306], [120.303138, 22.632406], [120.303718, 22.632408], [120.303754, 22.632562], [120.303142, 22.632629], [120.303138, 22.632573], [120.303147, 22.632767], [120.304103, 22.632705], [120.303818, 22.632562], [120.303788, 22.632237], [120.304319, 22.632194], [120.304332, 22.632348], [120.304171, 22.632374], [120.304155, 22.632017], [120.304531, 22.631969], [120.304514, 22.631753], [120.304367, 22.631752], [120.304082, 22.632021], [120.304582, 22.632141], [120.304599, 22.632367], [120.304408, 22.632673], [120.304541, 22.631653], [120.304481, 22.631472], [120.303698, 22.631532], [120.303097, 22.631909], [120.303125, 22.632261], [120.302664, 22.632108], [120.302695, 22.632652], [120.30282, 22.632615], [120.302806, 22.63253], [120.302575, 22.632458], [120.302596, 22.632714], [120.302432, 22.632217], [120.302739, 22.633118], [120.302988, 22.633101], [120.30297, 22.634347], [120.303068, 22.634347], [120.302527, 22.634381], [120.302465, 22.633171], [120.302797, 22.633208], [120.302889, 22.634229], [120.302686, 22.634264], [120.302644, 22.633758], [120.303192, 22.633606], [120.30317, 22.633383], [120.303363, 22.633445], [120.303656, 22.633356], [120.303651, 22.633252], [120.303825, 22.633245], [120.303928, 22.633419], [120.303964, 22.633346], [120.304418, 22.633324], [120.30441, 22.633152], [120.304328, 22.63316], [120.30461, 22.633162], [120.304657, 22.633008], [120.304004, 22.633001], [120.303209, 22.633129], [120.303425, 22.633202], [120.303454, 22.633536], [120.304242, 22.633565], [120.304261, 22.633756], [120.304662, 22.633695], [120.304704, 22.634209], [120.304225, 22.63417], [120.30386, 22.634269], [120.303699, 22.633821], [120.3042, 22.633756], [120.304253, 22.633924], [120.304105, 22.633936], [120.303645, 22.633764], [120.303273, 22.633788], [120.30328, 22.634312], [120.303433, 22.634322], [120.303409, 22.633545], [120.303329, 22.633545], [120.303973, 22.633227], [120.304613, 22.633198], [120.304755, 22.63421], [120.302368, 22.633169], [120.302699, 22.634708], [120.303093, 22.634736], [120.303133, 22.634799], [120.303202, 22.635757], [120.302602, 22.635822], [120.302526, 22.634736], [120.30277, 22.634892], [120.30273, 22.634979], [120.302889, 22.634951], [120.302906, 22.635277], [120.303331, 22.635307], [120.303388, 22.635784], [120.304863, 22.635673], [120.304841, 22.635511], [120.30475, 22.635501], [120.303474, 22.635622], [120.303558, 22.635451], [120.30405, 22.635408], [120.304053, 22.6353], [120.303424, 22.635351], [120.303307, 22.635143], [120.303311, 22.634688], [120.304783, 22.634617], [120.304775, 22.63505], [120.303619, 22.635117], [120.303612, 22.634985], [120.304559, 22.634914], [120.304359, 22.634778], [120.304284, 22.634784], [120.304359, 22.635292], [120.304805, 22.635219], [120.30482, 22.635393], [120.304119, 22.635298], [120.304138, 22.635986], [120.302692, 22.636107], [120.302701, 22.63622], [120.303198, 22.636353], [120.303204, 22.636226], [120.303195, 22.636443], [120.303068, 22.636442], [120.303404, 22.63643], [120.303398, 22.636277], [120.303885, 22.636251], [120.303833, 22.63616], [120.303894, 22.63641], [120.303581, 22.636417], [120.304562, 22.636368], [120.304515, 22.636214], [120.304331, 22.636213], [120.304329, 22.636023], [120.304871, 22.635981], [120.304949, 22.636308], [120.30293, 22.635541], [120.302908, 22.634818], [120.302722, 22.636414], [120.30203, 22.63642], [120.302034, 22.636528], [120.302015, 22.636158], [120.30069, 22.636288], [120.300684, 22.636622], [120.300944, 22.636593], [120.300915, 22.636489], [120.301152, 22.636326], [120.301232, 22.636561], [120.301754, 22.636485], [120.301793, 22.635895], [120.301886, 22.635891], [120.301941, 22.635787], [120.30188, 22.634794], [120.301419, 22.634855], [120.301419, 22.635187], [120.301628, 22.635176], [120.301165, 22.635206], [120.301122, 22.635404], [120.301242, 22.635558], [120.30125, 22.635893], [120.300658, 22.635962], [120.300648, 22.635457], [120.300456, 22.635537], [120.300419, 22.635862], [120.299792, 22.635895], [120.299472, 22.635786], [120.299429, 22.635912], [120.299665, 22.635994], [120.300478, 22.635961], [120.300303, 22.63569], [120.299963, 22.635715], [120.298942, 22.635386], [120.29884, 22.635412], [120.298876, 22.635223], [120.300014, 22.635574], [120.30031, 22.635554], [120.300344, 22.635184], [120.300204, 22.635221], [120.299776, 22.635046], [120.299714, 22.635243], [120.300102, 22.635373], [120.300289, 22.635338], [120.300265, 22.635086], [120.300069, 22.635014], [120.300152, 22.634858], [120.300367, 22.634922], [120.300347, 22.635085], [120.300596, 22.634894], [120.301143, 22.634849], [120.301021, 22.635783], [120.300856, 22.63581], [120.300846, 22.635698], [120.301404, 22.635643], [120.301427, 22.635884], [120.301653, 22.635867], [120.301657, 22.635626], [120.301789, 22.635597], [120.301796, 22.635678], [120.302041, 22.635857], [120.299646, 22.634685], [120.299338, 22.634602], [120.299212, 22.634917], [120.298982, 22.634862], [120.299004, 22.63479], [120.298935, 22.634979], [120.299669, 22.635232], [120.299228, 22.635694], [120.298671, 22.635555], [120.298704, 22.635467], [120.298876, 22.635738], [120.299384, 22.635903]]}}, {"type": "Feature", "properties": {"district": "6400600", "segment": 9, "total_segments": 10, "km": 9.55, "villages": ["建興里", "長驛里", "秋山里", "明莊里"]}, "geometry": {"type": "LineString", "coordinates": [[120.299308, 22.636245], [120.298548, 22.635992], [120.298378, 22.636322], [120.299391, 22.63667], [120.299432, 22.636562], [120.299084, 22.636443], [120.299117, 22.636299], [120.299424, 22.636399], [120.299492, 22.636318], [120.299347, 22.636264], [120.299865, 22.636266], [120.299885, 22.636401], [120.299719, 22.636419], [120.299723, 22.636541], [120.300538, 22.636479], [120.300545, 22.636588], [120.300512, 22.636655], [120.299567, 22.636715], [120.299605, 22.636543], [120.299665, 22.636545], [120.299474, 22.636535], [120.300041, 22.636393], [120.29879, 22.636198], [120.298639, 22.636242], [120.298289, 22.636126], [120.29823, 22.636266], [120.297768, 22.636076], [120.297794, 22.636022], [120.298083, 22.636092], [120.298291, 22.636039], [120.298378, 22.635891], [120.297409, 22.635601], [120.297339, 22.635713], [120.297499, 22.635975], [120.297835, 22.635417], [120.297534, 22.635262], [120.297505, 22.635325], [120.29777, 22.634755], [120.29781, 22.63483], [120.298626, 22.635123], [120.298491, 22.635607], [120.298431, 22.635651], [120.297909, 22.635426], [120.297843, 22.635278], [120.297948, 22.635006], [120.297847, 22.634979], [120.297745, 22.635248], [120.298259, 22.635413], [120.298294, 22.635312], [120.29836, 22.635371], [120.298437, 22.63516], [120.298356, 22.63514], [120.298318, 22.635236], [120.298646, 22.635087], [120.298788, 22.634708], [120.298332, 22.634625], [120.298296, 22.634715], [120.298613, 22.634806], [120.298568, 22.63452], [120.298279, 22.63439], [120.298367, 22.634233], [120.298279, 22.634176], [120.2989, 22.634399], [120.29822, 22.634714], [120.297798, 22.634559], [120.297858, 22.634397], [120.29809, 22.634542], [120.29778, 22.634613], [120.298024, 22.634127], [120.298092, 22.633752], [120.299044, 22.634086], [120.299098, 22.633924], [120.299013, 22.633888], [120.299237, 22.633653], [120.298289, 22.633369], [120.298229, 22.633504], [120.298913, 22.633722], [120.298778, 22.633823], [120.298183, 22.633603], [120.29816, 22.633658], [120.298374, 22.633162], [120.298934, 22.633344], [120.298957, 22.633245], [120.298816, 22.63312], [120.298411, 22.633008], [120.298372, 22.633071], [120.298523, 22.632747], [120.299289, 22.632969], [120.299322, 22.633096], [120.299069, 22.633094], [120.298554, 22.632915], [120.298658, 22.632599], [120.29853, 22.632557], [120.298716, 22.632119], [120.298824, 22.632137], [120.298875, 22.63225], [120.299053, 22.632178], [120.299714, 22.632388], [120.299558, 22.632697], [120.299304, 22.632591], [120.29936, 22.632508], [120.299437, 22.632531], [120.299177, 22.632447], [120.299204, 22.63238], [120.299129, 22.632331], [120.298726, 22.6326], [120.299095, 22.632648], [120.299387, 22.632847], [120.29953, 22.632878], [120.299554, 22.632815], [120.299269, 22.633483], [120.299046, 22.633393], [120.299257, 22.633267], [120.299607, 22.633197], [120.299628, 22.63314], [120.301032, 22.633598], [120.300938, 22.634121], [120.301112, 22.634113], [120.301123, 22.634246], [120.301283, 22.634195], [120.301238, 22.633547], [120.301434, 22.633047], [120.301508, 22.632998], [120.30177, 22.633104], [120.30188, 22.634396], [120.30142, 22.634448], [120.301536, 22.634167], [120.301508, 22.633995], [120.301419, 22.63402], [120.301515, 22.633904], [120.301505, 22.633663], [120.301633, 22.633648], [120.301624, 22.633248], [120.301264, 22.632967], [120.300744, 22.632791], [120.300543, 22.632775], [120.300497, 22.632894], [120.300572, 22.632918], [120.300297, 22.632741], [120.300308, 22.632591], [120.300579, 22.632689], [120.300271, 22.632817], [120.300252, 22.632572], [120.299905, 22.632461], [120.299842, 22.632816], [120.299745, 22.632951], [120.300123, 22.633079], [120.300177, 22.632944], [120.299894, 22.632834], [120.300293, 22.632944], [120.300788, 22.633136], [120.300785, 22.633245], [120.30106, 22.63339], [120.301125, 22.633237], [120.300931, 22.633173], [120.301159, 22.633106], [120.300668, 22.633217], [120.300287, 22.633089], [120.300673, 22.633578], [120.300941, 22.63367], [120.3009, 22.634121], [120.299421, 22.633735], [120.299374, 22.63388], [120.299701, 22.633962], [120.29976, 22.634128], [120.299902, 22.634172], [120.299849, 22.634324], [120.299248, 22.634123], [120.299644, 22.633258], [120.299584, 22.633555], [120.29989, 22.633617], [120.300184, 22.634155], [120.300524, 22.634228], [120.300573, 22.634508], [120.301055, 22.634474], [120.30029, 22.634484], [120.299957, 22.634372], [120.301632, 22.633994], [120.30161, 22.633742], [120.301594, 22.632742], [120.30172, 22.632598], [120.301703, 22.632095], [120.301578, 22.632043], [120.301343, 22.63205], [120.301306, 22.632356], [120.300897, 22.632188], [120.300995, 22.632039], [120.300855, 22.631997], [120.300641, 22.63209], [120.300319, 22.632009], [120.300312, 22.632151], [120.300508, 22.632186], [120.300455, 22.632344], [120.300522, 22.632364], [120.300595, 22.632209], [120.300654, 22.632361], [120.300806, 22.63227], [120.301279, 22.632434], [120.301293, 22.632578], [120.30138, 22.632385], [120.301441, 22.632401], [120.301427, 22.63227], [120.301565, 22.632287], [120.301321, 22.632662], [120.299974, 22.63221], [120.300056, 22.63204], [120.300244, 22.632136], [120.300082, 22.631933], [120.300152, 22.631735], [120.300661, 22.63193], [120.300659, 22.631712], [120.300207, 22.631562], [120.30027, 22.631404], [120.300552, 22.631486], [120.300422, 22.631292], [120.300475, 22.631165], [120.300994, 22.631304], [120.3011, 22.631422], [120.301162, 22.631397], [120.301207, 22.63187], [120.301375, 22.631869], [120.30088, 22.631795], [120.300924, 22.631474], [120.300705, 22.63141], [120.300402, 22.631144], [120.300223, 22.631139], [120.299989, 22.631528], [120.299729, 22.631407], [120.299679, 22.631571], [120.300001, 22.631707], [120.299814, 22.632172], [120.298821, 22.631798], [120.298879, 22.631644], [120.299026, 22.631711], [120.298991, 22.631819], [120.299067, 22.631837], [120.29924, 22.631648], [120.299305, 22.63177], [120.299792, 22.631928], [120.299803, 22.631837], [120.299615, 22.631785], [120.299631, 22.632005], [120.299391, 22.631871], [120.299292, 22.631912], [120.29935, 22.631283], [120.2991, 22.63122], [120.299137, 22.631043], [120.299408, 22.631101], [120.299503, 22.631029], [120.29968, 22.631048], [120.299744, 22.63088], [120.300247, 22.631036], [120.299886, 22.631127], [120.299824, 22.631236], [120.299916, 22.631277], [120.29952, 22.630813], [120.299266, 22.630744], [120.298966, 22.631529], [120.301482, 22.631555]]}}, {"type": "Feature", "properties": {"district": "6400600", "segment": 10, "total_segments": 10, "km": 3.74, "villages": ["大明里", "榮治里"]}, "geometry": {"type": "LineString", "coordinates": [[120.301361, 22.630897], [120.301382, 22.630791], [120.301539, 22.630737], [120.301555, 22.630371], [120.301219, 22.630411], [120.301223, 22.630528], [120.30129, 22.630528], [120.300986, 22.630464], [120.301071, 22.630348], [120.300936, 22.630259], [120.301103, 22.630273], [120.300868, 22.630807], [120.299485, 22.630322], [120.29961, 22.629657], [120.300644, 22.629994], [120.300404, 22.630452], [120.300339, 22.630181], [120.300416, 22.630004], [120.300278, 22.629964], [120.300093, 22.630243], [120.299977, 22.630195], [120.300039, 22.630017], [120.299926, 22.62999], [120.300016, 22.629827], [120.299903, 22.629791], [120.299879, 22.629971], [120.300069, 22.629962], [120.30021, 22.629612], [120.300313, 22.629639], [120.300256, 22.629541], [120.300324, 22.62936], [120.30042, 22.629344], [120.30024, 22.629302], [120.300145, 22.629584], [120.300027, 22.629548], [120.300204, 22.629169], [120.300039, 22.629111], [120.300175, 22.629052], [120.300332, 22.629106], [120.30031, 22.629206], [120.300243, 22.629188], [120.300354, 22.629215], [120.300469, 22.628944], [120.29996, 22.628772], [120.299715, 22.629453], [120.299777, 22.629475], [120.300426, 22.629531], [120.300479, 22.629676], [120.300715, 22.629785], [120.300976, 22.629118], [120.300658, 22.629056], [120.300537, 22.629478], [120.300997, 22.629642], [120.301155, 22.629173], [120.301391, 22.629246], [120.301473, 22.629969], [120.300925, 22.629835], [120.300904, 22.629892], [120.300978, 22.6297], [120.301199, 22.629769], [120.300827, 22.630001], [120.300741, 22.630229], [120.301049, 22.630861], [120.301192, 22.630916], [120.301019, 22.628827], [120.30021, 22.628529], [120.300328, 22.628338], [120.29999, 22.628229], [120.299902, 22.628436], [120.299734, 22.628381], [120.299778, 22.628119], [120.299655, 22.628086], [120.300017, 22.627181], [120.299872, 22.627109], [120.299738, 22.627299], [120.299779, 22.627379], [120.299698, 22.627409], [120.299696, 22.627568], [120.299616, 22.627607], [120.29949, 22.628154], [120.299599, 22.6282], [120.299629, 22.628122], [120.299568, 22.628326], [120.299389, 22.628244], [120.299677, 22.628372], [120.300005, 22.628192], [120.300354, 22.627278], [120.300198, 22.627219], [120.299942, 22.627825], [120.299673, 22.62773], [120.300458, 22.627785], [120.301059, 22.628228], [120.300705, 22.628582], [120.300688, 22.62851], [120.301055, 22.628658], [120.298454, 22.627951]]}}]}