{"type": "FeatureCollection", "features": [{"type": "Feature", "properties": {"district": "6400700", "segment": 1, "total_segments": 6, "km": 14.24, "villages": ["三川里", "長城里", "北金里", "新生里"]}, "geometry": {"type": "LineString", "coordinates": [[120.297609, 22.634025], [120.297604, 22.634188], [120.297516, 22.634133], [120.297495, 22.63398], [120.297393, 22.633943], [120.29721, 22.634222], [120.297286, 22.634257], [120.297271, 22.634403], [120.297486, 22.634476], [120.297523, 22.634314], [120.297319, 22.6349], [120.296741, 22.634627], [120.296459, 22.634616], [120.296358, 22.634473], [120.296436, 22.634472], [120.296433, 22.634345], [120.297326, 22.634683], [120.297141, 22.634357], [120.296978, 22.634375], [120.29701, 22.634283], [120.297104, 22.634303], [120.297106, 22.634186], [120.296538, 22.633981], [120.296456, 22.634175], [120.296889, 22.634275], [120.296612, 22.6345], [120.296522, 22.63477], [120.296671, 22.634825], [120.296491, 22.63485], [120.296482, 22.634761], [120.296335, 22.634724], [120.296242, 22.634913], [120.296496, 22.634987], [120.296423, 22.634901], [120.296693, 22.634933], [120.29671, 22.634988], [120.296759, 22.634843], [120.297294, 22.635044], [120.297219, 22.635228], [120.29657, 22.635014], [120.296481, 22.635213], [120.296701, 22.635295], [120.296671, 22.635403], [120.296581, 22.635412], [120.296489, 22.635393], [120.2965, 22.635303], [120.29635, 22.635274], [120.296441, 22.635203], [120.296145, 22.635076], [120.296036, 22.635382], [120.296761, 22.635638], [120.29683, 22.635521], [120.296824, 22.635657], [120.296999, 22.635693], [120.297146, 22.635419], [120.296899, 22.635316], [120.296476, 22.635456], [120.296989, 22.63573], [120.297313, 22.635002], [120.296321, 22.634573], [120.296701, 22.633705], [120.297166, 22.633875], [120.29643, 22.633614], [120.295757, 22.633404], [120.295623, 22.633394], [120.295608, 22.633511], [120.295447, 22.633492], [120.295492, 22.633354], [120.295347, 22.633799], [120.296253, 22.634056], [120.296302, 22.633893], [120.295552, 22.633682], [120.295301, 22.63379], [120.295106, 22.633716], [120.295183, 22.633525], [120.295096, 22.633497], [120.295, 22.633725], [120.295066, 22.633816], [120.294906, 22.634212], [120.294831, 22.634185], [120.294974, 22.633824], [120.29485, 22.633778], [120.294707, 22.634148], [120.294643, 22.634139], [120.294827, 22.63367], [120.295017, 22.633472], [120.294916, 22.633445], [120.294843, 22.633607], [120.29467, 22.633552], [120.294708, 22.633371], [120.294775, 22.63339], [120.294727, 22.633247], [120.29504, 22.63331], [120.295085, 22.633193], [120.295167, 22.63322], [120.295217, 22.633294], [120.294677, 22.633073], [120.294436, 22.633632], [120.294343, 22.634005], [120.294384, 22.634138], [120.29447, 22.634156], [120.294412, 22.634355], [120.294303, 22.634553], [120.294125, 22.634507], [120.294244, 22.634128], [120.294308, 22.634289], [120.294544, 22.634355], [120.294602, 22.634211], [120.294674, 22.634238], [120.294522, 22.634644], [120.294437, 22.634576], [120.294526, 22.634409], [120.294718, 22.634464], [120.294794, 22.634275], [120.29487, 22.634302], [120.294715, 22.634718], [120.294644, 22.634654], [120.294699, 22.634509], [120.294566, 22.634852], [120.294875, 22.634916], [120.295194, 22.635117], [120.295249, 22.635023], [120.295162, 22.634995], [120.294748, 22.635], [120.294923, 22.63479], [120.295196, 22.634096], [120.295277, 22.634133], [120.295006, 22.634818], [120.295138, 22.634862], [120.295301, 22.634449], [120.295438, 22.634481], [120.295581, 22.634116], [120.295426, 22.634052], [120.295336, 22.634359], [120.295557, 22.634469], [120.295403, 22.63491], [120.295606, 22.634902], [120.295822, 22.634153], [120.295668, 22.634116], [120.295601, 22.634423], [120.295378, 22.634624], [120.295245, 22.634891], [120.29534, 22.635045], [120.295711, 22.635065], [120.295674, 22.635146], [120.295808, 22.635182], [120.296041, 22.634569], [120.295904, 22.634533], [120.295748, 22.634875], [120.295947, 22.63437], [120.296092, 22.634425], [120.296045, 22.634218], [120.295889, 22.63418], [120.29623, 22.63411], [120.29637, 22.633722], [120.295685, 22.633531], [120.295349, 22.634025], [120.295219, 22.633979], [120.295297, 22.634078], [120.294605, 22.633786], [120.294492, 22.634084], [120.294658, 22.633606], [120.29434, 22.634571], [120.29426, 22.634706], [120.294141, 22.634645], [120.29408, 22.634714], [120.294087, 22.634769], [120.294489, 22.634834], [120.293979, 22.63475], [120.294065, 22.634619], [120.293678, 22.634541], [120.293638, 22.634604], [120.29346, 22.634549], [120.293773, 22.634263], [120.293978, 22.633477], [120.294072, 22.633509], [120.294047, 22.633587], [120.294323, 22.632914], [120.294133, 22.632818], [120.293799, 22.632726], [120.293253, 22.63416], [120.29331, 22.634214], [120.293401, 22.634242], [120.293432, 22.634034], [120.293562, 22.633854], [120.293671, 22.633901], [120.293821, 22.633508], [120.2937, 22.63346], [120.293637, 22.633638], [120.293569, 22.634315], [120.293245, 22.634386], [120.293227, 22.634472], [120.293344, 22.634515], [120.293051, 22.634427], [120.293139, 22.634358], [120.293023, 22.634123], [120.29313, 22.633915], [120.292852, 22.634032], [120.292613, 22.633971], [120.292521, 22.634148], [120.29273, 22.63423], [120.292706, 22.634302], [120.292097, 22.634091], [120.292477, 22.632983], [120.292801, 22.632388], [120.293614, 22.632662], [120.293521, 22.632833], [120.292852, 22.632605], [120.292795, 22.632749], [120.293471, 22.632978], [120.293371, 22.633086], [120.292727, 22.632885], [120.29372, 22.633385], [120.29384, 22.63307], [120.29245, 22.632314], [120.291855, 22.632122], [120.291702, 22.631985], [120.291596, 22.63203], [120.291111, 22.631847], [120.291051, 22.631965], [120.291502, 22.63212], [120.291605, 22.632302], [120.291993, 22.632456], [120.291882, 22.632591], [120.292041, 22.632655], [120.291987, 22.632765], [120.291743, 22.632753], [120.291491, 22.632672], [120.291449, 22.632588], [120.291294, 22.632616], [120.291252, 22.632526], [120.291143, 22.63258], [120.290724, 22.632406], [120.290675, 22.632541], [120.292137, 22.633026], [120.292192, 22.632873], [120.292026, 22.632863], [120.291875, 22.633094], [120.292056, 22.633197], [120.292068, 22.633338], [120.291745, 22.633991], [120.291546, 22.633838], [120.291534, 22.633621], [120.291423, 22.633586], [120.291339, 22.63381], [120.290743, 22.633616], [120.290544, 22.633376], [120.290486, 22.633037], [120.290627, 22.632693], [120.291281, 22.63292], [120.291227, 22.632977], [120.291318, 22.633077], [120.291242, 22.63321], [120.291536, 22.633361], [120.291549, 22.633191], [120.291414, 22.633193], [120.291476, 22.633041], [120.291582, 22.632997], [120.291818, 22.633073], [120.291749, 22.633266], [120.291649, 22.633229], [120.291815, 22.63329], [120.291705, 22.633545], [120.291657, 22.633525], [120.29185, 22.63361], [120.291439, 22.632941], [120.291062, 22.632992], [120.291063, 22.633069], [120.29112, 22.633095], [120.291418, 22.6324], [120.290789, 22.632243], [120.29085, 22.632054], [120.291496, 22.632301], [120.291492, 22.632427], [120.291753, 22.632533], [120.291824, 22.632221], [120.29191, 22.632239], [120.292155, 22.632538], [120.292324, 22.632548], [120.292282, 22.632674], [120.292518, 22.631872], [120.292614, 22.63189], [120.292682, 22.631752], [120.292156, 22.631581], [120.292262, 22.63152], [120.291451, 22.631208], [120.291509, 22.631118], [120.29125, 22.631017], [120.291246, 22.631135], [120.291629, 22.631091], [120.291759, 22.631209], [120.292467, 22.631437], [120.292304, 22.631799], [120.292479, 22.631854], [120.291873, 22.631634], [120.291908, 22.631544], [120.291181, 22.63141], [120.290928, 22.631187], [120.291023, 22.630926], [120.290866, 22.630898], [120.290843, 22.631088], [120.290724, 22.63097], [120.290447, 22.630887], [120.290512, 22.630788], [120.290768, 22.630871], [120.290385, 22.630707], [120.290159, 22.630796], [120.290013, 22.630741], [120.289937, 22.630577], [120.289614, 22.63045], [120.289563, 22.630739], [120.289455, 22.630874], [120.290357, 22.631122], [120.290387, 22.631059], [120.290835, 22.631322], [120.290562, 22.631692], [120.28945, 22.631298], [120.289338, 22.63128], [120.289246, 22.631397], [120.288905, 22.631287], [120.288852, 22.631395], [120.288676, 22.631325], [120.288698, 22.630608], [120.289181, 22.630737], [120.2892, 22.630665], [120.288812, 22.630519], [120.288937, 22.630276], [120.287732, 22.629873], [120.287991, 22.630063], [120.287955, 22.630294], [120.287899, 22.630298], [120.28809, 22.630397], [120.28852, 22.630518], [120.288572, 22.630427], [120.288362, 22.630372], [120.288448, 22.63021], [120.288638, 22.630274], [120.288415, 22.630192], [120.289042, 22.630303], [120.28819, 22.630886], [120.287689, 22.630722], [120.287625, 22.631], [120.287772, 22.630252], [120.287448, 22.630133], [120.287365, 22.630179], [120.287604, 22.629809], [120.286804, 22.63153], [120.288854, 22.632396], [120.288762, 22.632587], [120.289033, 22.632657], [120.289051, 22.632514], [120.289841, 22.632796], [120.289792, 22.632921], [120.289549, 22.632847], [120.289436, 22.63315], [120.290107, 22.633423], [120.290148, 22.633261], [120.289857, 22.632998], [120.290258, 22.633073], [120.290227, 22.633153], [120.290305, 22.632783], [120.290029, 22.632755], [120.290106, 22.632873], [120.289928, 22.632644], [120.290001, 22.632538], [120.290374, 22.63271], [120.290406, 22.63262], [120.290257, 22.632377], [120.289649, 22.632191], [120.289731, 22.632032], [120.290323, 22.632205], [120.290381, 22.632287], [120.290558, 22.63217], [120.290633, 22.631972], [120.289593, 22.631662], [120.289546, 22.63182], [120.290511, 22.632098], [120.290519, 22.631818], [120.289673, 22.631498], [120.289667, 22.632002], [120.289467, 22.631974], [120.289355, 22.632091], [120.289064, 22.631962], [120.289097, 22.631876], [120.288957, 22.632181], [120.288988, 22.632498], [120.289227, 22.632306], [120.289891, 22.63251], [120.290742, 22.632361], [120.290714, 22.631783], [120.290668, 22.631755], [120.289336, 22.633144], [120.288686, 22.632749]]}}, {"type": "Feature", "properties": {"district": "6400700", "segment": 2, "total_segments": 6, "km": 10.14, "villages": ["後金里", "東金里", "草江里"]}, "geometry": {"type": "LineString", "coordinates": [[120.289386, 22.630142], [120.290459, 22.629361], [120.290974, 22.629201], [120.29134, 22.628799], [120.291578, 22.628153], [120.292042, 22.628344], [120.291986, 22.628492], [120.291793, 22.628593], [120.291892, 22.628693], [120.291927, 22.628636], [120.292312, 22.628678], [120.29242, 22.629093], [120.292735, 22.629079], [120.292774, 22.628629], [120.293192, 22.629326], [120.293717, 22.629037], [120.292386, 22.62943], [120.292043, 22.629195], [120.291813, 22.629769], [120.291719, 22.629744], [120.292951, 22.630149], [120.293065, 22.630231], [120.292975, 22.630357], [120.293044, 22.630384], [120.291643, 22.629926], [120.291664, 22.629869], [120.291576, 22.630058], [120.291559, 22.630259], [120.292154, 22.630382], [120.292899, 22.630673], [120.29298, 22.630537], [120.291688, 22.630068], [120.291536, 22.63045], [120.291988, 22.630623], [120.291906, 22.630723], [120.291809, 22.630632], [120.291523, 22.630597], [120.291425, 22.630532], [120.291475, 22.630428], [120.291371, 22.630858], [120.29286, 22.631324], [120.293025, 22.630905], [120.292052, 22.630569], [120.292051, 22.630772], [120.292688, 22.63096], [120.29248, 22.63103], [120.291503, 22.630699], [120.293086, 22.630739], [120.293268, 22.630276], [120.29134, 22.628143], [120.290643, 22.627923], [120.290391, 22.628469], [120.289891, 22.628805], [120.289591, 22.627662], [120.288028, 22.628292], [120.28793, 22.628525], [120.293501, 22.630422], [120.293561, 22.630413], [120.29334, 22.630837], [120.294235, 22.631098], [120.294314, 22.630905], [120.294079, 22.630894], [120.293636, 22.630676], [120.293873, 22.630631], [120.293915, 22.63055], [120.293637, 22.630414], [120.293766, 22.630171], [120.293637, 22.630079], [120.293721, 22.629962], [120.293857, 22.629984], [120.294044, 22.630063], [120.29402, 22.630235], [120.294377, 22.630324], [120.29442, 22.630209], [120.294175, 22.630127], [120.294315, 22.629974], [120.294587, 22.630066], [120.294645, 22.629921], [120.294301, 22.629788], [120.294439, 22.629667], [120.293852, 22.629456], [120.294038, 22.629061], [120.294327, 22.629152], [120.294359, 22.629357], [120.294189, 22.629304], [120.294245, 22.629444], [120.29405, 22.629704], [120.293873, 22.629652], [120.293779, 22.6298], [120.293961, 22.62989], [120.293859, 22.630171], [120.293996, 22.630536], [120.29395, 22.630569], [120.294377, 22.630688], [120.294308, 22.630778], [120.294461, 22.630949], [120.294412, 22.631158], [120.294465, 22.631183], [120.294606, 22.631222], [120.294624, 22.631045], [120.294713, 22.630935], [120.294819, 22.630958], [120.294875, 22.630835], [120.295008, 22.630962], [120.294432, 22.632501], [120.293983, 22.632375], [120.294277, 22.631395], [120.294368, 22.631383], [120.294507, 22.631465], [120.294187, 22.632159], [120.293637, 22.63194], [120.293678, 22.631841], [120.293885, 22.631905], [120.293595, 22.63222], [120.293769, 22.632275], [120.292892, 22.631979], [120.293031, 22.631593], [120.293133, 22.631766], [120.293424, 22.631763], [120.29393, 22.631427], [120.294579, 22.631664], [120.294681, 22.631461], [120.294772, 22.630789], [120.294622, 22.630735], [120.294787, 22.630429], [120.294899, 22.630482], [120.294983, 22.630113], [120.294835, 22.630112], [120.294752, 22.630204], [120.294772, 22.630264], [120.295007, 22.629688], [120.294762, 22.629724], [120.294899, 22.629354], [120.294578, 22.629235], [120.295245, 22.629445], [120.295411, 22.629676], [120.295453, 22.62988], [120.295281, 22.630281], [120.295165, 22.63014], [120.295278, 22.629915], [120.295166, 22.630502], [120.294572, 22.630102], [120.295458, 22.631108], [120.294845, 22.632586], [120.295467, 22.632851], [120.295462, 22.63252], [120.295332, 22.632534], [120.295339, 22.632471], [120.295386, 22.632336], [120.295577, 22.632436], [120.295631, 22.632283], [120.29541, 22.632219], [120.295611, 22.631741], [120.295472, 22.631692], [120.295171, 22.632461], [120.295807, 22.631922], [120.296012, 22.631381], [120.296015, 22.631291], [120.295862, 22.631164], [120.295597, 22.63128], [120.29549, 22.631641], [120.295719, 22.631637], [120.295776, 22.631525], [120.296404, 22.631623], [120.296457, 22.631526], [120.2962, 22.631425], [120.296346, 22.631273], [120.297224, 22.631582], [120.296899, 22.632379], [120.29637, 22.632187], [120.296327, 22.632298], [120.296741, 22.632477], [120.296687, 22.632602], [120.296283, 22.632475], [120.296234, 22.63271], [120.296749, 22.63283], [120.296695, 22.632974], [120.296157, 22.632764], [120.296137, 22.632944], [120.296293, 22.633008], [120.29627, 22.633134], [120.295641, 22.632897], [120.296935, 22.633377], [120.297139, 22.633375], [120.297138, 22.633271], [120.297875, 22.633503], [120.297806, 22.633666], [120.297305, 22.633431], [120.29712, 22.633466], [120.296958, 22.633218], [120.296983, 22.632966], [120.297732, 22.633177], [120.297827, 22.633232], [120.297754, 22.633313], [120.297346, 22.633184], [120.297784, 22.633331], [120.297931, 22.633368], [120.297987, 22.633223], [120.297921, 22.633404], [120.298236, 22.632547], [120.297862, 22.632375], [120.296911, 22.632491], [120.296812, 22.632667], [120.296837, 22.632225], [120.296203, 22.631936], [120.296252, 22.631789], [120.296415, 22.631844], [120.29613, 22.631752], [120.296138, 22.631689], [120.296521, 22.631528], [120.296, 22.632257], [120.295916, 22.63223]]}}, {"type": "Feature", "properties": {"district": "6400700", "segment": 3, "total_segments": 6, "km": 9.19, "villages": ["長興里", "青山里", "民生里", "復元里"]}, "geometry": {"type": "LineString", "coordinates": [[120.296516, 22.631058], [120.296883, 22.631196], [120.297026, 22.631143], [120.296965, 22.630991], [120.296634, 22.630885], [120.296757, 22.630647], [120.296545, 22.630599], [120.296442, 22.630869], [120.296474, 22.63104], [120.296075, 22.630851], [120.296338, 22.63057], [120.296383, 22.630408], [120.296139, 22.630334], [120.296162, 22.630253], [120.296305, 22.630299], [120.296452, 22.630137], [120.296229, 22.630073], [120.296089, 22.629865], [120.296258, 22.629722], [120.296797, 22.629994], [120.2972, 22.630063], [120.297222, 22.630168], [120.29737, 22.630132], [120.297647, 22.630233], [120.297519, 22.630331], [120.297474, 22.630485], [120.297396, 22.630466], [120.297586, 22.630494], [120.297518, 22.630665], [120.296644, 22.630346], [120.296707, 22.630201], [120.296997, 22.630338], [120.297159, 22.630212], [120.297163, 22.630747], [120.297227, 22.630764], [120.297117, 22.630946], [120.297617, 22.631235], [120.297565, 22.631379], [120.297642, 22.631434], [120.298094, 22.631589], [120.298557, 22.631727], [120.298729, 22.631269], [120.298428, 22.631238], [120.297739, 22.630973], [120.297729, 22.631136], [120.298541, 22.631374], [120.298367, 22.631518], [120.29781, 22.631362], [120.298028, 22.630839], [120.298474, 22.630968], [120.298663, 22.630868], [120.298665, 22.631067], [120.298822, 22.631101], [120.298986, 22.630619], [120.298642, 22.630505], [120.298562, 22.63071], [120.298196, 22.630732], [120.297914, 22.630604], [120.29786, 22.630793], [120.298025, 22.63037], [120.298292, 22.630474], [120.296127, 22.630461], [120.295776, 22.63027], [120.295655, 22.630501], [120.295816, 22.630216], [120.296515, 22.629325], [120.296997, 22.629303], [120.29722, 22.62884], [120.297768, 22.629023], [120.297687, 22.62922], [120.29777, 22.62931], [120.297866, 22.629011], [120.298196, 22.629117], [120.298082, 22.629398], [120.29794, 22.629288], [120.298006, 22.628889], [120.298074, 22.628898], [120.297769, 22.628817], [120.297939, 22.628525], [120.297619, 22.628759], [120.297439, 22.628701], [120.297528, 22.628487], [120.297481, 22.628113], [120.297586, 22.627957], [120.297816, 22.628052], [120.297245, 22.627898], [120.296991, 22.628881], [120.29685, 22.628895], [120.296841, 22.629118], [120.296673, 22.629036], [120.296396, 22.62917], [120.296368, 22.62876], [120.2967, 22.627944], [120.296829, 22.627878], [120.29678, 22.627736], [120.296903, 22.628441], [120.29722, 22.629247], [120.297127, 22.629526], [120.297053, 22.629495], [120.297323, 22.629538], [120.298226, 22.629919], [120.298412, 22.629324], [120.298586, 22.629424], [120.298475, 22.629523], [120.298909, 22.629669], [120.299006, 22.629426], [120.2993, 22.629517], [120.299444, 22.62962], [120.299201, 22.630221], [120.298812, 22.630075], [120.29913, 22.629914], [120.299173, 22.629754], [120.299061, 22.629715], [120.299112, 22.629553], [120.299047, 22.629751], [120.298896, 22.629705], [120.298879, 22.62953], [120.29872, 22.629466], [120.298831, 22.629371], [120.298923, 22.629398], [120.299035, 22.629215], [120.299518, 22.629365], [120.299548, 22.629058], [120.299781, 22.628725], [120.298755, 22.628343], [120.298517, 22.629044], [120.29876, 22.629109], [120.298848, 22.629045], [120.298954, 22.629173], [120.299192, 22.629161], [120.299305, 22.629026], [120.299411, 22.629066], [120.299295, 22.628813], [120.298776, 22.628657], [120.298822, 22.628874], [120.29859, 22.629232], [120.298436, 22.629222], [120.29821, 22.628944], [120.298529, 22.628281], [120.299215, 22.629764], [120.295957, 22.628493], [120.295873, 22.628617], [120.295676, 22.628481], [120.295603, 22.62867], [120.29547, 22.62863], [120.295537, 22.628217], [120.295868, 22.627407], [120.296288, 22.627553], [120.295991, 22.628413], [120.295778, 22.628163], [120.295652, 22.628351], [120.295308, 22.628208], [120.295203, 22.628452], [120.294389, 22.628159], [120.294475, 22.627925], [120.294755, 22.627998], [120.294767, 22.627782], [120.294532, 22.627746], [120.294689, 22.627474], [120.295505, 22.627722], [120.295356, 22.62801], [120.295246, 22.627955], [120.295291, 22.627784], [120.295176, 22.627738], [120.295095, 22.627792], [120.295129, 22.627928], [120.294931, 22.627837], [120.294981, 22.628081], [120.295203, 22.628144], [120.294968, 22.628513], [120.294839, 22.628453], [120.294817, 22.628726], [120.295079, 22.628822], [120.295165, 22.628587], [120.295343, 22.628759], [120.295282, 22.628911], [120.295479, 22.628968], [120.295749, 22.628885], [120.294623, 22.628645], [120.294441, 22.628377], [120.294289, 22.628599], [120.294815, 22.627041], [120.295062, 22.627214], [120.294913, 22.627267], [120.294874, 22.627118], [120.294828, 22.627357], [120.294905, 22.627394], [120.295271, 22.627486], [120.29529, 22.627423], [120.295261, 22.627522], [120.295198, 22.62735], [120.295241, 22.627215], [120.295414, 22.62727], [120.295334, 22.627324], [120.295126, 22.627149], [120.294783, 22.627339], [120.295562, 22.627315], [120.295549, 22.627577], [120.295639, 22.627027], [120.295113, 22.626826], [120.294976, 22.626847], [120.294932, 22.626798], [120.295039, 22.626518], [120.295088, 22.626464], [120.295861, 22.626784], [120.295929, 22.626622], [120.29585, 22.626568], [120.295958, 22.626559], [120.296015, 22.626387], [120.295394, 22.626159], [120.295453, 22.625987], [120.296071, 22.626235], [120.296169, 22.625893], [120.295847, 22.625793], [120.295307, 22.625915], [120.29511, 22.626302], [120.295752, 22.626518], [120.295556, 22.626539], [120.295841, 22.626829], [120.296107, 22.626794], [120.29599, 22.627137], [120.29614, 22.627192], [120.296229, 22.62684], [120.296197, 22.626537], [120.296575, 22.62676], [120.296513, 22.62694], [120.296423, 22.626895], [120.296363, 22.627003], [120.296477, 22.627085], [120.296397, 22.627265], [120.296288, 22.627228], [120.296705, 22.626408], [120.296562, 22.62638], [120.296777, 22.62621], [120.296756, 22.62612], [120.296456, 22.626064], [120.297205, 22.62699], [120.297661, 22.626667], [120.297846, 22.626643], [120.297907, 22.626468], [120.297747, 22.626422]]}}, {"type": "Feature", "properties": {"district": "6400700", "segment": 4, "total_segments": 6, "km": 9.47, "villages": ["林投里", "國民里", "社西里", "博孝里"]}, "geometry": {"type": "LineString", "coordinates": [[120.294164, 22.626867], [120.293968, 22.627504], [120.294278, 22.627536], [120.294034, 22.627925], [120.293586, 22.628267], [120.292569, 22.628003], [120.292221, 22.627716], [120.292429, 22.627202], [120.291739, 22.626968], [120.291799, 22.627066], [120.291613, 22.627079], [120.291572, 22.627162], [120.291529, 22.627117], [120.292138, 22.627424], [120.292283, 22.627374], [120.292251, 22.627289], [120.292391, 22.627004], [120.292483, 22.627049], [120.29256, 22.626842], [120.29251, 22.626827], [120.292608, 22.626778], [120.292454, 22.62669], [120.292602, 22.626479], [120.292521, 22.626418], [120.292106, 22.626481], [120.292033, 22.626372], [120.291826, 22.626382], [120.291727, 22.626269], [120.291585, 22.626297], [120.29153, 22.626231], [120.291388, 22.626334], [120.291231, 22.626227], [120.291306, 22.626011], [120.291448, 22.625924], [120.291649, 22.625998], [120.29157, 22.626114], [120.29166, 22.6262], [120.291768, 22.626018], [120.292086, 22.626196], [120.292737, 22.626364], [120.292639, 22.626643], [120.292626, 22.6265], [120.292337, 22.62676], [120.292139, 22.62678], [120.292095, 22.626894], [120.291085, 22.626569], [120.291177, 22.626333], [120.291321, 22.626384], [120.291309, 22.626528], [120.291614, 22.626537], [120.291627, 22.626407], [120.291481, 22.626342], [120.291424, 22.62618], [120.291785, 22.626506], [120.291827, 22.626695], [120.291774, 22.62672], [120.291679, 22.626587], [120.292007, 22.626642], [120.291982, 22.626792], [120.29205, 22.626761], [120.292143, 22.626912], [120.292329, 22.626976], [120.29211, 22.626528], [120.292014, 22.626531], [120.292042, 22.626286], [120.291608, 22.626986], [120.291035, 22.626754], [120.290937, 22.626988], [120.291028, 22.627016], [120.291066, 22.627232], [120.290865, 22.627198], [120.290951, 22.627467], [120.291347, 22.627318], [120.291424, 22.627577], [120.292125, 22.62786], [120.292645, 22.627519], [120.292716, 22.627321], [120.293158, 22.627024], [120.293492, 22.627642], [120.293344, 22.626574], [120.29147, 22.626939], [120.290461, 22.626945], [120.2903, 22.627247], [120.289858, 22.627101], [120.289979, 22.626808], [120.289677, 22.625372], [120.290167, 22.625178], [120.29121, 22.62549], [120.29137, 22.62512], [120.291048, 22.62493], [120.291481, 22.624653], [120.291555, 22.624471], [120.292175, 22.624658], [120.292234, 22.624921], [120.292602, 22.625036], [120.292653, 22.624934], [120.293071, 22.625065], [120.293038, 22.625182], [120.292709, 22.625087], [120.29261, 22.625234], [120.293113, 22.625435], [120.293317, 22.624985], [120.293275, 22.624865], [120.292518, 22.624614], [120.292485, 22.62471], [120.292464, 22.624601], [120.292402, 22.624837], [120.292608, 22.624918], [120.292701, 22.62488], [120.292353, 22.625356], [120.293116, 22.62559], [120.29284, 22.626111], [120.292219, 22.625913], [120.292493, 22.625903], [120.292528, 22.625742], [120.292379, 22.625689], [120.292421, 22.625614], [120.292011, 22.62547], [120.292024, 22.62529], [120.291928, 22.625205], [120.291865, 22.625349], [120.292307, 22.625342], [120.292514, 22.625632], [120.292884, 22.625769], [120.292795, 22.625994], [120.292639, 22.625873], [120.292685, 22.625794], [120.293922, 22.626351], [120.290678, 22.624213], [120.290308, 22.623754], [120.2903, 22.624719], [120.290226, 22.624845], [120.290954, 22.623448], [120.291502, 22.623613], [120.291597, 22.623487], [120.291896, 22.623579], [120.29183, 22.623741], [120.29168, 22.623677], [120.291742, 22.623388], [120.291962, 22.623437], [120.29205, 22.62329], [120.291142, 22.622997], [120.291105, 22.623169], [120.291031, 22.623141], [120.291705, 22.62337], [120.291472, 22.62345], [120.291174, 22.62335], [120.290806, 22.623384], [120.290811, 22.622964], [120.290929, 22.622535], [120.291386, 22.622774], [120.291436, 22.622687], [120.291505, 22.622736], [120.291469, 22.622891], [120.291352, 22.62287], [120.291564, 22.622709], [120.292189, 22.622989], [120.292156, 22.623079], [120.292786, 22.623201], [120.292703, 22.623279], [120.292799, 22.623161], [120.292774, 22.623072], [120.293196, 22.623179], [120.293223, 22.623052], [120.292858, 22.622797], [120.292808, 22.622883], [120.292895, 22.622924], [120.293127, 22.622907], [120.294014, 22.623163], [120.293806, 22.623686], [120.293142, 22.623476], [120.293099, 22.623638], [120.292599, 22.623449], [120.292541, 22.623564], [120.29265, 22.623602], [120.292632, 22.623695], [120.292958, 22.6238], [120.292759, 22.623834], [120.292713, 22.623946], [120.292822, 22.624015], [120.292782, 22.624091], [120.292596, 22.624032], [120.293115, 22.623854], [120.293513, 22.623947], [120.293502, 22.624069], [120.293143, 22.623951], [120.293201, 22.623658], [120.293691, 22.623839], [120.293586, 22.624324], [120.293154, 22.624178], [120.292968, 22.623411], [120.292869, 22.623388], [120.293262, 22.623061], [120.29375, 22.623235], [120.293842, 22.622937], [120.294076, 22.623002], [120.294074, 22.62283], [120.293849, 22.622765], [120.293792, 22.622919], [120.294084, 22.622667], [120.294184, 22.622686], [120.294252, 22.62255], [120.293974, 22.622486], [120.294003, 22.622604], [120.294079, 22.622288], [120.294009, 22.622269], [120.294223, 22.622315], [120.292258, 22.622415], [120.291263, 22.622077], [120.291335, 22.621896], [120.2911, 22.621611], [120.291168, 22.62139], [120.291416, 22.62148], [120.291487, 22.621581], [120.291403, 22.621662], [120.2915, 22.62174], [120.291454, 22.621848], [120.291562, 22.621931], [120.291628, 22.621844], [120.291549, 22.621789], [120.291648, 22.621635], [120.291538, 22.621384], [120.291385, 22.621284], [120.291616, 22.621209], [120.291727, 22.621358], [120.291946, 22.621292], [120.292046, 22.621478], [120.292186, 22.621096], [120.291945, 22.621074], [120.291991, 22.62094], [120.29209, 22.620983], [120.291813, 22.621027], [120.291726, 22.620824], [120.292177, 22.620829], [120.292063, 22.621196], [120.291603, 22.621174], [120.291427, 22.620894], [120.291129, 22.620854], [120.291002, 22.621903], [120.291719, 22.621995], [120.292016, 22.621931], [120.29209, 22.622215], [120.292195, 22.622284], [120.29203, 22.622201], [120.291919, 22.621738], [120.292738, 22.620936]]}}, {"type": "Feature", "properties": {"district": "6400700", "segment": 5, "total_segments": 6, "km": 9.01, "villages": ["社東里", "長生里"]}, "geometry": {"type": "LineString", "coordinates": [[120.294806, 22.621985], [120.294837, 22.622064], [120.294888, 22.622007], [120.294748, 22.62208], [120.294575, 22.622464], [120.294916, 22.622571], [120.294942, 22.622522], [120.294772, 22.62247], [120.294822, 22.622363], [120.294941, 22.622388], [120.295463, 22.622592], [120.295397, 22.622709], [120.295023, 22.622608], [120.295104, 22.622292], [120.294882, 22.622228], [120.295098, 22.622085], [120.29575, 22.622349], [120.295793, 22.622151], [120.295863, 22.622169], [120.29539, 22.622014], [120.295684, 22.62189], [120.295914, 22.621977], [120.295891, 22.622037], [120.295876, 22.621815], [120.295664, 22.621735], [120.29573, 22.621591], [120.296471, 22.621836], [120.296453, 22.622084], [120.296308, 22.622289], [120.296012, 22.622224], [120.296045, 22.622103], [120.296333, 22.622007], [120.296248, 22.622451], [120.296114, 22.622657], [120.295964, 22.622585], [120.296086, 22.622459], [120.295986, 22.622405], [120.296127, 22.622757], [120.296043, 22.622929], [120.295733, 22.622772], [120.295586, 22.622981], [120.294551, 22.622651], [120.294377, 22.62303], [120.294528, 22.623175], [120.295008, 22.623267], [120.295034, 22.62334], [120.295723, 22.623559], [120.29583, 22.623533], [120.295977, 22.623127], [120.295711, 22.623021], [120.295599, 22.623351], [120.295434, 22.623305], [120.295459, 22.623107], [120.295292, 22.623043], [120.295221, 22.623232], [120.295046, 22.623105], [120.295107, 22.623006], [120.295006, 22.623168], [120.294815, 22.623104], [120.294923, 22.622915], [120.294714, 22.62285], [120.294656, 22.623044], [120.29492, 22.623538], [120.295348, 22.62363], [120.295307, 22.623748], [120.29498, 22.62364], [120.294919, 22.623836], [120.295368, 22.623982], [120.295357, 22.624058], [120.295551, 22.623899], [120.295654, 22.623956], [120.29571, 22.623749], [120.295505, 22.623739], [120.295622, 22.624056], [120.295511, 22.624263], [120.29408, 22.623787], [120.294126, 22.623661], [120.29465, 22.623726], [120.294625, 22.623862], [120.294738, 22.623889], [120.29479, 22.623772], [120.294863, 22.623836], [120.294711, 22.624178], [120.293998, 22.623924], [120.293869, 22.624427], [120.294055, 22.624491], [120.294285, 22.624339], [120.294254, 22.624169], [120.294198, 22.62422], [120.294701, 22.624388], [120.29475, 22.624196], [120.295032, 22.624288], [120.295203, 22.624365], [120.295038, 22.624603], [120.295121, 22.624629], [120.294626, 22.624472], [120.29481, 22.624424], [120.294798, 22.624705], [120.295202, 22.624888], [120.29526, 22.624778], [120.295341, 22.624795], [120.295477, 22.62441], [120.294434, 22.624582], [120.294235, 22.623521], [120.295143, 22.622301], [120.295521, 22.622421], [120.29496, 22.621748], [120.295546, 22.621534], [120.295666, 22.621563], [120.296776, 22.621956], [120.296585, 22.622434], [120.296763, 22.622471], [120.296793, 22.622345], [120.296814, 22.622489], [120.297469, 22.622689], [120.297536, 22.622515], [120.296984, 22.622355], [120.297022, 22.622292], [120.296946, 22.622273], [120.297055, 22.62222], [120.297087, 22.622021], [120.296911, 22.621966], [120.297191, 22.622274], [120.297746, 22.622521], [120.297875, 22.622396], [120.29783, 22.622322], [120.297337, 22.622103], [120.297738, 22.622584], [120.297657, 22.622848], [120.297724, 22.6228], [120.297562, 22.622885], [120.297622, 22.62299], [120.297391, 22.623415], [120.297602, 22.623472], [120.297659, 22.623188], [120.297922, 22.623334], [120.297902, 22.623442], [120.297382, 22.624718], [120.297264, 22.624676], [120.297693, 22.623694], [120.297381, 22.623594], [120.296955, 22.624497], [120.296929, 22.624721], [120.297103, 22.624794], [120.297173, 22.624582], [120.297341, 22.624849], [120.297194, 22.625239], [120.297089, 22.625166], [120.296884, 22.625217], [120.296739, 22.625151], [120.296658, 22.62533], [120.296482, 22.625242], [120.296438, 22.625314], [120.295635, 22.625022], [120.295778, 22.624544], [120.296314, 22.624718], [120.296392, 22.624551], [120.296715, 22.624638], [120.296757, 22.624449], [120.296262, 22.624293], [120.296293, 22.624167], [120.296392, 22.624167], [120.296671, 22.624295], [120.29673, 22.624097], [120.296161, 22.623886], [120.296099, 22.624058], [120.296257, 22.624158], [120.296093, 22.624344], [120.296268, 22.624516], [120.296028, 22.624779], [120.295837, 22.624743], [120.295818, 22.624896], [120.296052, 22.624997], [120.296104, 22.624843], [120.296283, 22.624907], [120.296234, 22.625052], [120.296418, 22.625085], [120.296497, 22.625179], [120.29662, 22.624882], [120.296517, 22.624782], [120.297036, 22.624947], [120.296761, 22.6251], [120.297047, 22.625428], [120.298013, 22.62556], [120.29819, 22.625513], [120.298451, 22.625664], [120.29917, 22.625792], [120.298065, 22.624816], [120.298482, 22.623725], [120.298007, 22.6231], [120.298122, 22.622856], [120.297928, 22.622557], [120.297136, 22.622764], [120.296552, 22.622579], [120.296375, 22.623063], [120.297185, 22.623322], [120.2973, 22.623151], [120.296631, 22.622952], [120.296684, 22.622832], [120.297207, 22.623015], [120.297068, 22.623701], [120.296545, 22.623533], [120.296588, 22.623315], [120.297026, 22.623495], [120.296954, 22.623975], [120.296579, 22.623818], [120.29672, 22.623744], [120.296896, 22.623799], [120.296794, 22.624115], [120.296891, 22.624133], [120.296818, 22.624339], [120.297294, 22.624153], [120.297421, 22.623856], [120.297459, 22.623716], [120.296253, 22.623344], [120.29622, 22.623431], [120.2963, 22.623227], [120.295847, 22.624337], [120.2958, 22.624968], [120.296611, 22.622805], [120.299327, 22.623656], [120.300885, 22.624873]]}}, {"type": "Feature", "properties": {"district": "6400700", "segment": 6, "total_segments": 6, "km": 9.69, "villages": ["榮復里", "文西里", "文東里"]}, "geometry": {"type": "LineString", "coordinates": [[120.296626, 22.621387], [120.296235, 22.621177], [120.296312, 22.620988], [120.296448, 22.621025], [120.296526, 22.620799], [120.296567, 22.620872], [120.296835, 22.620909], [120.296809, 22.620981], [120.296714, 22.62105], [120.29684, 22.620719], [120.296904, 22.620738], [120.296944, 22.620639], [120.29707, 22.620287], [120.297036, 22.620206], [120.297129, 22.620233], [120.296453, 22.620048], [120.296452, 22.620209], [120.296899, 22.620351], [120.296826, 22.620474], [120.296416, 22.620349], [120.296396, 22.620276], [120.296339, 22.620324], [120.295641, 22.6201], [120.295727, 22.619749], [120.295838, 22.619753], [120.296387, 22.619994], [120.29626, 22.620135], [120.296329, 22.620159], [120.295936, 22.620031], [120.296074, 22.619985], [120.29612, 22.620027], [120.295817, 22.619926], [120.295717, 22.620227], [120.296774, 22.620575], [120.29677, 22.620674], [120.295594, 22.620244], [120.295425, 22.620686], [120.295546, 22.620738], [120.295372, 22.62093], [120.295581, 22.620985], [120.295703, 22.620773], [120.296172, 22.620924], [120.296271, 22.620691], [120.296391, 22.620772], [120.296363, 22.620862], [120.296679, 22.620195], [120.296912, 22.620241], [120.296992, 22.619934], [120.296803, 22.619868], [120.297174, 22.619989], [120.297433, 22.619413], [120.297088, 22.619321], [120.297124, 22.619095], [120.296951, 22.619004], [120.297067, 22.618894], [120.297602, 22.619025], [120.297503, 22.619078], [120.297471, 22.619214], [120.297317, 22.619223], [120.297514, 22.619241], [120.297633, 22.618917], [120.296447, 22.618522], [120.296431, 22.618627], [120.297002, 22.618821], [120.296701, 22.618986], [120.296116, 22.618796], [120.296213, 22.618539], [120.296311, 22.618477], [120.296367, 22.618216], [120.296594, 22.618361], [120.297707, 22.618691], [120.297702, 22.618746], [120.297165, 22.619589], [120.296921, 22.61952], [120.296897, 22.619632], [120.297163, 22.619703], [120.295976, 22.619282], [120.295568, 22.620482], [120.296118, 22.620689], [120.29602, 22.621032], [120.29584, 22.621067], [120.296007, 22.621222], [120.297067, 22.621452], [120.297619, 22.621617], [120.297747, 22.621191], [120.297567, 22.621135], [120.297743, 22.621028], [120.29807, 22.621094], [120.298203, 22.620802], [120.298678, 22.620971], [120.298892, 22.6209], [120.298914, 22.620778], [120.298446, 22.620646], [120.298394, 22.620739], [120.297845, 22.620507], [120.297726, 22.620784], [120.297863, 22.620829], [120.297871, 22.620721], [120.297691, 22.620774], [120.297363, 22.620338], [120.297555, 22.620324], [120.297644, 22.620147], [120.298395, 22.620365], [120.298541, 22.619824], [120.297848, 22.619604], [120.297803, 22.619784], [120.298425, 22.620031], [120.298421, 22.619914], [120.298311, 22.619877], [120.298214, 22.620084], [120.297949, 22.620029], [120.297935, 22.620107], [120.297825, 22.620037], [120.297843, 22.619974], [120.297626, 22.61991], [120.297796, 22.619316], [120.298034, 22.618989], [120.29805, 22.61888], [120.297981, 22.618837], [120.297955, 22.618891], [120.29805, 22.618783], [120.298632, 22.619201], [120.298789, 22.619202], [120.298738, 22.619382], [120.298564, 22.619309], [120.298508, 22.619421], [120.298682, 22.619481], [120.298617, 22.619644], [120.298463, 22.619543], [120.298458, 22.619426], [120.298312, 22.61938], [120.298277, 22.619489], [120.29833, 22.619499], [120.297981, 22.619406], [120.297952, 22.619252], [120.298166, 22.619325], [120.298681, 22.61903], [120.299417, 22.619252], [120.299467, 22.619331], [120.299087, 22.619383], [120.2991, 22.619465], [120.298936, 22.619419], [120.298849, 22.619717], [120.299023, 22.619767], [120.299039, 22.619645], [120.298952, 22.619591], [120.299082, 22.619528], [120.298954, 22.619324], [120.299417, 22.619556], [120.299289, 22.619863], [120.298964, 22.61991], [120.298753, 22.619842], [120.298591, 22.62026], [120.298783, 22.620349], [120.298928, 22.620027], [120.298973, 22.620153], [120.298887, 22.620339], [120.299073, 22.62039], [120.299159, 22.620152], [120.298966, 22.620593], [120.298318, 22.620166], [120.297508, 22.619974], [120.297475, 22.62011], [120.297541, 22.620116], [120.297983, 22.621372], [120.298262, 22.621231], [120.298256, 22.621132], [120.298352, 22.621259], [120.298717, 22.621378], [120.298772, 22.621071], [120.298278, 22.621649], [120.299086, 22.621723], [120.299361, 22.62223], [120.29948, 22.622275], [120.299851, 22.621134], [120.29951, 22.62102], [120.299545, 22.621127], [120.299435, 22.621372], [120.299272, 22.621284], [120.299391, 22.620983], [120.299391, 22.6212], [120.299665, 22.621283], [120.299713, 22.621203], [120.299443, 22.621851], [120.29919, 22.621379], [120.299676, 22.620389], [120.299691, 22.620099], [120.299843, 22.61992], [120.299963, 22.619541], [120.300088, 22.619478], [120.300331, 22.619552], [120.300184, 22.61965], [120.300452, 22.619724], [120.300013, 22.620787], [120.299841, 22.620778], [120.299974, 22.620543], [120.299901, 22.620516], [120.30002, 22.620553], [120.300051, 22.620444], [120.299951, 22.620408], [120.300093, 22.620282], [120.299926, 22.620176], [120.3, 22.619848], [120.300176, 22.61984], [120.300143, 22.619641], [120.300422, 22.619539], [120.301172, 22.619809], [120.301327, 22.620004], [120.301287, 22.620112], [120.301089, 22.620079], [120.301059, 22.620133], [120.300635, 22.621124], [120.300716, 22.621143], [120.300553, 22.621106], [120.300498, 22.621079], [120.300714, 22.62061], [120.300551, 22.620546], [120.300609, 22.620438], [120.300452, 22.620384], [120.300648, 22.619914], [120.300639, 22.619762], [120.300753, 22.620071], [120.300409, 22.620916], [120.300347, 22.621006], [120.300189, 22.620969], [120.300394, 22.62059], [120.300402, 22.621024], [120.299964, 22.622025], [120.299829, 22.622015], [120.300084, 22.621339], [120.300197, 22.621249], [120.29992, 22.621148], [120.299964, 22.620887], [120.29956, 22.620758], [120.299685, 22.620695], [120.300171, 22.619948], [120.300039, 22.620905], [120.300562, 22.621437], [120.300472, 22.62162], [120.300359, 22.621575], [120.300402, 22.621369], [120.300355, 22.621972], [120.300262, 22.622147], [120.300128, 22.622116], [120.300226, 22.621845], [120.300562, 22.621972], [120.300796, 22.621595], [120.300888, 22.621622], [120.300718, 22.622046], [120.300549, 22.622008], [120.300524, 22.622069], [120.300946, 22.622164], [120.300931, 22.622236], [120.30108, 22.621827], [120.300885, 22.621461], [120.300796, 22.62145], [120.300982, 22.62118], [120.301007, 22.621007], [120.301392, 22.621153], [120.30174, 22.620253], [120.301659, 22.620054], [120.299695, 22.622432]]}}]}