{"type": "FeatureCollection", "features": [{"type": "Feature", "properties": {"district": "6402800", "segment": 1, "total_segments": 10, "km": 12.7, "villages": ["光和里"]}, "geometry": {"type": "LineString", "coordinates": [[120.243093, 22.778604], [120.243525, 22.780123], [120.243312, 22.78228], [120.244618, 22.782523], [120.244722, 22.782564], [120.244703, 22.782633], [120.244761, 22.782442], [120.244286, 22.782927], [120.244174, 22.782921], [120.244147, 22.783046], [120.243975, 22.783022], [120.244007, 22.783272], [120.243865, 22.783238], [120.243734, 22.783404], [120.24326, 22.783259], [120.243155, 22.783324], [120.243092, 22.783597], [120.243344, 22.7837], [120.243283, 22.783538], [120.2436, 22.783679], [120.243544, 22.783806], [120.245577, 22.784646], [120.245663, 22.784323], [120.245849, 22.784163], [120.245402, 22.784147], [120.245339, 22.784339], [120.245015, 22.784227], [120.244948, 22.78428], [120.2449, 22.784105], [120.245017, 22.783789], [120.244637, 22.783673], [120.244827, 22.783496], [120.245002, 22.783547], [120.245012, 22.783269], [120.245224, 22.78362], [120.245525, 22.7837], [120.245444, 22.78394], [120.245061, 22.783803], [120.244495, 22.783358], [120.244162, 22.783287], [120.244017, 22.783493], [120.243868, 22.783446], [120.243955, 22.783738], [120.244128, 22.783684], [120.243923, 22.784181], [120.244489, 22.784326], [120.244495, 22.78441], [120.245472, 22.78483], [120.245238, 22.785129], [120.24504, 22.784962], [120.245221, 22.784847], [120.244968, 22.784859], [120.243963, 22.784317], [120.243377, 22.784183], [120.243545, 22.784028], [120.24388, 22.784168], [120.243676, 22.783118], [120.243186, 22.782984], [120.243212, 22.782601], [120.243358, 22.782534], [120.243734, 22.782639], [120.243688, 22.782794], [120.243814, 22.782873], [120.243773, 22.783002], [120.244078, 22.782814], [120.243964, 22.782602], [120.243496, 22.782717], [120.243542, 22.782176], [120.242377, 22.782187], [120.242142, 22.782628], [120.242249, 22.782759], [120.242532, 22.782836], [120.242633, 22.783103], [120.242864, 22.783161], [120.24268, 22.783278], [120.242884, 22.783371], [120.242693, 22.783657], [120.242837, 22.783687], [120.242757, 22.783876], [120.242617, 22.78396], [120.242439, 22.783592], [120.242239, 22.783509], [120.242328, 22.783243], [120.242417, 22.783242], [120.242348, 22.783007], [120.241891, 22.782897], [120.241777, 22.783006], [120.241962, 22.783054], [120.24195, 22.783123], [120.242113, 22.783126], [120.242119, 22.783243], [120.241974, 22.783389], [120.241777, 22.783369], [120.241722, 22.783164], [120.241537, 22.783169], [120.241612, 22.783269], [120.241511, 22.783342], [120.241317, 22.783274], [120.2414, 22.782989], [120.241664, 22.78296], [120.241725, 22.782784], [120.241459, 22.782667], [120.241381, 22.782728], [120.241422, 22.782838], [120.241244, 22.782891], [120.24108, 22.782782], [120.241065, 22.782938], [120.241203, 22.783045], [120.240949, 22.783095], [120.24085, 22.782773], [120.24088, 22.782559], [120.241294, 22.782592], [120.241273, 22.78243], [120.241132, 22.782379], [120.241665, 22.7825], [120.241906, 22.78268], [120.241833, 22.782204], [120.242833, 22.782932], [120.242144, 22.783651], [120.239897, 22.783601], [120.239902, 22.782363], [120.240201, 22.782309], [120.240251, 22.782407], [120.240081, 22.782075], [120.239431, 22.78204], [120.238241, 22.782128], [120.23753, 22.781889], [120.236285, 22.782823], [120.23588, 22.781676], [120.235326, 22.779235], [120.235488, 22.779079], [120.233604, 22.783134], [120.231987, 22.782738], [120.229822, 22.78019], [120.22869, 22.781025], [120.231445, 22.785013], [120.234778, 22.786735], [120.236433, 22.786739], [120.237588, 22.786229], [120.235675, 22.785193], [120.236719, 22.784093], [120.233586, 22.788695], [120.233985, 22.789336], [120.223731, 22.788433], [120.245384, 22.782937]]}}, {"type": "Feature", "properties": {"district": "6402800", "segment": 2, "total_segments": 10, "km": 14.98, "villages": ["海尾里", "南寮里"]}, "geometry": {"type": "LineString", "coordinates": [[120.243573, 22.779898], [120.243946, 22.77854], [120.244106, 22.778562], [120.244046, 22.778345], [120.244447, 22.778405], [120.244467, 22.778247], [120.244116, 22.778192], [120.244171, 22.778004], [120.244395, 22.778005], [120.244366, 22.778082], [120.244416, 22.77792], [120.244549, 22.777817], [120.244703, 22.777925], [120.244763, 22.778233], [120.244649, 22.778457], [120.244928, 22.778581], [120.24514, 22.777993], [120.245264, 22.777924], [120.246065, 22.777857], [120.246296, 22.778081], [120.24658, 22.777146], [120.246346, 22.775758], [120.246026, 22.775172], [120.245897, 22.775218], [120.246121, 22.774834], [120.24589, 22.773346], [120.245562, 22.772904], [120.245653, 22.772753], [120.245377, 22.771669], [120.244819, 22.771562], [120.24281, 22.769821], [120.242545, 22.775434], [120.241218, 22.776526], [120.240976, 22.77633], [120.240708, 22.776765], [120.240831, 22.776805], [120.240809, 22.776853], [120.240936, 22.776777], [120.241305, 22.776905], [120.241336, 22.777131], [120.241522, 22.777018], [120.242131, 22.777238], [120.242076, 22.777332], [120.242421, 22.777429], [120.242504, 22.777323], [120.242687, 22.777327], [120.243118, 22.777419], [120.243327, 22.777574], [120.243397, 22.777466], [120.243609, 22.777537], [120.243646, 22.777713], [120.243571, 22.777815], [120.243456, 22.777828], [120.24346, 22.777716], [120.24319, 22.777937], [120.24337, 22.777996], [120.243306, 22.778155], [120.243392, 22.778191], [120.243393, 22.778344], [120.243587, 22.778312], [120.243773, 22.778457], [120.243808, 22.778257], [120.24389, 22.778281], [120.243828, 22.778122], [120.243877, 22.778035], [120.243714, 22.778041], [120.243706, 22.778224], [120.243912, 22.77789], [120.243783, 22.777707], [120.244, 22.777617], [120.244192, 22.777847], [120.24433, 22.777839], [120.244348, 22.777677], [120.244461, 22.777619], [120.244135, 22.777508], [120.243824, 22.777522], [120.243427, 22.777093], [120.242896, 22.777059], [120.242654, 22.777653], [120.242797, 22.777795], [120.243006, 22.777845], [120.243087, 22.777728], [120.243073, 22.778123], [120.242762, 22.778061], [120.242412, 22.777828], [120.242407, 22.777642], [120.242286, 22.777506], [120.242184, 22.777716], [120.241994, 22.777552], [120.241738, 22.777529], [120.241745, 22.777318], [120.241648, 22.777242], [120.241523, 22.777456], [120.24118, 22.777315], [120.241013, 22.777162], [120.241049, 22.777017], [120.240865, 22.777021], [120.24079, 22.777134], [120.240586, 22.776907], [120.240432, 22.776922], [120.240056, 22.77659], [120.240041, 22.77647], [120.240519, 22.776596], [120.239592, 22.776329], [120.239528, 22.776245], [120.238994, 22.776067], [120.237948, 22.775153], [120.23459, 22.775585], [120.234442, 22.775379], [120.234526, 22.775101], [120.233079, 22.775392], [120.232853, 22.775341], [120.232866, 22.775482], [120.232683, 22.775384], [120.232707, 22.775679], [120.232511, 22.775766], [120.232506, 22.776007], [120.232334, 22.775843], [120.231987, 22.775905], [120.231994, 22.776037], [120.232251, 22.776018], [120.232204, 22.775523], [120.232432, 22.775458], [120.232477, 22.775567], [120.231265, 22.77593], [120.23011, 22.775141], [120.229343, 22.775696], [120.228631, 22.776557], [120.227678, 22.777037], [120.228218, 22.778241], [120.22871, 22.778115], [120.228976, 22.778828], [120.228274, 22.779361], [120.226949, 22.778752], [120.231002, 22.779453], [120.233396, 22.776998], [120.242727, 22.778527], [120.244565, 22.778197], [120.244611, 22.77804], [120.244813, 22.777987], [120.244933, 22.777839], [120.245109, 22.777913], [120.244751, 22.777788], [120.244913, 22.777083], [120.237706, 22.764408], [120.237766, 22.76428], [120.237269, 22.764252], [120.23631, 22.764779], [120.238126, 22.763568], [120.238267, 22.762591], [120.238126, 22.762456], [120.238142, 22.7623], [120.237813, 22.762227], [120.237686, 22.762297], [120.237426, 22.762153], [120.237281, 22.762272], [120.237251, 22.762107], [120.237472, 22.761969], [120.237441, 22.761883], [120.236981, 22.761777], [120.236877, 22.761835], [120.236967, 22.761686], [120.236872, 22.761471], [120.237075, 22.761421], [120.237324, 22.76164], [120.237375, 22.76149], [120.237319, 22.761314], [120.23744, 22.761336], [120.237494, 22.761003], [120.237601, 22.760936], [120.237925, 22.761009], [120.2381, 22.760773], [120.238103, 22.760581], [120.238221, 22.760615], [120.237688, 22.760505], [120.237668, 22.760677], [120.23756, 22.760552], [120.237432, 22.760697], [120.237252, 22.760702], [120.23711, 22.760933], [120.23716, 22.761037], [120.236988, 22.761152], [120.236749, 22.7611], [120.236693, 22.761314], [120.236847, 22.761293], [120.236694, 22.76155], [120.23651, 22.761681], [120.236727, 22.761699], [120.236724, 22.762084], [120.236845, 22.76215], [120.23672, 22.762283], [120.237014, 22.762408], [120.237082, 22.762272], [120.237109, 22.762678], [120.236822, 22.762691], [120.238023, 22.762581], [120.238523, 22.762165], [120.238292, 22.762034], [120.23798, 22.762001], [120.237582, 22.761758], [120.237688, 22.762085], [120.237839, 22.762088], [120.23805, 22.761922], [120.238229, 22.761485], [120.238092, 22.761402], [120.23776, 22.76144], [120.237704, 22.761572], [120.23755, 22.761458], [120.237917, 22.761049], [120.238134, 22.761336], [120.238387, 22.76079], [120.238438, 22.760439], [120.237821, 22.760292], [120.237991, 22.760161], [120.238117, 22.760218], [120.238273, 22.760064], [120.238155, 22.759983], [120.238474, 22.760206], [120.238531, 22.760329], [120.23927, 22.759968], [120.239295, 22.759809], [120.238999, 22.759729], [120.238874, 22.759822], [120.238962, 22.759902], [120.238683, 22.760057], [120.238319, 22.759815], [120.238695, 22.759676], [120.238539, 22.759536], [120.238572, 22.759454], [120.238922, 22.759202], [120.238405, 22.75946], [120.237979, 22.759867], [120.237492, 22.760165], [120.237383, 22.760501], [120.236408, 22.760363], [120.23643, 22.760503], [120.236278, 22.760348], [120.236145, 22.760437], [120.236167, 22.760686], [120.236295, 22.760719], [120.236302, 22.760787], [120.236214, 22.761027], [120.236053, 22.761004], [120.235988, 22.761165], [120.236145, 22.76119], [120.236073, 22.761362], [120.23593, 22.761321], [120.236252, 22.761357], [120.236198, 22.76169], [120.235881, 22.761763], [120.235959, 22.76197], [120.236089, 22.761891], [120.235628, 22.762412], [120.234872, 22.761571], [120.234938, 22.761297], [120.234719, 22.761265], [120.234732, 22.76077], [120.234672, 22.760729], [120.234965, 22.760326], [120.234889, 22.760217], [120.23538, 22.760372], [120.235456, 22.760294], [120.235431, 22.760094], [120.235552, 22.760016], [120.235722, 22.760203], [120.235701, 22.760443], [120.236026, 22.7602], [120.235979, 22.760142], [120.236203, 22.759927], [120.236199, 22.760142], [120.236569, 22.760106], [120.236857, 22.760177], [120.236607, 22.760899], [120.236348, 22.761147]]}}, {"type": "Feature", "properties": {"district": "6402800", "segment": 3, "total_segments": 10, "km": 14.21, "villages": ["南寮里"]}, "geometry": {"type": "LineString", "coordinates": [[120.236791, 22.760946], [120.236822, 22.760864], [120.236979, 22.760861], [120.236946, 22.76101], [120.236953, 22.760711], [120.237278, 22.760581], [120.237947, 22.760648], [120.238746, 22.760572], [120.23947, 22.760944], [120.23955, 22.760837], [120.238998, 22.760499], [120.239452, 22.76023], [120.239548, 22.76032], [120.239329, 22.760509], [120.239449, 22.760617], [120.239668, 22.760439], [120.239953, 22.760383], [120.240173, 22.760644], [120.240126, 22.760675], [120.24046, 22.76049], [120.240262, 22.760395], [120.240264, 22.760724], [120.240095, 22.760875], [120.240433, 22.76119], [120.240302, 22.761341], [120.239974, 22.761048], [120.239865, 22.761146], [120.239601, 22.761006], [120.239725, 22.7608], [120.239599, 22.76069], [120.239804, 22.760589], [120.240065, 22.760842], [120.23983, 22.760889], [120.24002, 22.761265], [120.239689, 22.761391], [120.239507, 22.761253], [120.239233, 22.761379], [120.238921, 22.761289], [120.239057, 22.760984], [120.238881, 22.760352], [120.239593, 22.760287], [120.239558, 22.760056], [120.240193, 22.760025], [120.240361, 22.759901], [120.240272, 22.759806], [120.240518, 22.759747], [120.240858, 22.759398], [120.240705, 22.759305], [120.240043, 22.759721], [120.240687, 22.759953], [120.241112, 22.759769], [120.241026, 22.759562], [120.2408, 22.759696], [120.242205, 22.759487], [120.242374, 22.759171], [120.243016, 22.759466], [120.243121, 22.758276], [120.242632, 22.757924], [120.242527, 22.757664], [120.242882, 22.757648], [120.242887, 22.75621], [120.243297, 22.755365], [120.242628, 22.75512], [120.242949, 22.75468], [120.243485, 22.754626], [120.2427, 22.754085], [120.241491, 22.753986], [120.241371, 22.753791], [120.239608, 22.754863], [120.238926, 22.754706], [120.238739, 22.754897], [120.239113, 22.755892], [120.23992, 22.756491], [120.239551, 22.756822], [120.23918, 22.757812], [120.239095, 22.757891], [120.238142, 22.758121], [120.237606, 22.758799], [120.237495, 22.758895], [120.237443, 22.758838], [120.237634, 22.759097], [120.237726, 22.758979], [120.237917, 22.759107], [120.238036, 22.758981], [120.237798, 22.759304], [120.237448, 22.759469], [120.237238, 22.75926], [120.237429, 22.75915], [120.237441, 22.758708], [120.236931, 22.759543], [120.235963, 22.759792], [120.235702, 22.759579], [120.235628, 22.759844], [120.235862, 22.759973], [120.235237, 22.76009], [120.235237, 22.760583], [120.236047, 22.760769], [120.237176, 22.761237], [120.238883, 22.762449], [120.239927, 22.761975], [120.240186, 22.76169], [120.240438, 22.761937], [120.240624, 22.76176], [120.240286, 22.761495], [120.239959, 22.76161], [120.240812, 22.761817], [120.241174, 22.76218], [120.241066, 22.762375], [120.240804, 22.762254], [120.241052, 22.762582], [120.241566, 22.76234], [120.241465, 22.761172], [120.24439, 22.759658], [120.24595, 22.760786], [120.246628, 22.758946], [120.246641, 22.756167], [120.246482, 22.756126], [120.246438, 22.756358], [120.246371, 22.756178], [120.246135, 22.756197], [120.246161, 22.755952], [120.24596, 22.755905], [120.24592, 22.755818], [120.246214, 22.755084], [120.246434, 22.754934], [120.246809, 22.754924], [120.246866, 22.755227], [120.247007, 22.755176], [120.24754, 22.755229], [120.247555, 22.755392], [120.24792, 22.755424], [120.247914, 22.755603], [120.247936, 22.755137], [120.247353, 22.755464], [120.247552, 22.755714], [120.247121, 22.755713], [120.247037, 22.755582], [120.246874, 22.755551], [120.24687, 22.755367], [120.24712, 22.755389], [120.247095, 22.755018], [120.247326, 22.75491], [120.246943, 22.754515], [120.247323, 22.754224], [120.247074, 22.753501], [120.24623, 22.753439], [120.245751, 22.753739], [120.245886, 22.754013], [120.246041, 22.754069], [120.246009, 22.754244], [120.245718, 22.754528], [120.246011, 22.754668], [120.245949, 22.754978], [120.245737, 22.755], [120.245503, 22.756121], [120.245752, 22.756301], [120.245978, 22.756236], [120.246109, 22.756299], [120.245833, 22.756013], [120.246154, 22.755693], [120.246469, 22.755874], [120.246469, 22.756026], [120.246636, 22.755973], [120.246698, 22.755804], [120.246537, 22.755675], [120.246588, 22.755507], [120.246472, 22.755494], [120.246533, 22.755394], [120.246405, 22.755329], [120.24629, 22.755455], [120.246645, 22.755246], [120.246878, 22.75569], [120.246884, 22.755974], [120.247365, 22.755944], [120.24771, 22.755822], [120.2481, 22.756157], [120.249273, 22.755504], [120.246378, 22.756001], [120.245064, 22.754308], [120.244476, 22.754108], [120.244992, 22.752903], [120.245297, 22.752553], [120.245179, 22.75242], [120.246252, 22.752364], [120.24642, 22.751371], [120.243742, 22.751168], [120.242834, 22.751401], [120.242535, 22.750512], [120.242095, 22.750111], [120.241694, 22.750344], [120.242253, 22.748933], [120.242293, 22.748584], [120.24321, 22.747742], [120.243345, 22.746562], [120.243171, 22.744904], [120.240412, 22.755659], [120.240796, 22.7562], [120.240652, 22.757924], [120.237584, 22.757134], [120.237492, 22.756177], [120.235474, 22.75924], [120.235302, 22.759221], [120.23393, 22.761638]]}}, {"type": "Feature", "properties": {"district": "6402800", "segment": 4, "total_segments": 10, "km": 14.1, "villages": ["南寮里", "漯底里"]}, "geometry": {"type": "LineString", "coordinates": [[120.244482, 22.75746], [120.248958, 22.759611], [120.248489, 22.762538], [120.249103, 22.762757], [120.24967, 22.763143], [120.250066, 22.763296], [120.250355, 22.762852], [120.247918, 22.762831], [120.247595, 22.762765], [120.247604, 22.762427], [120.246901, 22.762586], [120.246669, 22.762847], [120.245583, 22.762818], [120.245568, 22.762137], [120.245806, 22.762153], [120.245708, 22.761776], [120.245092, 22.762089], [120.245237, 22.762397], [120.245118, 22.762518], [120.244198, 22.762721], [120.244399, 22.763302], [120.243173, 22.763975], [120.242711, 22.763715], [120.242372, 22.763781], [120.242437, 22.763494], [120.24237, 22.763426], [120.242688, 22.76318], [120.242954, 22.762783], [120.242941, 22.762632], [120.242786, 22.762599], [120.242478, 22.762217], [120.242788, 22.762201], [120.242912, 22.762063], [120.242529, 22.761537], [120.243631, 22.761033], [120.24389, 22.761686], [120.244244, 22.761545], [120.244179, 22.761461], [120.244269, 22.761426], [120.243993, 22.761529], [120.243953, 22.761331], [120.244246, 22.761237], [120.244236, 22.761103], [120.243848, 22.761222], [120.24369, 22.760852], [120.243609, 22.760989], [120.243904, 22.761344], [120.243443, 22.760511], [120.24337, 22.760543], [120.243258, 22.760405], [120.24402, 22.760312], [120.245116, 22.760466], [120.24567, 22.76353], [120.245562, 22.764015], [120.246321, 22.764673], [120.246652, 22.765287], [120.247057, 22.765475], [120.245703, 22.765626], [120.245627, 22.765777], [120.245201, 22.765633], [120.245093, 22.765751], [120.245306, 22.765904], [120.245323, 22.766073], [120.245515, 22.765999], [120.244679, 22.765796], [120.244654, 22.765666], [120.244338, 22.765687], [120.244032, 22.765932], [120.244295, 22.766166], [120.24405, 22.766377], [120.244113, 22.766551], [120.244232, 22.766609], [120.244317, 22.766483], [120.244306, 22.766823], [120.244649, 22.766817], [120.244555, 22.766177], [120.244643, 22.765961], [120.2444, 22.765961], [120.244192, 22.765309], [120.244038, 22.76549], [120.24391, 22.765515], [120.243901, 22.765451], [120.243841, 22.765614], [120.243653, 22.765471], [120.243612, 22.765733], [120.243753, 22.765797], [120.243882, 22.766218], [120.243655, 22.766345], [120.24353, 22.766067], [120.24349, 22.766196], [120.243366, 22.766056], [120.243218, 22.766086], [120.243237, 22.765959], [120.243142, 22.765967], [120.243154, 22.765788], [120.243414, 22.765743], [120.243388, 22.765612], [120.243294, 22.765643], [120.243339, 22.76551], [120.243111, 22.765463], [120.243051, 22.765293], [120.242848, 22.765268], [120.242796, 22.765099], [120.243, 22.765095], [120.243053, 22.76469], [120.243283, 22.764711], [120.243341, 22.765369], [120.243197, 22.765298], [120.243212, 22.765081], [120.243724, 22.765015], [120.243652, 22.765154], [120.243553, 22.765128], [120.243545, 22.765274], [120.243895, 22.765223], [120.244143, 22.765065], [120.244271, 22.764729], [120.244249, 22.764476], [120.244086, 22.764615], [120.244132, 22.764734], [120.243901, 22.764812], [120.243886, 22.764665], [120.243547, 22.764758], [120.243481, 22.764685], [120.243481, 22.76437], [120.243795, 22.76431], [120.243564, 22.764853], [120.244196, 22.76515], [120.24449, 22.765105], [120.244655, 22.765171], [120.244635, 22.765391], [120.245074, 22.765337], [120.244967, 22.765188], [120.245141, 22.765103], [120.244717, 22.764869], [120.24453, 22.764857], [120.244479, 22.764657], [120.24467, 22.764633], [120.244514, 22.765355], [120.244424, 22.765439], [120.243415, 22.765882], [120.242892, 22.765789], [120.242481, 22.765954], [120.242413, 22.766083], [120.242895, 22.766057], [120.242725, 22.765727], [120.242562, 22.765726], [120.242602, 22.765387], [120.242711, 22.765407], [120.242374, 22.764755], [120.24229, 22.76478], [120.242803, 22.764715], [120.242751, 22.764293], [120.242656, 22.764249], [120.243156, 22.764237], [120.243337, 22.763381], [120.242333, 22.762743], [120.242255, 22.7653], [120.241269, 22.765688], [120.243005, 22.766422], [120.243118, 22.766767], [120.243625, 22.766664], [120.243625, 22.766519], [120.243716, 22.766441], [120.243887, 22.766702], [120.243634, 22.766713], [120.243693, 22.76702], [120.243953, 22.766932], [120.24443, 22.76708], [120.244515, 22.767372], [120.245118, 22.767034], [120.243496, 22.767127], [120.243462, 22.767821], [120.243578, 22.768388], [120.243915, 22.769], [120.243599, 22.769219], [120.24347, 22.769129], [120.243067, 22.76931], [120.24317, 22.769132], [120.24297, 22.768712], [120.243157, 22.768638], [120.243631, 22.769549], [120.243344, 22.769677], [120.24323, 22.769693], [120.242871, 22.769448], [120.242613, 22.769257], [120.242513, 22.769084], [120.24159, 22.769389], [120.242169, 22.767956], [120.241015, 22.767719], [120.239622, 22.768824], [120.243422, 22.770213], [120.243821, 22.769724], [120.243731, 22.769509], [120.244072, 22.769396], [120.244203, 22.769249], [120.244433, 22.769945], [120.244629, 22.769898], [120.244512, 22.769795], [120.244347, 22.769195], [120.244414, 22.769178], [120.244079, 22.76902], [120.244089, 22.76966], [120.244228, 22.770013], [120.244863, 22.769907], [120.24485, 22.769854], [120.245345, 22.769688], [120.246004, 22.769247], [120.243259, 22.766249], [120.247942, 22.763205], [120.254181, 22.767926], [120.253693, 22.76957], [120.253386, 22.769917], [120.253341, 22.770126], [120.253491, 22.770191], [120.253435, 22.77035], [120.253277, 22.770422], [120.253655, 22.771555], [120.252461, 22.769764], [120.25786, 22.769852]]}}, {"type": "Feature", "properties": {"district": "6402800", "segment": 5, "total_segments": 10, "km": 12.88, "villages": ["彌陀里"]}, "geometry": {"type": "LineString", "coordinates": [[120.258316, 22.769952], [120.257219, 22.770968], [120.25725, 22.771584], [120.256929, 22.77191], [120.257561, 22.771955], [120.257572, 22.772215], [120.25671, 22.772504], [120.256748, 22.773236], [120.255034, 22.773066], [120.25445, 22.773569], [120.254559, 22.774062], [120.253598, 22.774241], [120.253235, 22.77462], [120.253186, 22.774802], [120.252684, 22.774559], [120.252768, 22.775287], [120.252695, 22.775449], [120.252568, 22.775334], [120.252428, 22.775708], [120.251257, 22.77551], [120.251237, 22.775295], [120.250801, 22.774621], [120.250926, 22.774349], [120.251189, 22.774479], [120.251495, 22.774189], [120.250637, 22.775331], [120.250511, 22.77577], [120.249989, 22.774909], [120.249475, 22.776811], [120.250068, 22.777], [120.250013, 22.777224], [120.24977, 22.777181], [120.249643, 22.77707], [120.249565, 22.777149], [120.249659, 22.77724], [120.249485, 22.777629], [120.249507, 22.777837], [120.249617, 22.77793], [120.249652, 22.777544], [120.249868, 22.777596], [120.249925, 22.777356], [120.250199, 22.777301], [120.25037, 22.777355], [120.250394, 22.777473], [120.250737, 22.777338], [120.250833, 22.777439], [120.250817, 22.777174], [120.250878, 22.777023], [120.251025, 22.77693], [120.250811, 22.776786], [120.251183, 22.776792], [120.251232, 22.776917], [120.250474, 22.777876], [120.250364, 22.777628], [120.250046, 22.777628], [120.249898, 22.778271], [120.249779, 22.778423], [120.249834, 22.778475], [120.249784, 22.778615], [120.250014, 22.778641], [120.249953, 22.778901], [120.250202, 22.778987], [120.250347, 22.778593], [120.250707, 22.77804], [120.250686, 22.778498], [120.250555, 22.778765], [120.250477, 22.778745], [120.250508, 22.778677], [120.250411, 22.778878], [120.2505, 22.778899], [120.250443, 22.778994], [120.250633, 22.779001], [120.250363, 22.778969], [120.250138, 22.779446], [120.250009, 22.779411], [120.250071, 22.77928], [120.249798, 22.779852], [120.249829, 22.779937], [120.249653, 22.780103], [120.249691, 22.780306], [120.249549, 22.780284], [120.249397, 22.780567], [120.249491, 22.780597], [120.249366, 22.78099], [120.250138, 22.781073], [120.250319, 22.781011], [120.250338, 22.781138], [120.250787, 22.781237], [120.250864, 22.781102], [120.250977, 22.781085], [120.250883, 22.780996], [120.250597, 22.780965], [120.250689, 22.780748], [120.250909, 22.780678], [120.250756, 22.780291], [120.250603, 22.780383], [120.250492, 22.780258], [120.250171, 22.780165], [120.250124, 22.780065], [120.250004, 22.78022], [120.250129, 22.780325], [120.249991, 22.780484], [120.249922, 22.780375], [120.250257, 22.780555], [120.250298, 22.780445], [120.250264, 22.780781], [120.249701, 22.780725], [120.249189, 22.780524], [120.249594, 22.779732], [120.249012, 22.779449], [120.248642, 22.779383], [120.248701, 22.779172], [120.248507, 22.779137], [120.248558, 22.779025], [120.248742, 22.778981], [120.248811, 22.779036], [120.248793, 22.779188], [120.248736, 22.779179], [120.248861, 22.779218], [120.248962, 22.779135], [120.249041, 22.779245], [120.249682, 22.77954], [120.249727, 22.779444], [120.249651, 22.779607], [120.249701, 22.77915], [120.249831, 22.77919], [120.249802, 22.779254], [120.249222, 22.779157], [120.249447, 22.77909], [120.249381, 22.778784], [120.24957, 22.778503], [120.249626, 22.778252], [120.249419, 22.778125], [120.248849, 22.777976], [120.248782, 22.778221], [120.249274, 22.778255], [120.249362, 22.778355], [120.249284, 22.778343], [120.249658, 22.778159], [120.25007, 22.778467], [120.250025, 22.778605], [120.250573, 22.779259], [120.250438, 22.779553], [120.250828, 22.779692], [120.250462, 22.779891], [120.250424, 22.779757], [120.250232, 22.779969], [120.250616, 22.780156], [120.250118, 22.779889], [120.250144, 22.779751], [120.249915, 22.779985], [120.250301, 22.779477], [120.249256, 22.779759], [120.249112, 22.779946], [120.249243, 22.780002], [120.249191, 22.780169], [120.249066, 22.780212], [120.249012, 22.780083], [120.248763, 22.780054], [120.249009, 22.779901], [120.248623, 22.779723], [120.248593, 22.779778], [120.248516, 22.779656], [120.248436, 22.779858], [120.248505, 22.779934], [120.248297, 22.779932], [120.248378, 22.780086], [120.248588, 22.780221], [120.248797, 22.780248], [120.249156, 22.780606], [120.249132, 22.77961], [120.248761, 22.779572], [120.248003, 22.779796], [120.247901, 22.77973], [120.247907, 22.779599], [120.248023, 22.779597], [120.248004, 22.779383], [120.247896, 22.779386], [120.247967, 22.779238], [120.247917, 22.779147], [120.248068, 22.779158], [120.248138, 22.779324], [120.248308, 22.779245], [120.248218, 22.779054], [120.24797, 22.778885], [120.247628, 22.778845], [120.247592, 22.77865], [120.247797, 22.778601], [120.247785, 22.778707], [120.247812, 22.778432], [120.24752, 22.778361], [120.24744, 22.777826], [120.247656, 22.777862], [120.247596, 22.778174], [120.248151, 22.778363], [120.248025, 22.778514], [120.247911, 22.778491], [120.247949, 22.778766], [120.248012, 22.778771], [120.248032, 22.778598], [120.24813, 22.778638], [120.248131, 22.778765], [120.249002, 22.778863], [120.248848, 22.778502], [120.248353, 22.778411], [120.248334, 22.778593], [120.248416, 22.778609], [120.247624, 22.778883], [120.247586, 22.779094], [120.247721, 22.779136], [120.247707, 22.779383], [120.247629, 22.779372], [120.247571, 22.77957], [120.247663, 22.779651], [120.24776, 22.779563], [120.248909, 22.778109], [120.248984, 22.777796], [120.249254, 22.777838], [120.249338, 22.777186], [120.249426, 22.777114], [120.249168, 22.776956], [120.249074, 22.777027], [120.249108, 22.777334], [120.248945, 22.777772], [120.248124, 22.777625], [120.248268, 22.777246], [120.248605, 22.777093], [120.248254, 22.776878], [120.248252, 22.776615], [120.248353, 22.77663], [120.247725, 22.776827], [120.247658, 22.776481], [120.247101, 22.776554], [120.246959, 22.775894], [120.247068, 22.774977], [120.246659, 22.77488], [120.246653, 22.774521], [120.247611, 22.774919], [120.249317, 22.776791], [120.249428, 22.776834], [120.249397, 22.777002], [120.251359, 22.776666], [120.251404, 22.776509], [120.251748, 22.776278], [120.251668, 22.77947], [120.252081, 22.779762], [120.251996, 22.780014], [120.251872, 22.780042], [120.251932, 22.780135], [120.251585, 22.780154], [120.251497, 22.780321], [120.251257, 22.78021], [120.251164, 22.780356], [120.251353, 22.780595], [120.251239, 22.780892], [120.251622, 22.781011], [120.251659, 22.780864], [120.251547, 22.781266], [120.25115, 22.781185], [120.251077, 22.781316], [120.251447, 22.781435], [120.251784, 22.78188], [120.252051, 22.781587], [120.252058, 22.781003], [120.25216, 22.780693], [120.252369, 22.780707], [120.252603, 22.780537], [120.252961, 22.781152], [120.253476, 22.780784], [120.253707, 22.78152], [120.253915, 22.781603], [120.252465, 22.779972], [120.247408, 22.777369], [120.254511, 22.77153], [120.255763, 22.771759]]}}, {"type": "Feature", "properties": {"district": "6402800", "segment": 6, "total_segments": 10, "km": 15.0, "villages": ["彌壽里", "彌仁里", "彌靖里"]}, "geometry": {"type": "LineString", "coordinates": [[120.247052, 22.777765], [120.247095, 22.778277], [120.246621, 22.778095], [120.246661, 22.777924], [120.246924, 22.777871], [120.246489, 22.778323], [120.245925, 22.778338], [120.245987, 22.778569], [120.246635, 22.778611], [120.24661, 22.778802], [120.246726, 22.778797], [120.246665, 22.778901], [120.24671, 22.779235], [120.246868, 22.779107], [120.247073, 22.77907], [120.247074, 22.779003], [120.247119, 22.779133], [120.247058, 22.779314], [120.247168, 22.779511], [120.247083, 22.779553], [120.246707, 22.779404], [120.246684, 22.779516], [120.246385, 22.779376], [120.24659, 22.779645], [120.246522, 22.779843], [120.246676, 22.77965], [120.246887, 22.780218], [120.247319, 22.780105], [120.247306, 22.780358], [120.247498, 22.780465], [120.247547, 22.780072], [120.247726, 22.779779], [120.248047, 22.780123], [120.24815, 22.780087], [120.248357, 22.780254], [120.248202, 22.780502], [120.248317, 22.780569], [120.2483, 22.780682], [120.248596, 22.78067], [120.248618, 22.780413], [120.248834, 22.780631], [120.249151, 22.780713], [120.249046, 22.781182], [120.248979, 22.781213], [120.249005, 22.781403], [120.248549, 22.781322], [120.248664, 22.78111], [120.248874, 22.781037], [120.248853, 22.781135], [120.248925, 22.780948], [120.249005, 22.780966], [120.248842, 22.78093], [120.248892, 22.780847], [120.248566, 22.780823], [120.248521, 22.781059], [120.248422, 22.781066], [120.248409, 22.780991], [120.248318, 22.78105], [120.248308, 22.781203], [120.248173, 22.781142], [120.248116, 22.781231], [120.247942, 22.781077], [120.247927, 22.781137], [120.247607, 22.781072], [120.247609, 22.781144], [120.2474, 22.781127], [120.247439, 22.780888], [120.247537, 22.780788], [120.24766, 22.780878], [120.247937, 22.780616], [120.248074, 22.780606], [120.247921, 22.780206], [120.247861, 22.780373], [120.247497, 22.780697], [120.248108, 22.780863], [120.248118, 22.78104], [120.248393, 22.780435], [120.247293, 22.779947], [120.247415, 22.779426], [120.24736, 22.779239], [120.247407, 22.779039], [120.247302, 22.778798], [120.246883, 22.778867], [120.246138, 22.778802], [120.245577, 22.778874], [120.245523, 22.778819], [120.245768, 22.778965], [120.245707, 22.7791], [120.245938, 22.778964], [120.245557, 22.779338], [120.245035, 22.778962], [120.245246, 22.778668], [120.245253, 22.77835], [120.245126, 22.778349], [120.245341, 22.778347], [120.245336, 22.778112], [120.245465, 22.778104], [120.245977, 22.778112], [120.246316, 22.778487], [120.245169, 22.778104], [120.244741, 22.778993], [120.244343, 22.77888], [120.244319, 22.778782], [120.246062, 22.781117], [120.246193, 22.781043], [120.246526, 22.781269], [120.246752, 22.781258], [120.246918, 22.781469], [120.247113, 22.781485], [120.246989, 22.78186], [120.247219, 22.781777], [120.247333, 22.781384], [120.247455, 22.781298], [120.247344, 22.781276], [120.247374, 22.781197], [120.247193, 22.781171], [120.24713, 22.781354], [120.247149, 22.781091], [120.246789, 22.780995], [120.247031, 22.780908], [120.247085, 22.780669], [120.247256, 22.780651], [120.247308, 22.780434], [120.247215, 22.780891], [120.247612, 22.781339], [120.247583, 22.781418], [120.247694, 22.781444], [120.247466, 22.781845], [120.24791, 22.781922], [120.247987, 22.781778], [120.247914, 22.781726], [120.247966, 22.781591], [120.248075, 22.781563], [120.248101, 22.781718], [120.248253, 22.781715], [120.248371, 22.781507], [120.24827, 22.781455], [120.248538, 22.78147], [120.248641, 22.781486], [120.24847, 22.781647], [120.248579, 22.78171], [120.248427, 22.781761], [120.248428, 22.781899], [120.248875, 22.781935], [120.248927, 22.781722], [120.248826, 22.781739], [120.248868, 22.781579], [120.248955, 22.781621], [120.24899, 22.781482], [120.249233, 22.781534], [120.249275, 22.781084], [120.249977, 22.78136], [120.250281, 22.781344], [120.250388, 22.781407], [120.250383, 22.781678], [120.250639, 22.781655], [120.251365, 22.781788], [120.251649, 22.782362], [120.251613, 22.782477], [120.251934, 22.782244], [120.250383, 22.782175], [120.250435, 22.781957], [120.249928, 22.781954], [120.249832, 22.781801], [120.249538, 22.782239], [120.249608, 22.782332], [120.249507, 22.782499], [120.249532, 22.782658], [120.249379, 22.782708], [120.24905, 22.782503], [120.249172, 22.781859], [120.249249, 22.781841], [120.249188, 22.781769], [120.249224, 22.781578], [120.24948, 22.781593], [120.249471, 22.781788], [120.249336, 22.781938], [120.249924, 22.782191], [120.250048, 22.782429], [120.250541, 22.782414], [120.250528, 22.782538], [120.250685, 22.782525], [120.250608, 22.782935], [120.250792, 22.782964], [120.250836, 22.78278], [120.250701, 22.782415], [120.250549, 22.782327], [120.249813, 22.782683], [120.249813, 22.782476], [120.249037, 22.782576], [120.249022, 22.782652], [120.248297, 22.781936], [120.248081, 22.781966], [120.247823, 22.781534], [120.248056, 22.781291], [120.246433, 22.781545], [120.246494, 22.781907], [120.246318, 22.781995], [120.246283, 22.782109], [120.250179, 22.781472], [120.248885, 22.782038], [120.24875, 22.782536], [120.248407, 22.782884], [120.248184, 22.783372], [120.248438, 22.783465], [120.248587, 22.783135], [120.248975, 22.782755], [120.249096, 22.782882], [120.249077, 22.783119], [120.249005, 22.783106], [120.249256, 22.783202], [120.249249, 22.78305], [120.249362, 22.782909], [120.249733, 22.783002], [120.249688, 22.783163], [120.249741, 22.783169], [120.249332, 22.78341], [120.248961, 22.783305], [120.248889, 22.783373], [120.248965, 22.78363], [120.249523, 22.783735], [120.249459, 22.783622], [120.249383, 22.783878], [120.248929, 22.783784], [120.248861, 22.783696], [120.248982, 22.783892], [120.248954, 22.783976], [120.248682, 22.783861], [120.248599, 22.784013], [120.248741, 22.78422], [120.24858, 22.78449], [120.248539, 22.784752], [120.248756, 22.784826], [120.248779, 22.785129], [120.248607, 22.785152], [120.248489, 22.785449], [120.24865, 22.785446], [120.248717, 22.785275], [120.248921, 22.785226], [120.24979, 22.785373], [120.249567, 22.785836], [120.249335, 22.785578], [120.249388, 22.785408], [120.249097, 22.785465], [120.248912, 22.785399], [120.248578, 22.786183], [120.248904, 22.786287], [120.248961, 22.786165], [120.248751, 22.786077], [120.248864, 22.785996], [120.248896, 22.785871], [120.24883, 22.785848], [120.249256, 22.78605], [120.249144, 22.786225], [120.249001, 22.786178], [120.249039, 22.786431], [120.248124, 22.786186], [120.248274, 22.785803], [120.248524, 22.785888], [120.248373, 22.786054], [120.248529, 22.786167], [120.2484, 22.786474], [120.248928, 22.786644], [120.24892, 22.786768], [120.248663, 22.787117], [120.24833, 22.786791], [120.24827, 22.786814], [120.247894, 22.787319], [120.247757, 22.78713], [120.248071, 22.786637], [120.247804, 22.786532], [120.247629, 22.786994], [120.247435, 22.786892], [120.247639, 22.786368], [120.247498, 22.786409], [120.247283, 22.786338], [120.247518, 22.785686], [120.24768, 22.785766], [120.247753, 22.785656], [120.248157, 22.785772], [120.248198, 22.785547], [120.247656, 22.785392], [120.247714, 22.78507], [120.24788, 22.784728], [120.247969, 22.784703], [120.248092, 22.784317], [120.248064, 22.784148], [120.248166, 22.784111], [120.248422, 22.783502], [120.248631, 22.783583], [120.248864, 22.783125], [120.248984, 22.783251], [120.24907, 22.783536], [120.249205, 22.783496], [120.249416, 22.783885], [120.24959, 22.783921], [120.249662, 22.784393], [120.249574, 22.784462], [120.24945, 22.785054], [120.249279, 22.785], [120.249401, 22.784452], [120.24911, 22.784332], [120.24834, 22.784224], [120.248263, 22.784686], [120.248096, 22.784821], [120.248192, 22.784975], [120.24817, 22.785398], [120.24824, 22.785555], [120.248557, 22.785657], [120.24901, 22.78567], [120.248926, 22.785367], [120.248349, 22.785177], [120.24836, 22.785049], [120.247868, 22.784975], [120.247809, 22.785029], [120.247904, 22.7851], [120.247561, 22.785623], [120.247294, 22.785444], [120.24692, 22.786224], [120.246624, 22.786083], [120.246847, 22.785809], [120.246505, 22.785542], [120.246508, 22.785644], [120.246268, 22.785831], [120.246535, 22.786049], [120.246647, 22.785878], [120.246565, 22.78578], [120.246615, 22.785725], [120.246878, 22.785834], [120.246871, 22.785915], [120.246961, 22.785619], [120.246669, 22.785401], [120.246725, 22.785237], [120.246851, 22.785273], [120.246816, 22.785368], [120.24694, 22.785465], [120.246994, 22.785324], [120.247366, 22.785299], [120.247605, 22.784622], [120.246914, 22.784432], [120.24692, 22.784739], [120.246427, 22.784847], [120.246203, 22.785526], [120.245494, 22.785121], [120.245996, 22.783904], [120.24617, 22.783651], [120.246209, 22.783409], [120.24631, 22.783333], [120.24626, 22.783182], [120.246136, 22.783147], [120.246252, 22.783024], [120.246033, 22.782967], [120.245909, 22.783098], [120.246506, 22.783082], [120.246633, 22.782832], [120.246881, 22.782976], [120.246921, 22.782729], [120.247256, 22.78256], [120.24738, 22.782564], [120.247556, 22.782703], [120.247576, 22.782808], [120.247908, 22.782938], [120.247946, 22.782798], [120.247827, 22.782788], [120.247808, 22.782606], [120.247723, 22.782522], [120.247661, 22.782578], [120.247513, 22.782358], [120.247728, 22.782322], [120.247996, 22.782464], [120.248002, 22.782563], [120.248289, 22.782515], [120.248393, 22.782368], [120.248523, 22.782356], [120.248563, 22.782464], [120.248472, 22.782576], [120.248458, 22.782231], [120.248627, 22.782071], [120.248225, 22.78208], [120.24817, 22.782217], [120.247974, 22.782265], [120.247879, 22.78216], [120.247665, 22.782192], [120.247676, 22.781974], [120.248033, 22.78204], [120.248199, 22.782332], [120.24811, 22.782885], [120.248285, 22.782887], [120.24795, 22.783212], [120.247753, 22.783051], [120.247406, 22.783072], [120.247184, 22.782884], [120.247224, 22.782728], [120.247445, 22.78277], [120.247097, 22.782489], [120.247259, 22.78214], [120.24728, 22.782045], [120.247187, 22.78202], [120.247142, 22.782115], [120.247243, 22.78188], [120.247466, 22.781924], [120.247469, 22.781988], [120.246842, 22.782359], [120.246763, 22.78227], [120.245113, 22.782491], [120.244924, 22.782994], [120.245628, 22.783764], [120.246302, 22.783942], [120.247781, 22.783678], [120.2486, 22.783678], [120.250222, 22.784379], [120.250545, 22.784687], [120.250751, 22.784397], [120.250367, 22.785451]]}}, {"type": "Feature", "properties": {"district": "6402800", "segment": 7, "total_segments": 10, "km": 15.0, "villages": ["彌靖里", "過港里", "鹽埕里"]}, "geometry": {"type": "LineString", "coordinates": [[120.249674, 22.786645], [120.249096, 22.787296], [120.248455, 22.786691], [120.24835, 22.786625], [120.248253, 22.78674], [120.248254, 22.786432], [120.248082, 22.786374], [120.247856, 22.786306], [120.247859, 22.786785], [120.2472, 22.786524], [120.247139, 22.786657], [120.247373, 22.786728], [120.247216, 22.786487], [120.247266, 22.786376], [120.247819, 22.785987], [120.247391, 22.785341], [120.24867, 22.787737], [120.248586, 22.787835], [120.251683, 22.78311], [120.251436, 22.78287], [120.245105, 22.785399], [120.244954, 22.785645], [120.244594, 22.785763], [120.2443, 22.785709], [120.244305, 22.785596], [120.244208, 22.785579], [120.24412, 22.785746], [120.244033, 22.785727], [120.244206, 22.7852], [120.244034, 22.785121], [120.24402, 22.78499], [120.24383, 22.784858], [120.243861, 22.78471], [120.243942, 22.78474], [120.243697, 22.784647], [120.243685, 22.784827], [120.243384, 22.784731], [120.243172, 22.784818], [120.243272, 22.785281], [120.243929, 22.785456], [120.243855, 22.785818], [120.243557, 22.785675], [120.243433, 22.785713], [120.243301, 22.785557], [120.24313, 22.785673], [120.242907, 22.785664], [120.242875, 22.785502], [120.243015, 22.785483], [120.243029, 22.78535], [120.242699, 22.785282], [120.242667, 22.785142], [120.242391, 22.785141], [120.242499, 22.784756], [120.242802, 22.784791], [120.242942, 22.784891], [120.242939, 22.785025], [120.242806, 22.785169], [120.242683, 22.784861], [120.242727, 22.78462], [120.242466, 22.784588], [120.242656, 22.784433], [120.242849, 22.784436], [120.242831, 22.784349], [120.242891, 22.78464], [120.242769, 22.784625], [120.243169, 22.784613], [120.24319, 22.784483], [120.243438, 22.784484], [120.24344, 22.785018], [120.243718, 22.785107], [120.244258, 22.785067], [120.244357, 22.785195], [120.244396, 22.784954], [120.244502, 22.78498], [120.2443, 22.784862], [120.244694, 22.785148], [120.244288, 22.785765], [120.244354, 22.785934], [120.244568, 22.78601], [120.244486, 22.786133], [120.244626, 22.786197], [120.244733, 22.785966], [120.24447, 22.786374], [120.244158, 22.78637], [120.24407, 22.786281], [120.244054, 22.785981], [120.244218, 22.786139], [120.243898, 22.786178], [120.243816, 22.786526], [120.243721, 22.786625], [120.244064, 22.786686], [120.244108, 22.786537], [120.24402, 22.786546], [120.244214, 22.786496], [120.244533, 22.786566], [120.244549, 22.786481], [120.244477, 22.786709], [120.243674, 22.786469], [120.243482, 22.786044], [120.243212, 22.786346], [120.243091, 22.786671], [120.242907, 22.786653], [120.242867, 22.786726], [120.242812, 22.786633], [120.242559, 22.786541], [120.242984, 22.786486], [120.243047, 22.786377], [120.242738, 22.786307], [120.242742, 22.786216], [120.24256, 22.78621], [120.242364, 22.78635], [120.242192, 22.786541], [120.242221, 22.786599], [120.242452, 22.786767], [120.242951, 22.786886], [120.243009, 22.786976], [120.242985, 22.787058], [120.242667, 22.787152], [120.242667, 22.787278], [120.242777, 22.787393], [120.242892, 22.78737], [120.242971, 22.787781], [120.242757, 22.787556], [120.242596, 22.787552], [120.242509, 22.787684], [120.242649, 22.787722], [120.242478, 22.787983], [120.242267, 22.787636], [120.24218, 22.787239], [120.242404, 22.787261], [120.24251, 22.786986], [120.242685, 22.787015], [120.242929, 22.787306], [120.243085, 22.786931], [120.243056, 22.786824], [120.243224, 22.786795], [120.243229, 22.786673], [120.243472, 22.786571], [120.243438, 22.786446], [120.243169, 22.786277], [120.243081, 22.786109], [120.242603, 22.785819], [120.242055, 22.786146], [120.24184, 22.786554], [120.241935, 22.7868], [120.242189, 22.787003], [120.242095, 22.788216], [120.242531, 22.788523], [120.242447, 22.788648], [120.242529, 22.788765], [120.242833, 22.788795], [120.242825, 22.788878], [120.242944, 22.788902], [120.242741, 22.789571], [120.242645, 22.789413], [120.242492, 22.78938], [120.24297, 22.788793], [120.242901, 22.788735], [120.243015, 22.788564], [120.242759, 22.788436], [120.241771, 22.78898], [120.241359, 22.790151], [120.240503, 22.789849], [120.242516, 22.790093], [120.241493, 22.79195], [120.238082, 22.79013], [120.24165, 22.785088], [120.242064, 22.784907], [120.242165, 22.784953], [120.24365, 22.786006], [120.243717, 22.786171], [120.243423, 22.786729], [120.243368, 22.786848], [120.243448, 22.786842], [120.243433, 22.786941], [120.243507, 22.786962], [120.243346, 22.786923], [120.243409, 22.787136], [120.243129, 22.787329], [120.24312, 22.787436], [120.243356, 22.787471], [120.243239, 22.787585], [120.243173, 22.787867], [120.243353, 22.787824], [120.243533, 22.788036], [120.243233, 22.788182], [120.243217, 22.788387], [120.243409, 22.78848], [120.243529, 22.788339], [120.243584, 22.788472], [120.243766, 22.788352], [120.243838, 22.788475], [120.244127, 22.788522], [120.244273, 22.788521], [120.24433, 22.788389], [120.24452, 22.788496], [120.244629, 22.788386], [120.24456, 22.788235], [120.244586, 22.788034], [120.244486, 22.788125], [120.244093, 22.78803], [120.243835, 22.78764], [120.243506, 22.787613], [120.243484, 22.787383], [120.243512, 22.787272], [120.243642, 22.787415], [120.244039, 22.78745], [120.24416, 22.787368], [120.244199, 22.787211], [120.244509, 22.787205], [120.244539, 22.787078], [120.244397, 22.787005], [120.244395, 22.786913], [120.244056, 22.786913], [120.244046, 22.787065], [120.243796, 22.787024], [120.24371, 22.786888], [120.243642, 22.787095], [120.243967, 22.787295], [120.244008, 22.787617], [120.24423, 22.787706], [120.244149, 22.787823], [120.244513, 22.787841], [120.244448, 22.787932], [120.244498, 22.787586], [120.244348, 22.787397], [120.244707, 22.787575], [120.244755, 22.787486], [120.245175, 22.787587], [120.245249, 22.787536], [120.245264, 22.787708], [120.245363, 22.787735], [120.245502, 22.787455], [120.245401, 22.787185], [120.245532, 22.787133], [120.245488, 22.786898], [120.244863, 22.7869], [120.244777, 22.787139], [120.244817, 22.787315], [120.244999, 22.787124], [120.245168, 22.787369], [120.244913, 22.787816], [120.244734, 22.787777], [120.244818, 22.787604], [120.244778, 22.788432], [120.244817, 22.788499], [120.245009, 22.78835], [120.244977, 22.788532], [120.245898, 22.788601], [120.24604, 22.788674], [120.246194, 22.788325], [120.246063, 22.788172], [120.246233, 22.788072], [120.2465, 22.787353], [120.246356, 22.787285], [120.246225, 22.787433], [120.246088, 22.787356], [120.245921, 22.787389], [120.24592, 22.787298], [120.246115, 22.787142], [120.246372, 22.787117], [120.246515, 22.787007], [120.246617, 22.787045], [120.246606, 22.787191], [120.246749, 22.786893], [120.246675, 22.786837], [120.246329, 22.786905], [120.245699, 22.786869], [120.245744, 22.786664], [120.245836, 22.786673], [120.246075, 22.786147], [120.245876, 22.786079], [120.245793, 22.786241], [120.245642, 22.786257], [120.24566, 22.78641], [120.245636, 22.786201], [120.245472, 22.786193], [120.245461, 22.785948], [120.245682, 22.785671], [120.245301, 22.785536], [120.245139, 22.785813], [120.245301, 22.785832], [120.245147, 22.786085], [120.245286, 22.786164], [120.24543, 22.7864], [120.245311, 22.786661], [120.244708, 22.786734], [120.244772, 22.786379], [120.245647, 22.786048], [120.245817, 22.785782], [120.245958, 22.785917], [120.245893, 22.786046], [120.246059, 22.786526], [120.246164, 22.786484], [120.246244, 22.786663], [120.246823, 22.786661], [120.247076, 22.786952], [120.246958, 22.787126], [120.247154, 22.786994], [120.247636, 22.787471], [120.247448, 22.787588], [120.247275, 22.787509], [120.247063, 22.787782], [120.246902, 22.787682], [120.24699, 22.787501], [120.246959, 22.787355], [120.246823, 22.787408], [120.246611, 22.788368], [120.246374, 22.788534], [120.246301, 22.788728], [120.246659, 22.78878], [120.246552, 22.789047], [120.246446, 22.789028], [120.246714, 22.789068], [120.246535, 22.789223], [120.246514, 22.789342], [120.246694, 22.789389], [120.246699, 22.789508], [120.246853, 22.789407], [120.247196, 22.788887], [120.24703, 22.788676], [120.247557, 22.787954], [120.24739, 22.787761], [120.247185, 22.788061], [120.246895, 22.787948], [120.246866, 22.788117], [120.247065, 22.788215], [120.246775, 22.788622], [120.246815, 22.788335], [120.247106, 22.788152], [120.247583, 22.788457], [120.248113, 22.787822], [120.247755, 22.787533], [120.247349, 22.787367], [120.247268, 22.787445], [120.246173, 22.787669], [120.24609, 22.7879], [120.245867, 22.788085], [120.24579, 22.788269], [120.245633, 22.78807], [120.245355, 22.78808], [120.24542, 22.78834], [120.24516, 22.788058], [120.24517, 22.787933], [120.245754, 22.78752], [120.245971, 22.786663], [120.246156, 22.786694], [120.246385, 22.786549], [120.246454, 22.786383], [120.245343, 22.785464], [120.244706, 22.7869], [120.244496, 22.786904], [120.243886, 22.787973], [120.243635, 22.787871], [120.243709, 22.788024], [120.244226, 22.788282], [120.244151, 22.788385], [120.243986, 22.788388], [120.243793, 22.788724], [120.243624, 22.788683], [120.243593, 22.788971], [120.243474, 22.789061], [120.243424, 22.789297], [120.243494, 22.789497], [120.243409, 22.789687], [120.242984, 22.789745], [120.243299, 22.788673], [120.243167, 22.788121], [120.243306, 22.788003]]}}, {"type": "Feature", "properties": {"district": "6402800", "segment": 8, "total_segments": 10, "km": 9.98, "villages": ["鹽埕里"]}, "geometry": {"type": "LineString", "coordinates": [[120.244032, 22.788909], [120.244488, 22.788888], [120.2445, 22.789191], [120.244374, 22.789388], [120.244256, 22.789376], [120.244273, 22.789204], [120.24414, 22.789195], [120.244048, 22.78906], [120.24393, 22.789369], [120.243653, 22.78935], [120.243746, 22.789467], [120.244632, 22.789254], [120.244655, 22.789005], [120.24485, 22.788984], [120.244857, 22.789284], [120.245187, 22.789254], [120.245282, 22.789054], [120.245267, 22.788745], [120.245419, 22.788782], [120.245447, 22.788921], [120.245578, 22.788935], [120.245585, 22.788848], [120.245884, 22.788751], [120.245938, 22.788802], [120.245843, 22.789091], [120.245734, 22.788961], [120.245579, 22.789201], [120.245185, 22.789302], [120.245394, 22.789153], [120.245399, 22.789044], [120.245128, 22.788743], [120.24484, 22.788719], [120.244849, 22.788946], [120.245481, 22.789492], [120.245667, 22.789504], [120.24566, 22.789586], [120.245786, 22.789253], [120.24604, 22.789414], [120.246055, 22.790126], [120.245813, 22.790176], [120.24575, 22.790086], [120.246103, 22.789375], [120.246202, 22.788951], [120.246296, 22.789499], [120.246787, 22.79002], [120.246545, 22.790436], [120.2461, 22.790679], [120.24621, 22.791332], [120.245648, 22.791343], [120.24567, 22.791515], [120.245262, 22.79158], [120.245091, 22.791952], [120.245088, 22.792146], [120.24476, 22.791769], [120.244529, 22.790887], [120.245117, 22.790833], [120.245182, 22.790685], [120.245716, 22.790464], [120.246856, 22.790679], [120.247114, 22.791218], [120.246646, 22.792228], [120.246755, 22.792469], [120.245858, 22.792052], [120.245877, 22.791957], [120.245739, 22.79173], [120.24562, 22.792706], [120.244852, 22.792899], [120.244233, 22.792842], [120.24467, 22.793628], [120.244454, 22.793744], [120.243675, 22.793836], [120.242935, 22.793461], [120.24295, 22.793244], [120.242295, 22.792953], [120.2419, 22.792953], [120.241847, 22.792806], [120.241622, 22.792902], [120.241458, 22.792812], [120.241523, 22.792698], [120.241295, 22.793063], [120.241765, 22.793299], [120.24215, 22.793295], [120.242294, 22.793621], [120.241053, 22.793555], [120.24117, 22.793317], [120.240958, 22.793944], [120.2408, 22.794146], [120.2411, 22.794287], [120.241465, 22.794156], [120.242176, 22.794526], [120.242379, 22.794513], [120.242662, 22.794358], [120.242761, 22.794724], [120.243545, 22.794654], [120.243934, 22.794824], [120.245012, 22.794418], [120.245458, 22.794353], [120.245344, 22.793837], [120.246219, 22.793573], [120.246086, 22.794009], [120.24647, 22.794159], [120.24642, 22.794726], [120.247172, 22.79447], [120.247558, 22.793511], [120.248171, 22.793102], [120.24822, 22.792576], [120.247546, 22.792626], [120.247354, 22.793025], [120.24717, 22.792933], [120.246245, 22.792954], [120.246175, 22.793098], [120.248709, 22.793566], [120.249095, 22.793128], [120.24931, 22.793826], [120.249635, 22.794088], [120.249586, 22.79469], [120.250205, 22.794392], [120.25035, 22.795032], [120.250162, 22.795358], [120.250433, 22.795717], [120.250303, 22.796234], [120.249863, 22.796187], [120.251144, 22.795939], [120.252375, 22.795068], [120.251915, 22.794497], [120.251699, 22.79438], [120.251499, 22.794466], [120.251558, 22.79394], [120.251675, 22.793946], [120.25183, 22.793732], [120.250573, 22.793644], [120.253548, 22.794788], [120.254207, 22.794563], [120.254003, 22.79429], [120.254825, 22.79466], [120.255662, 22.794307], [120.248295, 22.796873], [120.24812, 22.796858], [120.247813, 22.796491], [120.24731, 22.796381], [120.247233, 22.796217], [120.246904, 22.796279], [120.246693, 22.795842], [120.247096, 22.795824], [120.247387, 22.79543], [120.247395, 22.79688], [120.24755, 22.79696], [120.24635, 22.796986], [120.245897, 22.795941], [120.242218, 22.791213], [120.242926, 22.790332], [120.242881, 22.790226], [120.243191, 22.789391], [120.244371, 22.788196]]}}, {"type": "Feature", "properties": {"district": "6402800", "segment": 9, "total_segments": 10, "km": 13.92, "villages": ["文安里"]}, "geometry": {"type": "LineString", "coordinates": [[120.241405, 22.791558], [120.240513, 22.793557], [120.240322, 22.794242], [120.240372, 22.794258], [120.239531, 22.794152], [120.239589, 22.793827], [120.239276, 22.794419], [120.238193, 22.794236], [120.238241, 22.794017], [120.2386, 22.794079], [120.23755, 22.794148], [120.23764, 22.794616], [120.237441, 22.794364], [120.23719, 22.794175], [120.237061, 22.79418], [120.235815, 22.794475], [120.235364, 22.794655], [120.235219, 22.794815], [120.235093, 22.794734], [120.23463, 22.794907], [120.234828, 22.795127], [120.234966, 22.795471], [120.235818, 22.795174], [120.235928, 22.79507], [120.236626, 22.794979], [120.236547, 22.794791], [120.236458, 22.794798], [120.236436, 22.79448], [120.236241, 22.794536], [120.236245, 22.794878], [120.235984, 22.794918], [120.235936, 22.794647], [120.235692, 22.795049], [120.23531, 22.795056], [120.23515, 22.795168], [120.234775, 22.794589], [120.234928, 22.794439], [120.234832, 22.79431], [120.235271, 22.794236], [120.235195, 22.794085], [120.235079, 22.794109], [120.234953, 22.793991], [120.234904, 22.79348], [120.235149, 22.793463], [120.235296, 22.793558], [120.235172, 22.793629], [120.23519, 22.793951], [120.235436, 22.793914], [120.23573, 22.794243], [120.235899, 22.794241], [120.235928, 22.79413], [120.236182, 22.79412], [120.235998, 22.793911], [120.235883, 22.793924], [120.235857, 22.794103], [120.235628, 22.794313], [120.235271, 22.794414], [120.235421, 22.793747], [120.235572, 22.793678], [120.236147, 22.793766], [120.23619, 22.793574], [120.236551, 22.793569], [120.236437, 22.79327], [120.236494, 22.792951], [120.236401, 22.792945], [120.236797, 22.793025], [120.236839, 22.792084], [120.236939, 22.79187], [120.236819, 22.791749], [120.236852, 22.79168], [120.237258, 22.791852], [120.237266, 22.792031], [120.237372, 22.792159], [120.237492, 22.792169], [120.237551, 22.791928], [120.237344, 22.791515], [120.237244, 22.792343], [120.237337, 22.792478], [120.237492, 22.792485], [120.237503, 22.792376], [120.237464, 22.792652], [120.237307, 22.792637], [120.237227, 22.792792], [120.237251, 22.793086], [120.236985, 22.792833], [120.236753, 22.793339], [120.236893, 22.793468], [120.236908, 22.793622], [120.237064, 22.793528], [120.237191, 22.79366], [120.237196, 22.793828], [120.237333, 22.793881], [120.236429, 22.793932], [120.236451, 22.793843], [120.23674, 22.79376], [120.2372, 22.793372], [120.237073, 22.793247], [120.237413, 22.793253], [120.237423, 22.793142], [120.237615, 22.79311], [120.237674, 22.792778], [120.237894, 22.792791], [120.237441, 22.792797], [120.237427, 22.793599], [120.237633, 22.793749], [120.236872, 22.79472], [120.236984, 22.794808], [120.237415, 22.794984], [120.237634, 22.794944], [120.237928, 22.79536], [120.238484, 22.795331], [120.2386, 22.794876], [120.239161, 22.795038], [120.239471, 22.794908], [120.239722, 22.794533], [120.24, 22.794682], [120.240214, 22.794574], [120.241069, 22.795492], [120.241354, 22.7955], [120.241855, 22.794959], [120.24225, 22.795351], [120.242588, 22.795362], [120.242523, 22.795075], [120.242795, 22.795069], [120.239375, 22.795382], [120.238248, 22.796176], [120.236477, 22.796169], [120.236387, 22.79609], [120.235904, 22.796252], [120.235839, 22.796547], [120.235637, 22.796904], [120.235379, 22.797071], [120.235338, 22.796595], [120.235186, 22.796666], [120.235201, 22.796843], [120.235079, 22.796837], [120.234973, 22.796715], [120.234792, 22.796763], [120.234551, 22.796656], [120.234229, 22.796866], [120.233758, 22.796903], [120.233939, 22.79705], [120.234104, 22.797647], [120.234249, 22.797629], [120.234599, 22.797503], [120.234506, 22.797128], [120.234444, 22.796981], [120.234064, 22.797075], [120.234135, 22.797269], [120.234317, 22.797243], [120.234382, 22.797372], [120.2342, 22.797466], [120.234794, 22.79738], [120.234771, 22.79721], [120.234884, 22.79703], [120.234855, 22.796962], [120.234688, 22.797054], [120.234611, 22.796912], [120.234728, 22.796574], [120.234912, 22.796531], [120.234854, 22.796331], [120.234012, 22.796693], [120.234027, 22.796488], [120.23448, 22.796292], [120.234527, 22.79602], [120.235198, 22.795768], [120.235159, 22.795629], [120.235345, 22.795603], [120.235291, 22.795428], [120.235462, 22.795369], [120.235519, 22.795547], [120.235768, 22.795664], [120.235689, 22.795826], [120.23614, 22.795646], [120.236047, 22.795309], [120.236329, 22.795192], [120.236495, 22.79525], [120.236597, 22.7954], [120.236515, 22.796758], [120.235145, 22.796196], [120.235204, 22.796027], [120.234854, 22.796076], [120.23513, 22.796454], [120.235125, 22.797009], [120.235197, 22.79702], [120.235132, 22.797222], [120.234963, 22.797311], [120.23494, 22.797157], [120.234227, 22.796179], [120.234012, 22.796259], [120.234354, 22.796079], [120.234509, 22.795345], [120.234522, 22.794708], [120.233712, 22.793694], [120.233517, 22.793788], [120.232936, 22.793358], [120.232942, 22.792519], [120.233821, 22.792041], [120.234907, 22.792931], [120.234851, 22.793179], [120.23494, 22.793288], [120.235428, 22.793206], [120.235436, 22.793395], [120.235566, 22.793362], [120.235573, 22.793512], [120.23572, 22.793528], [120.23599, 22.793507], [120.236114, 22.793369], [120.236208, 22.79337], [120.236156, 22.793165], [120.235776, 22.793285], [120.235749, 22.793355], [120.235756, 22.793133], [120.235661, 22.793137], [120.235719, 22.792962], [120.235683, 22.792316], [120.235913, 22.792524], [120.235969, 22.792711], [120.235819, 22.792714], [120.235843, 22.792914], [120.235937, 22.792915], [120.235528, 22.792806], [120.235315, 22.792832], [120.235492, 22.793006], [120.235106, 22.793128], [120.234824, 22.793364], [120.235423, 22.792521], [120.236375, 22.792121], [120.236534, 22.792114], [120.236608, 22.792286], [120.236477, 22.792613], [120.23655, 22.792761], [120.238489, 22.792171], [120.235143, 22.790726], [120.230297, 22.793022], [120.233384, 22.795614], [120.237295, 22.798207], [120.226218, 22.788906], [120.221193, 22.791642]]}}, {"type": "Feature", "properties": {"district": "6402800", "segment": 10, "total_segments": 10, "km": 12.39, "villages": ["舊港里"]}, "geometry": {"type": "LineString", "coordinates": [[120.220558, 22.792536], [120.221462, 22.794615], [120.221337, 22.795858], [120.22189, 22.795996], [120.222082, 22.797165], [120.221439, 22.797783], [120.220321, 22.796914], [120.2207, 22.796599], [120.219266, 22.796217], [120.219247, 22.795675], [120.219476, 22.79501], [120.218412, 22.797732], [120.218597, 22.798379], [120.223213, 22.79614], [120.223686, 22.796209], [120.225732, 22.794826], [120.227922, 22.795685], [120.229293, 22.797865], [120.22962, 22.797847], [120.229642, 22.797962], [120.229834, 22.797885], [120.229743, 22.797639], [120.230006, 22.797698], [120.230107, 22.797829], [120.230106, 22.798033], [120.230232, 22.798137], [120.230188, 22.798215], [120.230326, 22.798331], [120.230555, 22.798771], [120.230466, 22.798845], [120.230567, 22.798945], [120.230631, 22.798916], [120.230621, 22.799058], [120.230998, 22.799776], [120.230438, 22.799953], [120.23038, 22.799741], [120.230667, 22.799672], [120.230655, 22.799548], [120.230477, 22.799586], [120.23025, 22.799221], [120.230245, 22.799064], [120.230388, 22.799012], [120.230588, 22.799383], [120.230254, 22.799608], [120.230164, 22.799411], [120.230062, 22.799443], [120.230192, 22.799806], [120.229645, 22.800031], [120.229334, 22.800047], [120.229251, 22.799767], [120.229314, 22.799651], [120.22949, 22.799677], [120.229444, 22.7998], [120.229793, 22.799798], [120.22991, 22.800159], [120.229976, 22.800142], [120.229748, 22.80023], [120.229901, 22.800366], [120.22986, 22.800655], [120.229959, 22.800983], [120.230095, 22.80096], [120.229794, 22.800952], [120.22966, 22.800746], [120.22945, 22.800841], [120.229296, 22.800523], [120.229385, 22.800455], [120.229567, 22.800441], [120.229596, 22.800499], [120.229513, 22.800274], [120.229172, 22.800296], [120.228959, 22.800605], [120.228834, 22.800598], [120.22878, 22.800675], [120.228812, 22.800862], [120.228315, 22.800986], [120.228083, 22.801327], [120.227888, 22.801099], [120.227815, 22.800843], [120.227494, 22.800934], [120.228834, 22.800391], [120.229058, 22.800731], [120.229036, 22.800912], [120.229252, 22.800879], [120.229304, 22.801047], [120.228774, 22.801111], [120.228603, 22.800774], [120.228547, 22.800794], [120.2298, 22.80113], [120.229826, 22.801309], [120.229643, 22.801404], [120.229487, 22.801349], [120.230022, 22.801513], [120.230778, 22.801979], [120.230449, 22.802595], [120.231012, 22.801496], [120.231113, 22.799736], [120.231538, 22.799763], [120.231588, 22.799574], [120.231919, 22.799472], [120.231755, 22.799326], [120.231539, 22.799365], [120.231262, 22.798676], [120.23098, 22.798313], [120.230644, 22.798437], [120.230692, 22.798527], [120.230624, 22.798571], [120.230764, 22.79866], [120.230837, 22.798951], [120.230885, 22.798921], [120.231107, 22.799195], [120.231049, 22.799249], [120.23118, 22.799334], [120.231166, 22.798975], [120.230974, 22.798916], [120.231023, 22.798737], [120.230747, 22.798231], [120.23117, 22.798056], [120.231095, 22.797937], [120.230761, 22.798053], [120.230703, 22.797874], [120.230752, 22.797798], [120.231244, 22.797733], [120.231434, 22.798116], [120.231246, 22.798197], [120.231242, 22.798314], [120.231512, 22.798295], [120.231477, 22.798216], [120.231718, 22.798838], [120.231575, 22.798909], [120.231534, 22.798829], [120.231598, 22.798954], [120.231922, 22.798885], [120.231362, 22.798468], [120.230555, 22.798365], [120.230438, 22.798124], [120.230562, 22.798091], [120.230375, 22.797853], [120.230546, 22.797504], [120.230638, 22.797466], [120.230804, 22.797508], [120.230884, 22.797632], [120.231022, 22.797598], [120.230915, 22.797399], [120.230992, 22.797289], [120.230704, 22.797288], [120.230886, 22.797161], [120.230715, 22.796932], [120.230353, 22.797287], [120.230287, 22.797454], [120.230169, 22.797477], [120.230321, 22.797142], [120.230504, 22.796795], [120.231308, 22.79682], [120.232583, 22.796041], [120.232647, 22.796235], [120.232289, 22.796441], [120.232112, 22.796418], [120.231917, 22.796565], [120.232049, 22.796755], [120.23184, 22.796821], [120.231865, 22.796896], [120.231738, 22.796665], [120.231631, 22.797237], [120.231274, 22.797509], [120.231609, 22.797754], [120.232518, 22.796914], [120.232389, 22.796773], [120.232529, 22.796781], [120.232872, 22.796576], [120.232754, 22.796467], [120.232461, 22.796617], [120.232702, 22.79703], [120.233077, 22.796797], [120.232054, 22.795945], [120.233191, 22.795234], [120.233945, 22.79495], [120.230198, 22.793246], [120.229847, 22.79792], [120.229915, 22.798203], [120.230015, 22.798174], [120.23002, 22.79837], [120.229888, 22.798418], [120.22999, 22.798642], [120.229785, 22.798773], [120.229924, 22.799019], [120.22985, 22.799134], [120.229709, 22.799055], [120.229691, 22.798932], [120.229547, 22.798844], [120.229447, 22.798643], [120.229519, 22.798511], [120.229474, 22.798377], [120.229693, 22.798369], [120.229795, 22.798288], [120.229678, 22.798505], [120.229742, 22.798612], [120.22961, 22.798641], [120.230184, 22.798746], [120.230309, 22.798895], [120.230135, 22.798959], [120.229937, 22.799409], [120.229611, 22.799191], [120.230139, 22.798471], [120.229506, 22.798128], [120.228138, 22.799147], [120.227408, 22.798114], [120.226435, 22.801589], [120.226235, 22.801713], [120.227305, 22.802249], [120.225727, 22.803257], [120.222418, 22.802106], [120.219901, 22.803126], [120.217233, 22.803372]]}}]}