{"type": "FeatureCollection", "features": [{"type": "Feature", "properties": {"district": "65000190", "segment": 1, "total_segments": 12, "km": 14.53, "villages": ["中民里"]}, "geometry": {"type": "LineString", "coordinates": [[121.675201, 25.013432], [121.675223, 25.013483], [121.675522, 25.012783], [121.675675, 25.012748], [121.675767, 25.012622], [121.676002, 25.012594], [121.675724, 25.012917], [121.675846, 25.01324], [121.675672, 25.013328], [121.675687, 25.013518], [121.675562, 25.013717], [121.675238, 25.013845], [121.675167, 25.014021], [121.674692, 25.013577], [121.673503, 25.013495], [121.673078, 25.01383], [121.673175, 25.013932], [121.673231, 25.014398], [121.673116, 25.014518], [121.673232, 25.014635], [121.672859, 25.014371], [121.673572, 25.014718], [121.67369, 25.014662], [121.675413, 25.012513], [121.676096, 25.012125], [121.676138, 25.011983], [121.676069, 25.011913], [121.677563, 25.011346], [121.677779, 25.01151], [121.677578, 25.011597], [121.677598, 25.011731], [121.677328, 25.011658], [121.677672, 25.011925], [121.677864, 25.011741], [121.678085, 25.011715], [121.67813, 25.011608], [121.678326, 25.011624], [121.678258, 25.010871], [121.67838, 25.010801], [121.678157, 25.01076], [121.678409, 25.010377], [121.678484, 25.010383], [121.678066, 25.010264], [121.678686, 25.010797], [121.678761, 25.010742], [121.680039, 25.010749], [121.679304, 25.012594], [121.676256, 25.010623], [121.67535, 25.010802], [121.675216, 25.010923], [121.674351, 25.009744], [121.672562, 25.008576], [121.672614, 25.00854], [121.672549, 25.008437], [121.672661, 25.008259], [121.672645, 25.007644], [121.672447, 25.007823], [121.672822, 25.007853], [121.672935, 25.008474], [121.673237, 25.008341], [121.672299, 25.008431], [121.671897, 25.00936], [121.671969, 25.009421], [121.671888, 25.009756], [121.671985, 25.009787], [121.6712, 25.010082], [121.670844, 25.009782], [121.671457, 25.009202], [121.672376, 25.010688], [121.672205, 25.010818], [121.671494, 25.010909], [121.67157, 25.011157], [121.671858, 25.011183], [121.671349, 25.010779], [121.67263, 25.011227], [121.672618, 25.011543], [121.672932, 25.011755], [121.672841, 25.011964], [121.672926, 25.012058], [121.673224, 25.011507], [121.670068, 25.008593], [121.669589, 25.008743], [121.667613, 25.007724], [121.667507, 25.007561], [121.667385, 25.007614], [121.667412, 25.007915], [121.667188, 25.007999], [121.667221, 25.008102], [121.667064, 25.008177], [121.666798, 25.008003], [121.666265, 25.009099], [121.666581, 25.00665], [121.66714, 25.005771], [121.667657, 25.005614], [121.668059, 25.005318], [121.670094, 25.004864], [121.670232, 25.005403], [121.670463, 25.005284], [121.670671, 25.005469], [121.670563, 25.005548], [121.670671, 25.005597], [121.671177, 25.005559], [121.67118, 25.005308], [121.671767, 25.005357], [121.671828, 25.006003], [121.672325, 25.006506], [121.672392, 25.006873], [121.672208, 25.006887], [121.672151, 25.006695], [121.672775, 25.007395], [121.672935, 25.006942], [121.672554, 25.005626], [121.677797, 25.007964], [121.678295, 25.007653], [121.678676, 25.007708], [121.679213, 25.007662], [121.68425, 25.008929], [121.684322, 25.009019], [121.684479, 25.008729], [121.678205, 25.00271], [121.678396, 25.002473], [121.678163, 25.002232], [121.677887, 25.002391], [121.678632, 25.000527], [121.678252, 25.000316], [121.679675, 25.000683], [121.68062, 25.00036], [121.681282, 24.99984], [121.679885, 25.001323], [121.663085, 25.009287], [121.664969, 25.016492], [121.663082, 25.017539], [121.662944, 25.017549], [121.667335, 25.019885], [121.66772, 25.019055], [121.667868, 25.01894], [121.673012, 25.017527], [121.672993, 25.01742]]}}, {"type": "Feature", "properties": {"district": "65000190", "segment": 2, "total_segments": 12, "km": 9.8, "villages": ["永定里"]}, "geometry": {"type": "LineString", "coordinates": [[121.68364, 25.010104], [121.68452, 25.009405], [121.684402, 25.009023], [121.684333, 25.009002], [121.686725, 25.010609], [121.687768, 25.009164], [121.688007, 25.007795], [121.68795, 25.006948], [121.691061, 25.008227], [121.691905, 25.008151], [121.692495, 25.008536], [121.693074, 25.006762], [121.692837, 25.006666], [121.692931, 25.006565], [121.692907, 25.006435], [121.69263, 25.00645], [121.692515, 25.006352], [121.692409, 25.006365], [121.691984, 25.006069], [121.691876, 25.005754], [121.691715, 25.005799], [121.692064, 25.005675], [121.691497, 25.005058], [121.692114, 25.004736], [121.691739, 25.004429], [121.691661, 25.00391], [121.690956, 25.004363], [121.690592, 25.004173], [121.690264, 25.003446], [121.687189, 25.00045], [121.686519, 24.999985], [121.68662, 24.99981], [121.69346, 25.006738], [121.693988, 25.006913], [121.694054, 25.007065], [121.694387, 25.007098], [121.694476, 25.006972], [121.694864, 25.006989], [121.694841, 25.007107], [121.694942, 25.007107], [121.694739, 25.007106], [121.694984, 25.007322], [121.69517, 25.007089], [121.696433, 25.006611], [121.696747, 25.00662], [121.697432, 25.006864], [121.697475, 25.006916], [121.697229, 25.007597], [121.696864, 25.007537], [121.697548, 25.007865], [121.697549, 25.008033], [121.698689, 25.008063], [121.701143, 25.010795], [121.700663, 25.014123], [121.698689, 25.014666], [121.698767, 25.015044], [121.698735, 25.01546], [121.698982, 25.015937], [121.698958, 25.016361], [121.69879, 25.016373], [121.698797, 25.017009], [121.698978, 25.017075], [121.699147, 25.016926], [121.698748, 25.017209], [121.698714, 25.017353], [121.698055, 25.017429], [121.698046, 25.017247], [121.697901, 25.017131], [121.698107, 25.017076], [121.698152, 25.016967], [121.697655, 25.017416], [121.697793, 25.017541], [121.697202, 25.016789], [121.69524, 25.016594], [121.6941, 25.017107], [121.689079, 25.016147], [121.690887, 25.013284], [121.70065, 25.017684], [121.700924, 25.017947], [121.700857, 25.0181], [121.701057, 25.017676], [121.705263, 25.016292], [121.704559, 25.013228], [121.704308, 25.01294], [121.704054, 25.013073]]}}, {"type": "Feature", "properties": {"district": "65000190", "segment": 3, "total_segments": 12, "km": 14.91, "villages": ["光明里"]}, "geometry": {"type": "LineString", "coordinates": [[121.69708, 25.019267], [121.695244, 25.022187], [121.69528, 25.022707], [121.695203, 25.022926], [121.695447, 25.023649], [121.695158, 25.024001], [121.696079, 25.024107], [121.696107, 25.024258], [121.696505, 25.024649], [121.694759, 25.025234], [121.694556, 25.025134], [121.694434, 25.025274], [121.693624, 25.028395], [121.693809, 25.028542], [121.691514, 25.031038], [121.69239, 25.033397], [121.691967, 25.033525], [121.691392, 25.035731], [121.692179, 25.036763], [121.691984, 25.03722], [121.692242, 25.03832], [121.691665, 25.038712], [121.68884, 25.037828], [121.689101, 25.037143], [121.687735, 25.037112], [121.687695, 25.037007], [121.686806, 25.036318], [121.686499, 25.037314], [121.685037, 25.036289], [121.686479, 25.035125], [121.685328, 25.031275], [121.681906, 25.033524], [121.681528, 25.034125], [121.681066, 25.035938], [121.679712, 25.035336], [121.67912, 25.035159], [121.679273, 25.035658], [121.67839, 25.034585], [121.67821, 25.034059], [121.674803, 25.033886], [121.674618, 25.033624], [121.674045, 25.033381], [121.673358, 25.030078], [121.67033, 25.028774], [121.670345, 25.028641], [121.669858, 25.028894], [121.667984, 25.031742], [121.66817, 25.032239], [121.668974, 25.032799], [121.66727, 25.031132], [121.665959, 25.030904], [121.666071, 25.027955], [121.671762, 25.024769], [121.671311, 25.022258], [121.673365, 25.020153], [121.673864, 25.01898], [121.673835, 25.018888], [121.673506, 25.018693], [121.674885, 25.019575], [121.675344, 25.020547], [121.674906, 25.021077], [121.675192, 25.021237], [121.6753, 25.021521], [121.674552, 25.020849], [121.677082, 25.021711], [121.678704, 25.023467], [121.678538, 25.023698], [121.678161, 25.023745], [121.679068, 25.023542], [121.680201, 25.023827], [121.680343, 25.024066], [121.680265, 25.025058], [121.679494, 25.025486], [121.678561, 25.025358], [121.678445, 25.025422], [121.678441, 25.025517], [121.678124, 25.025552], [121.677855, 25.025697], [121.67756, 25.025515], [121.677425, 25.025598], [121.6784, 25.026026], [121.678625, 25.026267], [121.678429, 25.026344], [121.678306, 25.02656], [121.677047, 25.027738], [121.679918, 25.027307], [121.681276, 25.027591], [121.680472, 25.028606], [121.680612, 25.031813], [121.684914, 25.024066], [121.676897, 25.018287], [121.676716, 25.018224], [121.676969, 25.018044], [121.676044, 25.018123], [121.673902, 25.017012]]}}, {"type": "Feature", "properties": {"district": "65000190", "segment": 4, "total_segments": 12, "km": 10.02, "villages": ["隆盛里"]}, "geometry": {"type": "LineString", "coordinates": [[121.666323, 25.006785], [121.665332, 25.006587], [121.664717, 25.006582], [121.664786, 25.006832], [121.664947, 25.007019], [121.664724, 25.007119], [121.664186, 25.007143], [121.664079, 25.00729], [121.663745, 25.007365], [121.664172, 25.006874], [121.665268, 25.007094], [121.665202, 25.006946], [121.66293, 25.007307], [121.662693, 25.007242], [121.662657, 25.007061], [121.662301, 25.007097], [121.661892, 25.007218], [121.661792, 25.00751], [121.657893, 25.007861], [121.657814, 25.006711], [121.656088, 25.006038], [121.656152, 25.007921], [121.653467, 25.00717], [121.652546, 25.007354], [121.65202, 25.00713], [121.651962, 25.007016], [121.652152, 25.006842], [121.652146, 25.006685], [121.651493, 25.006215], [121.651442, 25.006049], [121.651525, 25.00587], [121.651303, 25.007663], [121.650449, 25.008293], [121.649807, 25.00842], [121.647963, 25.010181], [121.647853, 25.010257], [121.647774, 25.010211], [121.648023, 25.01044], [121.647505, 25.010506], [121.647619, 25.010798], [121.647419, 25.010965], [121.647235, 25.010861], [121.64728, 25.010807], [121.646841, 25.011281], [121.64666, 25.011288], [121.646491, 25.011444], [121.646574, 25.011608], [121.647068, 25.011293], [121.64573, 25.011949], [121.644986, 25.013121], [121.644949, 25.014832], [121.646178, 25.015623], [121.646363, 25.015306], [121.645161, 25.017515], [121.644887, 25.017204], [121.644597, 25.017466], [121.643924, 25.019187], [121.648299, 25.021531], [121.652023, 25.020778], [121.652165, 25.021382], [121.652522, 25.021415], [121.652622, 25.021127], [121.650844, 25.016386], [121.650971, 25.016298], [121.64288, 25.014292], [121.642781, 25.01433], [121.642775, 25.013334], [121.641959, 25.012673], [121.642059, 25.011856], [121.642218, 25.011572], [121.642023, 25.011451], [121.642094, 25.011353], [121.641984, 25.011276], [121.642946, 25.011823], [121.643083, 25.012123], [121.642281, 25.01161], [121.641126, 25.011821], [121.641312, 25.011278], [121.660522, 25.013466]]}}, {"type": "Feature", "properties": {"district": "65000190", "segment": 5, "total_segments": 12, "km": 14.86, "villages": ["豐林里", "石碇里", "潭邊里"]}, "geometry": {"type": "LineString", "coordinates": [[121.647009, 25.008104], [121.646294, 25.008631], [121.645396, 25.008922], [121.644904, 25.008263], [121.644722, 25.008185], [121.644958, 25.008011], [121.644043, 25.008827], [121.643648, 25.00936], [121.643954, 25.0099], [121.643231, 25.010085], [121.641982, 25.010043], [121.642942, 25.008467], [121.643038, 25.008083], [121.642516, 25.007254], [121.642148, 25.007455], [121.644813, 25.010466], [121.644686, 25.010773], [121.65538, 24.991304], [121.655968, 24.991082], [121.657981, 24.990706], [121.658653, 24.990653], [121.65861, 24.990793], [121.658218, 24.990795], [121.658813, 24.990851], [121.658843, 24.990795], [121.658927, 24.990922], [121.659299, 24.990962], [121.659316, 24.990873], [121.659173, 24.990826], [121.659123, 24.99072], [121.659243, 24.990578], [121.659626, 24.990491], [121.659789, 24.990806], [121.659743, 24.991044], [121.660181, 24.991137], [121.660131, 24.99098], [121.660343, 24.990851], [121.661509, 24.990537], [121.661619, 24.990404], [121.661865, 24.990526], [121.662014, 24.99043], [121.661844, 24.990282], [121.662247, 24.990217], [121.662442, 24.990072], [121.660045, 24.991029], [121.659356, 24.989931], [121.659192, 24.989247], [121.658989, 24.988877], [121.658304, 24.988226], [121.658955, 24.990263], [121.658651, 24.991257], [121.657894, 24.99132], [121.657929, 24.991504], [121.658214, 24.991517], [121.65761, 24.991349], [121.657461, 24.991572], [121.657218, 24.991404], [121.656937, 24.991414], [121.655893, 24.991637], [121.655389, 24.991773], [121.655155, 24.992023], [121.654597, 24.992225], [121.653734, 24.991907], [121.655172, 24.994194], [121.657504, 24.993869], [121.657962, 24.994238], [121.658174, 24.994001], [121.657959, 24.993947], [121.657413, 24.993132], [121.657762, 24.992964], [121.657469, 24.992743], [121.659398, 24.991506], [121.659651, 24.991517], [121.659453, 24.991417], [121.659639, 24.991635], [121.659787, 24.991633], [121.660291, 24.991421], [121.660366, 24.991354], [121.660285, 24.991316], [121.660345, 24.991241], [121.660706, 24.991216], [121.660898, 24.991385], [121.659803, 24.991475], [121.662269, 24.990662], [121.663498, 24.989136], [121.664605, 24.988011], [121.665032, 24.988342], [121.665121, 24.987656], [121.66484, 24.987266], [121.666287, 24.986415], [121.666373, 24.986322], [121.666345, 24.986084], [121.66663, 24.9856], [121.667329, 24.984794], [121.671116, 24.98232], [121.671447, 24.982035], [121.674824, 24.981246], [121.674691, 24.980893], [121.674254, 24.980698], [121.675261, 24.980118], [121.675408, 24.980416], [121.679141, 24.983419], [121.679685, 24.983223], [121.679705, 24.983045], [121.681351, 24.983116], [121.681712, 24.981388], [121.687842, 24.985129], [121.666423, 24.993958], [121.663713, 24.993168], [121.6637, 24.992914]]}}, {"type": "Feature", "properties": {"district": "65000190", "segment": 6, "total_segments": 12, "km": 14.87, "villages": ["潭邊里", "豐田里"]}, "geometry": {"type": "LineString", "coordinates": [[121.658901, 24.995856], [121.653752, 24.996766], [121.653666, 24.997435], [121.653399, 24.997566], [121.653282, 24.997761], [121.652906, 24.998048], [121.652918, 24.998461], [121.653264, 24.998301], [121.65065, 24.999003], [121.648869, 24.998186], [121.651211, 24.994337], [121.642768, 24.99346], [121.675251, 24.97835], [121.675294, 24.978415], [121.675408, 24.978313], [121.67524, 24.978257], [121.675216, 24.978061], [121.675421, 24.977963], [121.675305, 24.977819], [121.675411, 24.977546], [121.680069, 24.975631], [121.680653, 24.976203], [121.680836, 24.976136], [121.681148, 24.976511], [121.68173, 24.976127], [121.682021, 24.976077], [121.683676, 24.976416], [121.684026, 24.97638], [121.684511, 24.976269], [121.685153, 24.975836], [121.685218, 24.976845], [121.686448, 24.9778], [121.68638, 24.978248], [121.686216, 24.975514], [121.686562, 24.975292], [121.687173, 24.974076], [121.687322, 24.974043], [121.687219, 24.973798], [121.687378, 24.973747], [121.68727, 24.973571], [121.686904, 24.973771], [121.687065, 24.97314], [121.686948, 24.972509], [121.684259, 24.972171], [121.684533, 24.971625], [121.684183, 24.971254], [121.683136, 24.970702], [121.68346, 24.970231], [121.683277, 24.970048], [121.683733, 24.970333], [121.68287, 24.97227], [121.683465, 24.972637], [121.690497, 24.971302], [121.689586, 24.968257], [121.691658, 24.967363], [121.69217, 24.966856], [121.691569, 24.965705], [121.691427, 24.96563], [121.69107, 24.965701], [121.691023, 24.964773], [121.691516, 24.96442], [121.688813, 24.965242], [121.688812, 24.965318], [121.695157, 24.966252], [121.695241, 24.966117], [121.700381, 24.973996], [121.700528, 24.974678], [121.700666, 24.974772], [121.700098, 24.974986], [121.700959, 24.975764], [121.70089, 24.975912], [121.701102, 24.975609], [121.701475, 24.976456], [121.70123, 24.976532], [121.701553, 24.977161], [121.700169, 24.97701], [121.698457, 24.977133], [121.698163, 24.97658], [121.698064, 24.979627], [121.698329, 24.980525], [121.699793, 24.981404]]}}, {"type": "Feature", "properties": {"district": "65000190", "segment": 7, "total_segments": 12, "km": 14.77, "villages": ["豐田里", "彭山里"]}, "geometry": {"type": "LineString", "coordinates": [[121.692105, 24.980019], [121.691368, 24.977811], [121.691634, 24.977593], [121.691849, 24.977571], [121.698343, 24.989485], [121.713005, 24.994759], [121.713102, 24.996798], [121.719096, 24.997877], [121.720049, 24.997593], [121.683876, 24.967801], [121.683085, 24.96754], [121.682619, 24.967474], [121.682869, 24.966943], [121.683086, 24.966167], [121.682139, 24.966718], [121.681505, 24.967819], [121.680904, 24.968624], [121.680057, 24.968322], [121.679989, 24.969088], [121.678484, 24.969682], [121.678195, 24.969528], [121.67779, 24.969591], [121.678633, 24.970426], [121.678667, 24.970954], [121.67678, 24.968823], [121.676743, 24.967436], [121.675293, 24.966837], [121.674764, 24.967199], [121.677094, 24.965244], [121.677834, 24.964346], [121.67752, 24.964084], [121.676819, 24.96273], [121.675334, 24.960792], [121.675149, 24.958573], [121.680165, 24.962699], [121.681296, 24.961834], [121.680432, 24.96464], [121.679426, 24.965177], [121.680339, 24.966724], [121.685329, 24.965968], [121.685661, 24.965025], [121.685568, 24.964766], [121.685601, 24.964626], [121.685862, 24.965095], [121.684176, 24.963671]]}}, {"type": "Feature", "properties": {"district": "65000190", "segment": 8, "total_segments": 12, "km": 14.35, "villages": ["彭山里", "烏塗里"]}, "geometry": {"type": "LineString", "coordinates": [[121.685383, 24.961592], [121.683996, 24.959329], [121.67429, 24.971923], [121.674418, 24.972428], [121.676441, 24.976628], [121.676323, 24.976734], [121.668368, 24.963674], [121.668346, 24.963569], [121.667129, 24.962827], [121.666956, 24.961829], [121.667616, 24.961567], [121.666042, 24.963153], [121.666134, 24.963773], [121.666003, 24.964538], [121.66652, 24.963692], [121.664741, 24.96284], [121.664508, 24.961313], [121.663378, 24.961382], [121.66348, 24.961572], [121.663326, 24.961221], [121.66298, 24.962136], [121.662635, 24.962458], [121.662329, 24.961879], [121.663078, 24.963766], [121.659224, 24.969846], [121.658971, 24.971264], [121.660586, 24.971612], [121.661126, 24.970882], [121.656823, 24.971671], [121.656764, 24.971952], [121.65626, 24.972023], [121.654704, 24.971344], [121.655627, 24.973513], [121.655529, 24.97425], [121.655595, 24.974565], [121.655901, 24.97494], [121.654913, 24.974421], [121.657169, 24.97501], [121.658073, 24.978361], [121.652729, 24.978017], [121.659958, 24.982946], [121.647171, 24.967936], [121.646046, 24.96575], [121.645778, 24.965628], [121.637789, 24.971736], [121.637648, 24.972664], [121.637817, 24.972808], [121.637819, 24.973134], [121.637484, 24.973923], [121.637711, 24.974023]]}}, {"type": "Feature", "properties": {"district": "65000190", "segment": 9, "total_segments": 12, "km": 14.31, "villages": ["烏塗里", "永安里"]}, "geometry": {"type": "LineString", "coordinates": [[121.632564, 24.97048], [121.633093, 24.968962], [121.630373, 24.968382], [121.659932, 24.956568], [121.660409, 24.956176], [121.661531, 24.956549], [121.665443, 24.948048], [121.663547, 24.943748], [121.663081, 24.94338], [121.663089, 24.941909], [121.659095, 24.937883], [121.660128, 24.935785], [121.661204, 24.935956], [121.661097, 24.934712], [121.660298, 24.933947], [121.660313, 24.93385], [121.661435, 24.933381], [121.652572, 24.935038], [121.652437, 24.935162], [121.652385, 24.935113], [121.652579, 24.935284], [121.652037, 24.935018], [121.651783, 24.934668], [121.650714, 24.93432], [121.650606, 24.934402], [121.650429, 24.934208], [121.650174, 24.934119], [121.65069, 24.933861], [121.649422, 24.933849], [121.648301, 24.935067], [121.646244, 24.934201], [121.646053, 24.936581], [121.643667, 24.932979], [121.642473, 24.932301], [121.640203, 24.932701], [121.637681, 24.930881], [121.637944, 24.930573], [121.638318, 24.930316], [121.639049, 24.939614], [121.639681, 24.939819], [121.640847, 24.941585], [121.641975, 24.939726], [121.642853, 24.945666], [121.64714, 24.945128], [121.647511, 24.944946], [121.647493, 24.945408], [121.64816, 24.946312], [121.658263, 24.947226]]}}, {"type": "Feature", "properties": {"district": "65000190", "segment": 10, "total_segments": 12, "km": 8.99, "villages": ["永安里", "格頭里"]}, "geometry": {"type": "LineString", "coordinates": [[121.651845, 24.92515], [121.58878, 24.89609], [121.573699, 24.905676]]}}, {"type": "Feature", "properties": {"district": "65000190", "segment": 11, "total_segments": 12, "km": 14.78, "villages": ["格頭里"]}, "geometry": {"type": "LineString", "coordinates": [[121.625549, 24.938997], [121.625815, 24.939021], [121.625168, 24.93953], [121.625204, 24.939764], [121.625115, 24.939782], [121.627289, 24.939223], [121.627251, 24.939088], [121.627549, 24.939249], [121.627417, 24.939434], [121.627281, 24.938208], [121.627403, 24.938112], [121.625567, 24.942773], [121.628786, 24.946214], [121.63081, 24.948786], [121.630779, 24.948872], [121.632164, 24.951517], [121.632059, 24.95159], [121.632034, 24.951754], [121.632337, 24.951918], [121.632088, 24.951975], [121.631814, 24.951644], [121.631661, 24.951622], [121.631347, 24.951845], [121.630991, 24.952203], [121.630976, 24.952301], [121.630885, 24.952296], [121.630569, 24.953331], [121.629911, 24.953397], [121.632287, 24.952426], [121.632491, 24.952256], [121.632976, 24.952741], [121.633379, 24.952867], [121.633467, 24.954068], [121.633463, 24.955781], [121.633572, 24.955824], [121.631021, 24.956598], [121.633574, 24.959698], [121.636992, 24.956874], [121.637041, 24.956075], [121.636899, 24.95561], [121.636931, 24.955368], [121.637641, 24.954314], [121.638769, 24.954925], [121.638874, 24.954872], [121.638842, 24.955188], [121.63916, 24.955099], [121.639878, 24.955179], [121.639926, 24.954279], [121.638375, 24.95374], [121.63832, 24.953786], [121.638024, 24.953017], [121.638063, 24.952942], [121.637192, 24.953129], [121.636499, 24.954], [121.635656, 24.954048], [121.635541, 24.953613], [121.638445, 24.955594], [121.638523, 24.95731], [121.638584, 24.95743], [121.640764, 24.957488], [121.642584, 24.956088], [121.642331, 24.955668], [121.643404, 24.956009], [121.643982, 24.956361], [121.645223, 24.956475], [121.645825, 24.957017], [121.647065, 24.956514], [121.647374, 24.956587], [121.647875, 24.956755], [121.647947, 24.957199], [121.648224, 24.956338], [121.64907, 24.95511], [121.650912, 24.956502], [121.651099, 24.956448], [121.652335, 24.959034], [121.653015, 24.959582], [121.652893, 24.959878], [121.65246, 24.960488], [121.651573, 24.962258], [121.648632, 24.964764], [121.648155, 24.959454], [121.647363, 24.95871], [121.64714, 24.958687], [121.647173, 24.958838], [121.645667, 24.958583], [121.645989, 24.955893], [121.647371, 24.952916], [121.646618, 24.951771], [121.645995, 24.951949], [121.645632, 24.952168], [121.644714, 24.952523], [121.644738, 24.952601], [121.644146, 24.952689], [121.640787, 24.954199], [121.639229, 24.952434], [121.639093, 24.952152], [121.639262, 24.951854], [121.63942, 24.951774], [121.640425, 24.951766], [121.635474, 24.94821], [121.634328, 24.950067], [121.634415, 24.944446], [121.632618, 24.942149], [121.632914, 24.94193], [121.632844, 24.940668], [121.632673, 24.940582], [121.632926, 24.940432], [121.635067, 24.936471]]}}, {"type": "Feature", "properties": {"district": "65000190", "segment": 12, "total_segments": 12, "km": 10.44, "villages": ["格頭里"]}, "geometry": {"type": "LineString", "coordinates": [[121.635795, 24.932687], [121.635866, 24.932668], [121.635835, 24.93244], [121.635579, 24.932472], [121.63608, 24.932399], [121.636183, 24.932528], [121.636115, 24.932595], [121.638809, 24.940568], [121.637439, 24.942983], [121.637668, 24.943065], [121.623274, 24.949477], [121.6215, 24.949699], [121.625204, 24.954645], [121.62497, 24.954879], [121.625622, 24.955094], [121.626446, 24.955637], [121.626548, 24.955795], [121.625363, 24.956216], [121.625229, 24.956341], [121.624083, 24.956144], [121.622973, 24.957969], [121.623048, 24.958233], [121.621248, 24.959347], [121.621289, 24.959418], [121.620136, 24.958966], [121.61959, 24.959442], [121.619387, 24.957792], [121.618404, 24.95734], [121.617316, 24.959083], [121.616668, 24.958911], [121.61668, 24.958733], [121.616363, 24.958842], [121.616949, 24.959733], [121.617078, 24.959732], [121.617885, 24.960293], [121.615538, 24.960894], [121.615053, 24.961103], [121.615007, 24.960665], [121.614406, 24.961126], [121.614483, 24.961619], [121.614822, 24.961552], [121.615412, 24.961752], [121.614901, 24.959031], [121.611807, 24.957645], [121.610898, 24.958898], [121.609897, 24.959289], [121.610377, 24.962251], [121.622782, 24.962607], [121.622968, 24.962479], [121.622861, 24.963159], [121.624846, 24.962443], [121.625319, 24.963049], [121.625671, 24.964299], [121.62823, 24.963637], [121.628128, 24.963361], [121.631874, 24.96521], [121.633422, 24.965498]]}}]}