{"type": "FeatureCollection", "features": [{"type": "Feature", "properties": {"district": "65000290", "segment": 1, "total_segments": 6, "km": 10.96, "villages": ["信賢里"]}, "geometry": {"type": "LineString", "coordinates": [[121.526752, 24.837036], [121.526273, 24.837177], [121.526303, 24.83695], [121.526095, 24.836928], [121.526017, 24.836767], [121.525962, 24.836174], [121.525863, 24.836038], [121.526174, 24.836043], [121.526276, 24.836577], [121.526446, 24.836479], [121.526355, 24.837316], [121.526169, 24.837613], [121.526172, 24.837388], [121.526064, 24.837208], [121.525779, 24.837052], [121.526343, 24.838259], [121.526083, 24.838068], [121.525496, 24.835914], [121.525482, 24.835596], [121.525282, 24.835567], [121.525137, 24.835349], [121.525179, 24.835064], [121.525006, 24.834873], [121.524913, 24.834923], [121.52526, 24.834821], [121.524763, 24.835471], [121.524005, 24.835365], [121.522976, 24.835529], [121.522509, 24.835848], [121.522246, 24.835768], [121.521699, 24.836249], [121.521316, 24.836106], [121.520942, 24.836253], [121.520365, 24.833456], [121.523716, 24.833144], [121.524046, 24.834378], [121.525782, 24.835615], [121.527379, 24.840149], [121.527308, 24.841417], [121.526336, 24.841756], [121.526536, 24.84208], [121.525501, 24.842638], [121.528881, 24.839779], [121.529256, 24.839317], [121.530023, 24.83939], [121.533891, 24.840889], [121.53484, 24.850356], [121.53508, 24.850591], [121.524582, 24.83009], [121.517215, 24.820987], [121.513597, 24.823579], [121.506182, 24.829256]]}}, {"type": "Feature", "properties": {"district": "65000290", "segment": 2, "total_segments": 6, "km": 14.98, "villages": ["烏來里"]}, "geometry": {"type": "LineString", "coordinates": [[121.536684, 24.852125], [121.539034, 24.85174], [121.537744, 24.857082], [121.541449, 24.857819], [121.541684, 24.859876], [121.542088, 24.860665], [121.54239, 24.86059], [121.54344, 24.860084], [121.542571, 24.862217], [121.54251, 24.862658], [121.540404, 24.861155], [121.545937, 24.862232], [121.546414, 24.86241], [121.546518, 24.863755], [121.547318, 24.864188], [121.547274, 24.864303], [121.547506, 24.864283], [121.547599, 24.864499], [121.547542, 24.864727], [121.547326, 24.864802], [121.547237, 24.865207], [121.547466, 24.865591], [121.547335, 24.865696], [121.547377, 24.865767], [121.547101, 24.865512], [121.546869, 24.865982], [121.547101, 24.865962], [121.546805, 24.866208], [121.547603, 24.865929], [121.547599, 24.865809], [121.547663, 24.865809], [121.54767, 24.865928], [121.548146, 24.865843], [121.547968, 24.865571], [121.548143, 24.865444], [121.547846, 24.865332], [121.547873, 24.865085], [121.548102, 24.865093], [121.548103, 24.864921], [121.547938, 24.864814], [121.548147, 24.864563], [121.548106, 24.86422], [121.548151, 24.864034], [121.548283, 24.863922], [121.54816, 24.863884], [121.548077, 24.86366], [121.547922, 24.863776], [121.547945, 24.863605], [121.547725, 24.863377], [121.54749, 24.86357], [121.547651, 24.863196], [121.548584, 24.862907], [121.548552, 24.863183], [121.548626, 24.863293], [121.548525, 24.863513], [121.548414, 24.863265], [121.548218, 24.86332], [121.548175, 24.862691], [121.548887, 24.862421], [121.548802, 24.862227], [121.549056, 24.862295], [121.549076, 24.862509], [121.548962, 24.862732], [121.549638, 24.862464], [121.55022, 24.862449], [121.550339, 24.862631], [121.550233, 24.862758], [121.55052, 24.862536], [121.550453, 24.862224], [121.550828, 24.862095], [121.550633, 24.861877], [121.550703, 24.861807], [121.550395, 24.861815], [121.550254, 24.861918], [121.54999, 24.861672], [121.550039, 24.861316], [121.549875, 24.860661], [121.549525, 24.860379], [121.549404, 24.860111], [121.549423, 24.859928], [121.548756, 24.85978], [121.548577, 24.859522], [121.54862, 24.858835], [121.548927, 24.858645], [121.5494, 24.859296], [121.549623, 24.859374], [121.549643, 24.859112], [121.550907, 24.860011], [121.550714, 24.860202], [121.551052, 24.860388], [121.551463, 24.860327], [121.551518, 24.860051], [121.551668, 24.860036], [121.551631, 24.860605], [121.551512, 24.860415], [121.551341, 24.860587], [121.551299, 24.860829], [121.551481, 24.860972], [121.551474, 24.861126], [121.551661, 24.861131], [121.551653, 24.861364], [121.551423, 24.86159], [121.551662, 24.861004], [121.551656, 24.859945], [121.551477, 24.859803], [121.55137, 24.859405], [121.551464, 24.859345], [121.551398, 24.859235], [121.551363, 24.859782], [121.551251, 24.857431], [121.551679, 24.856275], [121.549497, 24.856419], [121.549198, 24.856138], [121.548615, 24.856001], [121.548557, 24.855774], [121.548462, 24.855785], [121.548499, 24.855638], [121.548343, 24.855605], [121.548379, 24.855403], [121.548862, 24.855399], [121.548813, 24.855246], [121.548617, 24.855131], [121.548996, 24.854853], [121.54899, 24.854752], [121.549254, 24.855127], [121.548378, 24.854612], [121.548346, 24.85425], [121.547909, 24.853837], [121.546994, 24.853773], [121.54716, 24.854325], [121.546696, 24.854551], [121.546145, 24.854398], [121.5458, 24.854767], [121.546146, 24.85473], [121.546101, 24.853513], [121.546877, 24.853063], [121.547298, 24.852118], [121.549484, 24.853615], [121.547874, 24.855428], [121.547308, 24.855786], [121.547411, 24.855987], [121.547396, 24.856951], [121.546493, 24.858196], [121.5467, 24.859706], [121.548041, 24.861087], [121.548182, 24.861163], [121.548316, 24.860929], [121.548745, 24.861111], [121.548711, 24.861298], [121.548588, 24.861307], [121.548423, 24.861495], [121.548722, 24.861649], [121.548761, 24.861781], [121.548572, 24.861819], [121.548596, 24.861926], [121.548184, 24.86177], [121.547754, 24.862028], [121.547424, 24.861581], [121.54859, 24.860644], [121.548734, 24.860787], [121.549086, 24.860569], [121.550146, 24.863057], [121.549454, 24.863416], [121.549483, 24.863729], [121.549374, 24.864089], [121.549506, 24.864179], [121.549455, 24.864267], [121.549762, 24.864214], [121.549694, 24.864335], [121.549815, 24.864376], [121.549796, 24.864572], [121.549578, 24.864556], [121.549588, 24.864665], [121.549911, 24.864776], [121.54951, 24.86507], [121.549471, 24.865195], [121.549664, 24.865596], [121.549675, 24.865857], [121.548802, 24.866483], [121.548821, 24.866679], [121.548444, 24.866764], [121.548289, 24.86688], [121.548173, 24.866589], [121.547985, 24.8677], [121.54786, 24.867688], [121.547709, 24.867831], [121.54608, 24.866952], [121.545924, 24.865926], [121.54656, 24.865325], [121.546742, 24.864905], [121.547071, 24.864759], [121.548264, 24.864756], [121.548577, 24.863965], [121.548838, 24.863894], [121.548849, 24.863829], [121.548775, 24.863831], [121.549144, 24.863506], [121.549707, 24.863691], [121.549709, 24.863862], [121.549412, 24.86445], [121.5512, 24.863996], [121.551363, 24.863904], [121.551239, 24.863746], [121.551203, 24.863298], [121.551366, 24.863298], [121.551393, 24.863053], [121.551307, 24.862996], [121.5514, 24.862585], [121.551539, 24.862609], [121.551487, 24.863536], [121.55162, 24.863504], [121.551594, 24.863405], [121.551833, 24.863489], [121.551804, 24.863708], [121.551942, 24.863956], [121.551667, 24.86407], [121.551488, 24.863681], [121.551631, 24.863798], [121.551413, 24.863935], [121.551407, 24.864147], [121.551612, 24.864303], [121.551761, 24.864237], [121.552006, 24.86454], [121.552009, 24.864773], [121.552189, 24.864752], [121.552194, 24.864914], [121.552303, 24.864946], [121.552314, 24.864881], [121.552231, 24.865208], [121.552017, 24.865167], [121.551986, 24.864969], [121.552139, 24.865032], [121.551769, 24.865205], [121.552056, 24.865545], [121.551852, 24.865595], [121.551929, 24.865714], [121.552129, 24.865434], [121.5517, 24.866005], [121.551614, 24.864708], [121.552478, 24.864505], [121.552464, 24.864364], [121.552571, 24.864725], [121.55253, 24.863938], [121.553164, 24.863843], [121.553203, 24.863668], [121.554224, 24.863038], [121.554641, 24.86211], [121.55465, 24.862009], [121.554377, 24.861682], [121.55464, 24.861372], [121.554871, 24.861493], [121.55505, 24.861147], [121.555582, 24.860627], [121.555834, 24.859722], [121.557073, 24.859014], [121.55704, 24.858804]]}}, {"type": "Feature", "properties": {"district": "65000290", "segment": 3, "total_segments": 6, "km": 10.11, "villages": ["烏來里"]}, "geometry": {"type": "LineString", "coordinates": [[121.557432, 24.859303], [121.557387, 24.859495], [121.557781, 24.859882], [121.558248, 24.859486], [121.558292, 24.859177], [121.558518, 24.858941], [121.558562, 24.859306], [121.558445, 24.859819], [121.557165, 24.860628], [121.556574, 24.860875], [121.553732, 24.860412], [121.551533, 24.862476], [121.551207, 24.863142], [121.551681, 24.863214], [121.546944, 24.863618], [121.54582, 24.86343], [121.545766, 24.863126], [121.545703, 24.86377], [121.5449, 24.865095], [121.544509, 24.865524], [121.544532, 24.857079], [121.544077, 24.856899], [121.551579, 24.848739], [121.551205, 24.847889], [121.561172, 24.849399], [121.566325, 24.851934], [121.569766, 24.851366], [121.56746, 24.855395], [121.557768, 24.858208], [121.545927, 24.874083]]}}, {"type": "Feature", "properties": {"district": "65000290", "segment": 4, "total_segments": 6, "km": 12.63, "villages": ["忠治里"]}, "geometry": {"type": "LineString", "coordinates": [[121.546938, 24.874554], [121.547686, 24.873851], [121.547624, 24.873716], [121.547662, 24.873471], [121.547332, 24.873136], [121.547306, 24.872932], [121.547834, 24.872597], [121.547737, 24.872404], [121.547484, 24.872391], [121.547352, 24.872522], [121.54733, 24.871838], [121.54718, 24.871691], [121.54736, 24.871556], [121.54728, 24.871118], [121.547496, 24.871135], [121.547492, 24.871075], [121.547508, 24.871265], [121.547754, 24.871261], [121.548005, 24.871714], [121.547977, 24.871966], [121.547616, 24.871868], [121.547545, 24.871748], [121.547716, 24.871064], [121.547549, 24.870359], [121.547312, 24.870096], [121.547351, 24.869907], [121.547295, 24.869819], [121.547492, 24.869647], [121.547091, 24.870482], [121.547001, 24.870846], [121.547138, 24.870911], [121.547118, 24.871026], [121.547834, 24.87091], [121.547109, 24.870286], [121.548432, 24.87165], [121.548982, 24.872457], [121.548829, 24.87261], [121.548279, 24.872685], [121.548612, 24.873474], [121.548612, 24.873902], [121.547252, 24.877491], [121.546952, 24.877813], [121.544931, 24.878458], [121.543213, 24.879431], [121.542205, 24.87979], [121.542174, 24.879729], [121.542331, 24.880097], [121.54207, 24.880228], [121.542375, 24.880276], [121.542481, 24.880516], [121.542823, 24.880431], [121.542969, 24.880574], [121.542783, 24.880733], [121.542743, 24.881199], [121.542863, 24.881424], [121.543329, 24.881535], [121.543327, 24.881893], [121.542549, 24.882378], [121.543293, 24.882925], [121.543355, 24.883251], [121.544091, 24.882905], [121.543461, 24.884491], [121.545286, 24.884405], [121.546118, 24.884472], [121.546178, 24.884334], [121.548075, 24.883748], [121.548257, 24.883833], [121.54838, 24.883803], [121.548494, 24.883949], [121.549022, 24.884038], [121.549369, 24.884007], [121.5493, 24.884272], [121.548914, 24.88416], [121.549076, 24.883732], [121.548843, 24.883705], [121.548794, 24.883831], [121.549178, 24.883857], [121.549185, 24.883724], [121.549241, 24.883725], [121.549679, 24.884205], [121.549642, 24.884448], [121.550451, 24.884081], [121.550305, 24.883629], [121.550839, 24.88361], [121.551452, 24.883919], [121.551561, 24.883814], [121.55138, 24.884154], [121.551231, 24.884235], [121.551383, 24.884495], [121.551077, 24.884601], [121.551265, 24.88478], [121.552599, 24.883626], [121.552822, 24.883812], [121.552875, 24.883182], [121.553844, 24.884363], [121.555095, 24.884719], [121.555477, 24.885668], [121.555112, 24.885761], [121.554558, 24.886114], [121.554727, 24.886283], [121.554625, 24.886888], [121.555119, 24.886901], [121.558587, 24.888255], [121.556121, 24.883224], [121.555927, 24.883027], [121.555986, 24.881566], [121.55485, 24.880308], [121.553739, 24.880455], [121.55323, 24.880704], [121.552122, 24.8799], [121.55032, 24.877455], [121.548661, 24.883158], [121.548694, 24.883229], [121.548367, 24.883282], [121.548418, 24.883383], [121.548601, 24.883397], [121.548583, 24.883529], [121.548315, 24.883494], [121.548357, 24.883608], [121.548554, 24.883664], [121.548731, 24.883516], [121.548467, 24.883141], [121.548291, 24.884079], [121.550523, 24.884901], [121.550879, 24.885621], [121.551886, 24.888855], [121.551653, 24.889263], [121.551619, 24.88944], [121.551707, 24.889782], [121.551399, 24.889778], [121.551089, 24.890194], [121.55111, 24.89069], [121.550357, 24.891933], [121.540641, 24.883809], [121.540228, 24.883845], [121.540167, 24.883741], [121.539958, 24.883854], [121.540192, 24.884015], [121.543231, 24.876577], [121.543233, 24.876373], [121.543864, 24.875862]]}}, {"type": "Feature", "properties": {"district": "65000290", "segment": 5, "total_segments": 6, "km": 8.94, "villages": ["孝義里", "福山里"]}, "geometry": {"type": "LineString", "coordinates": [[121.571239, 24.850056], [121.584096, 24.850976], [121.584983, 24.851196], [121.585633, 24.850796], [121.585948, 24.851259], [121.585899, 24.851356], [121.586133, 24.85144], [121.586213, 24.851291], [121.586085, 24.851191], [121.586209, 24.850985], [121.586517, 24.850773], [121.586797, 24.85088], [121.586394, 24.85118], [121.585612, 24.85142], [121.586406, 24.850411], [121.586714, 24.850133], [121.585995, 24.84867], [121.585352, 24.848431], [121.644467, 24.835027], [121.647862, 24.836541], [121.648153, 24.837799]]}}, {"type": "Feature", "properties": {"district": "65000290", "segment": 6, "total_segments": 6, "km": 2.99, "villages": ["福山里"]}, "geometry": {"type": "LineString", "coordinates": [[121.502479, 24.778719], [121.502197, 24.778006], [121.501945, 24.777799], [121.500798, 24.775223], [121.500359, 24.7753], [121.50035, 24.775166], [121.500192, 24.775278], [121.499177, 24.775495], [121.499038, 24.775187], [121.49866, 24.775024], [121.49295, 24.793641], [121.493452, 24.794869]]}}]}