{"type": "FeatureCollection", "features": [{"type": "Feature", "properties": {"district": "65000160", "segment": 1, "total_segments": 10, "km": 14.99, "villages": ["全興里", "義仁里"]}, "geometry": {"type": "LineString", "coordinates": [[121.434696, 25.054769], [121.434578, 25.054694], [121.434722, 25.054827], [121.434626, 25.054987], [121.434345, 25.05487], [121.434256, 25.055012], [121.434041, 25.054905], [121.434329, 25.054483], [121.433678, 25.053947], [121.43346, 25.054329], [121.433335, 25.05429], [121.43326, 25.054414], [121.433018, 25.054296], [121.433099, 25.054055], [121.433396, 25.054196], [121.433509, 25.053982], [121.433222, 25.053843], [121.43314, 25.053985], [121.432898, 25.053778], [121.432861, 25.053885], [121.432741, 25.053617], [121.432542, 25.053717], [121.432417, 25.053661], [121.432735, 25.053204], [121.432653, 25.053121], [121.432989, 25.053195], [121.433063, 25.053537], [121.433009, 25.053576], [121.433314, 25.053712], [121.433284, 25.053764], [121.433376, 25.053602], [121.433594, 25.053855], [121.43365, 25.054537], [121.433577, 25.054671], [121.43297, 25.054384], [121.432531, 25.055024], [121.432793, 25.05515], [121.433081, 25.054665], [121.432926, 25.054583], [121.433175, 25.05477], [121.433449, 25.054852], [121.433146, 25.055337], [121.432916, 25.055219], [121.433138, 25.054836], [121.433518, 25.055261], [121.433388, 25.055443], [121.434121, 25.055797], [121.434376, 25.05534], [121.434175, 25.055215], [121.434063, 25.055405], [121.434202, 25.055474], [121.433727, 25.055517], [121.433353, 25.055668], [121.433237, 25.055867], [121.433027, 25.055802], [121.43282, 25.056105], [121.432153, 25.055822], [121.432101, 25.055775], [121.432354, 25.055362], [121.432272, 25.054853], [121.431642, 25.054611], [121.431575, 25.054467], [121.43157, 25.054356], [121.431991, 25.054195], [121.43224, 25.054268], [121.43215, 25.054421], [121.431908, 25.054437], [121.431864, 25.054515], [121.43172, 25.05402], [121.431526, 25.053797], [121.431629, 25.053666], [121.4315, 25.053603], [121.431844, 25.05374], [121.432107, 25.0533], [121.431836, 25.053226], [121.431735, 25.053385], [121.431866, 25.053447], [121.431801, 25.053547], [121.43164, 25.053471], [121.431847, 25.05294], [121.432061, 25.052879], [121.43221, 25.053035], [121.432172, 25.053168], [121.432254, 25.053384], [121.431996, 25.05388], [121.43235, 25.053778], [121.432399, 25.053694], [121.432456, 25.05389], [121.432392, 25.054268], [121.432568, 25.054353], [121.432579, 25.054434], [121.432344, 25.054786], [121.432962, 25.055517], [121.433099, 25.055636], [121.43315, 25.055578], [121.433275, 25.055628], [121.433095, 25.056158], [121.433058, 25.056205], [121.4329, 25.056139], [121.433085, 25.056215], [121.433006, 25.056441], [121.433195, 25.056514], [121.432949, 25.056978], [121.432988, 25.057016], [121.433323, 25.057149], [121.433584, 25.056672], [121.433463, 25.0566], [121.433653, 25.056131], [121.43283, 25.056494], [121.432737, 25.056451], [121.432666, 25.056677], [121.432598, 25.056652], [121.432622, 25.056857], [121.43284, 25.056936], [121.432741, 25.057156], [121.433203, 25.057331], [121.433042, 25.057602], [121.432396, 25.057299], [121.432291, 25.057522], [121.432177, 25.057466], [121.432917, 25.057778], [121.432798, 25.058004], [121.432083, 25.057667], [121.432652, 25.057117], [121.435045, 25.054199], [121.434868, 25.05392], [121.435379, 25.053744], [121.432667, 25.052754], [121.432556, 25.05262], [121.432212, 25.052761], [121.432393, 25.052907], [121.4327, 25.051909], [121.432572, 25.051754], [121.432287, 25.051006], [121.432712, 25.050325], [121.432897, 25.049439], [121.432554, 25.049383], [121.433475, 25.04895], [121.433114, 25.047855], [121.4329, 25.047911], [121.433496, 25.047515], [121.434466, 25.047822], [121.434502, 25.047127], [121.434196, 25.046665], [121.43359, 25.046193], [121.43311, 25.04539], [121.433058, 25.044496], [121.432525, 25.04392], [121.433955, 25.04455], [121.435697, 25.044915], [121.436328, 25.044576], [121.436417, 25.04447], [121.436275, 25.044257], [121.436726, 25.044727], [121.438057, 25.04369], [121.438848, 25.043769], [121.438872, 25.044032], [121.439137, 25.044015], [121.43903, 25.043791], [121.439116, 25.043788], [121.439121, 25.043852], [121.439355, 25.043763], [121.439449, 25.043776], [121.439456, 25.043955], [121.439368, 25.044006], [121.439434, 25.044094], [121.439454, 25.044668], [121.439252, 25.044472], [121.439256, 25.044097], [121.439116, 25.043431], [121.439039, 25.043436], [121.439046, 25.0435], [121.439028, 25.043293], [121.439125, 25.043287], [121.439125, 25.043358], [121.439068, 25.04312], [121.439221, 25.043108], [121.439282, 25.04283], [121.439673, 25.043114], [121.439679, 25.043238], [121.440016, 25.04324], [121.44009, 25.043212], [121.440074, 25.043139], [121.439746, 25.043103], [121.439973, 25.043458], [121.440224, 25.043421], [121.440423, 25.043799], [121.440412, 25.044332], [121.440582, 25.044319], [121.440574, 25.044059], [121.44071, 25.043896], [121.440709, 25.043705], [121.440989, 25.043702], [121.44099, 25.043893], [121.440594, 25.044486], [121.440602, 25.044737], [121.440429, 25.044745], [121.44041, 25.044494], [121.440222, 25.044038], [121.440493, 25.045053], [121.440669, 25.045059], [121.440679, 25.045692], [121.44096, 25.045708], [121.440995, 25.045976], [121.440186, 25.045957], [121.440255, 25.045858], [121.439956, 25.045749], [121.439954, 25.04564], [121.44003, 25.045637], [121.440039, 25.045969], [121.439963, 25.045969], [121.439955, 25.046109], [121.440257, 25.046072], [121.440253, 25.046179], [121.440165, 25.046192], [121.440163, 25.046474], [121.440226, 25.046464], [121.440256, 25.046564], [121.440178, 25.046851], [121.440271, 25.046851], [121.440084, 25.0465], [121.439526, 25.046536], [121.439577, 25.046817], [121.439523, 25.04685], [121.439257, 25.046837], [121.439336, 25.046732], [121.439038, 25.046734], [121.438934, 25.047258], [121.439708, 25.046884], [121.440148, 25.047303], [121.441213, 25.047597], [121.441397, 25.048201], [121.440675, 25.048678], [121.440628, 25.048931], [121.440008, 25.049908], [121.439759, 25.049929], [121.43944, 25.050222], [121.438885, 25.050134], [121.438448, 25.050169], [121.438498, 25.050604], [121.438622, 25.050573], [121.43861, 25.050355], [121.43882, 25.050472], [121.439009, 25.050472], [121.439017, 25.050553], [121.438794, 25.050573], [121.438796, 25.051314], [121.439452, 25.051363], [121.439893, 25.050906], [121.439172, 25.052217], [121.439159, 25.052451], [121.439538, 25.052813], [121.438038, 25.051669], [121.437797, 25.05163], [121.437014, 25.050899], [121.436757, 25.050895], [121.436642, 25.051134], [121.436979, 25.050612], [121.437532, 25.050396], [121.437656, 25.050455], [121.437481, 25.049223], [121.437371, 25.049224], [121.437326, 25.049135], [121.437436, 25.049129], [121.437162, 25.049208], [121.437165, 25.049347], [121.437337, 25.049354], [121.437095, 25.049137], [121.436902, 25.049181], [121.436796, 25.049308], [121.436896, 25.049372], [121.436774, 25.049181], [121.436684, 25.049167], [121.436506, 25.04986], [121.436174, 25.049983], [121.435717, 25.049764], [121.435821, 25.048726], [121.434762, 25.048819], [121.436611, 25.047746], [121.436815, 25.047387], [121.437013, 25.047372], [121.437114, 25.047183], [121.437352, 25.04712], [121.437341, 25.046879], [121.436273, 25.045918], [121.435205, 25.046449], [121.43564, 25.042757], [121.435498, 25.042662], [121.435663, 25.042616], [121.435703, 25.042681], [121.435736, 25.042549], [121.435519, 25.041033], [121.435453, 25.040958], [121.435689, 25.040972], [121.436255, 25.040106], [121.436469, 25.039927], [121.436461, 25.039841], [121.436583, 25.040213], [121.435933, 25.039532], [121.436547, 25.039112], [121.434172, 25.041263], [121.433567, 25.04275], [121.438818, 25.043251], [121.439062, 25.04504], [121.438979, 25.045083], [121.439002, 25.045288], [121.439462, 25.045125]]}}, {"type": "Feature", "properties": {"district": "65000160", "segment": 2, "total_segments": 10, "km": 11.88, "villages": ["義仁里", "貴賢里"]}, "geometry": {"type": "LineString", "coordinates": [[121.439455, 25.045051], [121.439291, 25.045047], [121.439344, 25.045832], [121.4395, 25.045804], [121.439518, 25.046295], [121.439025, 25.046153], [121.438962, 25.045733], [121.439223, 25.046002], [121.439501, 25.045632], [121.440929, 25.045042], [121.441279, 25.0447], [121.441287, 25.044547], [121.441602, 25.044542], [121.441604, 25.044673], [121.441336, 25.044678], [121.441486, 25.044969], [121.441768, 25.044651], [121.441765, 25.044544], [121.441604, 25.045397], [121.441543, 25.045399], [121.441607, 25.045485], [121.441293, 25.045402], [121.441299, 25.045489], [121.440962, 25.043048], [121.441261, 25.04301], [121.435123, 25.051079], [121.434274, 25.052003], [121.436443, 25.051813], [121.435443, 25.053906], [121.43111, 25.053222], [121.430458, 25.053026], [121.4304, 25.052926], [121.430463, 25.052738], [121.430296, 25.052481], [121.429686, 25.052782], [121.429627, 25.052641], [121.429717, 25.052452], [121.429556, 25.052164], [121.429455, 25.052055], [121.429285, 25.052131], [121.42866, 25.05112], [121.428899, 25.051178], [121.429052, 25.051476], [121.429283, 25.051372], [121.428892, 25.050693], [121.427869, 25.051153], [121.428278, 25.051752], [121.429595, 25.053003], [121.429608, 25.051956], [121.429479, 25.051738], [121.429638, 25.051676], [121.428455, 25.049357], [121.428178, 25.04954], [121.428209, 25.049676], [121.428458, 25.049558], [121.428622, 25.049892], [121.428261, 25.050029], [121.428231, 25.049757], [121.428058, 25.0498], [121.428028, 25.049624], [121.427801, 25.049799], [121.427844, 25.050174], [121.428103, 25.050087], [121.428063, 25.04986], [121.428179, 25.050219], [121.428375, 25.050136], [121.428675, 25.050178], [121.42886, 25.050536], [121.427781, 25.050946], [121.427728, 25.050648], [121.428291, 25.051212], [121.429306, 25.051412], [121.429396, 25.051593], [121.429661, 25.051714], [121.429775, 25.051895], [121.429945, 25.051772], [121.428875, 25.052032], [121.430515, 25.053855], [121.430692, 25.053873], [121.427821, 25.049417], [121.42809, 25.049271], [121.427819, 25.049076], [121.427568, 25.04913], [121.427619, 25.049469], [121.427343, 25.048285], [121.427527, 25.048399], [121.427628, 25.048657], [121.427817, 25.048453], [121.428074, 25.048405], [121.428104, 25.0486], [121.428269, 25.048557], [121.428285, 25.04865], [121.428188, 25.048065], [121.428045, 25.048221], [121.428066, 25.048359], [121.429679, 25.048477], [121.430675, 25.048203], [121.430826, 25.048124], [121.430752, 25.04794], [121.430712, 25.041449], [121.42969, 25.040057], [121.430352, 25.039716], [121.430799, 25.039676], [121.430711, 25.039385], [121.430766, 25.039356], [121.431114, 25.04136], [121.430967, 25.041439], [121.43128, 25.041276], [121.431241, 25.041183], [121.429593, 25.041003], [121.428768, 25.040287], [121.428631, 25.039348], [121.427917, 25.038514], [121.428, 25.037916], [121.429089, 25.038211], [121.427373, 25.036896], [121.427024, 25.037264], [121.426165, 25.037519], [121.425626, 25.037783], [121.424787, 25.038691], [121.424906, 25.038904], [121.424815, 25.03907], [121.424519, 25.039177], [121.424152, 25.038472], [121.424988, 25.040024], [121.425143, 25.040788], [121.425116, 25.04132], [121.425444, 25.041218], [121.425103, 25.041461], [121.425078, 25.041696], [121.425315, 25.041737], [121.425391, 25.0421], [121.42568, 25.042005], [121.425666, 25.042084], [121.425766, 25.041965], [121.426209, 25.041774], [121.426054, 25.041693], [121.426156, 25.041628], [121.427413, 25.040998], [121.426432, 25.041667], [121.426294, 25.041931], [121.426339, 25.042103], [121.426093, 25.042231], [121.426164, 25.042354], [121.425934, 25.042449], [121.426029, 25.042619], [121.425658, 25.042658], [121.425751, 25.042265], [121.426076, 25.042595], [121.42617, 25.042544], [121.426236, 25.042656], [121.426092, 25.042733], [121.426341, 25.042642], [121.426639, 25.042481], [121.425307, 25.040286]]}}, {"type": "Feature", "properties": {"district": "65000160", "segment": 3, "total_segments": 10, "km": 10.34, "villages": ["貴和里"]}, "geometry": {"type": "LineString", "coordinates": [[121.424233, 25.038283], [121.424334, 25.038057], [121.424149, 25.037747], [121.424013, 25.037831], [121.424111, 25.037984], [121.423912, 25.038137], [121.423134, 25.036904], [121.423511, 25.036674], [121.423638, 25.036841], [121.423441, 25.036937], [121.423771, 25.037452], [121.424103, 25.037268], [121.424135, 25.037318], [121.423908, 25.036969], [121.424055, 25.036887], [121.424735, 25.038031], [121.424793, 25.038004], [121.424041, 25.038342], [121.423938, 25.038181], [121.425509, 25.037451], [121.425855, 25.035968], [121.424914, 25.035824], [121.425514, 25.035113], [121.425408, 25.034881], [121.423374, 25.033418], [121.423216, 25.033113], [121.422973, 25.033129], [121.422864, 25.033044], [121.423306, 25.032803], [121.42314, 25.032574], [121.422756, 25.032759], [121.422676, 25.032603], [121.422573, 25.032657], [121.423514, 25.032202], [121.42404, 25.031798], [121.423667, 25.032333], [121.42258, 25.032857], [121.421516, 25.032178], [121.421164, 25.032031], [121.421174, 25.031751], [121.420925, 25.031892], [121.420887, 25.031665], [121.420965, 25.031365], [121.420892, 25.031315], [121.420769, 25.031389], [121.420754, 25.031511], [121.420649, 25.031445], [121.420446, 25.031564], [121.420466, 25.031781], [121.420558, 25.031869], [121.420456, 25.031983], [121.419664, 25.031968], [121.419434, 25.031837], [121.41926, 25.031914], [121.419171, 25.031859], [121.419241, 25.031732], [121.419099, 25.031643], [121.418987, 25.031754], [121.419034, 25.031783], [121.418312, 25.031331], [121.418038, 25.030911], [121.417783, 25.030716], [121.417598, 25.030327], [121.416771, 25.030595], [121.418086, 25.030375], [121.418125, 25.030736], [121.418277, 25.031019], [121.418581, 25.030856], [121.418836, 25.031491], [121.418955, 25.03156], [121.418481, 25.031823], [121.418993, 25.032302], [121.41921, 25.032345], [121.41918, 25.032562], [121.41908, 25.032565], [121.419083, 25.032634], [121.419442, 25.032609], [121.419451, 25.032666], [121.419086, 25.032679], [121.419374, 25.032557], [121.419335, 25.032495], [121.419538, 25.032492], [121.419728, 25.032328], [121.420734, 25.032345], [121.420846, 25.032549], [121.42079, 25.033008], [121.421071, 25.033138], [121.421325, 25.033056], [121.421576, 25.032855], [121.421705, 25.032916], [121.421812, 25.032784], [121.42168, 25.032692], [121.422006, 25.032912], [121.42164, 25.033324], [121.421329, 25.03347], [121.421048, 25.033343], [121.421191, 25.033782], [121.4216, 25.034441], [121.422064, 25.034349], [121.421885, 25.034875], [121.422533, 25.035971], [121.422424, 25.036366], [121.422304, 25.036299], [121.422287, 25.036394], [121.422125, 25.036005], [121.422136, 25.035659], [121.421912, 25.035311], [121.421806, 25.035488], [121.421756, 25.035379], [121.421429, 25.035316], [121.421384, 25.03483], [121.423077, 25.033927], [121.423288, 25.034182], [121.423967, 25.033509], [121.424276, 25.033351], [121.424223, 25.033232], [121.423843, 25.033385], [121.424351, 25.033945], [121.42484, 25.033611], [121.422587, 25.033376], [121.42244, 25.032399], [121.422546, 25.032112], [121.422842, 25.031963], [121.422763, 25.031832], [121.423168, 25.03144], [121.422718, 25.030857], [121.422788, 25.030812], [121.422429, 25.030765], [121.421259, 25.031386], [121.421435, 25.031514], [121.421524, 25.031479], [121.421747, 25.032072], [121.421085, 25.032684], [121.419942, 25.03311], [121.419803, 25.032704], [121.42002, 25.031749], [121.420095, 25.031652], [121.42033, 25.031784], [121.420527, 25.031242], [121.420627, 25.031149], [121.420865, 25.031103], [121.420891, 25.031169], [121.420667, 25.030637], [121.420855, 25.030571], [121.420427, 25.029576], [121.420183, 25.029491], [121.420098, 25.029326], [121.418527, 25.030157], [121.419809, 25.031332], [121.420429, 25.030855], [121.421909, 25.031329], [121.422208, 25.031173], [121.422959, 25.030485], [121.423115, 25.030624], [121.423568, 25.030241], [121.42092, 25.028923], [121.420268, 25.029186], [121.417727, 25.031933], [121.417638, 25.031921], [121.419454, 25.033582], [121.422483, 25.036634], [121.422563, 25.036937], [121.422647, 25.036922], [121.422548, 25.036625], [121.422616, 25.036618], [121.422718, 25.036912], [121.422789, 25.036899], [121.422684, 25.036612], [121.422902, 25.036459], [121.422831, 25.03635], [121.426872, 25.034999], [121.427737, 25.035728]]}}, {"type": "Feature", "properties": {"district": "65000160", "segment": 4, "total_segments": 10, "km": 10.97, "villages": ["貴子里", "新明里", "明志里"]}, "geometry": {"type": "LineString", "coordinates": [[121.4239, 25.038483], [121.424262, 25.039143], [121.422543, 25.040322], [121.422672, 25.040515], [121.422554, 25.040599], [121.422861, 25.0409], [121.423374, 25.040948], [121.422863, 25.041311], [121.423214, 25.041577], [121.423522, 25.04143], [121.423537, 25.041195], [121.423764, 25.040872], [121.4237, 25.040734], [121.423909, 25.040736], [121.423941, 25.040796], [121.423956, 25.04055], [121.424087, 25.040518], [121.424132, 25.040717], [121.424299, 25.040761], [121.424383, 25.040893], [121.424198, 25.040479], [121.424426, 25.040425], [121.424025, 25.040099], [121.424319, 25.039862], [121.424103, 25.039544], [121.424148, 25.039514], [121.42274, 25.04047], [121.422252, 25.040594], [121.421966, 25.040238], [121.423517, 25.039249], [121.42373, 25.039087], [121.423686, 25.039016], [121.424401, 25.039371], [121.424445, 25.039813], [121.424623, 25.039781], [121.424732, 25.040075], [121.424538, 25.040189], [121.424829, 25.040287], [121.424972, 25.040789], [121.4248, 25.04235], [121.424761, 25.042445], [121.424531, 25.042076], [121.424198, 25.042131], [121.424019, 25.042012], [121.4241, 25.041652], [121.424425, 25.041677], [121.424016, 25.041642], [121.423927, 25.042565], [121.423163, 25.042324], [121.422709, 25.042077], [121.422701, 25.041989], [121.423001, 25.041754], [121.421831, 25.042847], [121.422543, 25.043466], [121.422665, 25.043699], [121.422773, 25.043787], [121.422901, 25.043754], [121.422996, 25.043863], [121.422845, 25.044125], [121.422732, 25.044059], [121.422632, 25.044155], [121.422464, 25.043993], [121.422737, 25.044214], [121.422306, 25.044519], [121.422092, 25.044178], [121.421991, 25.04363], [121.422863, 25.043409], [121.421725, 25.042763], [121.420096, 25.042509], [121.419683, 25.042073], [121.419164, 25.042172], [121.418918, 25.04208], [121.419197, 25.04247], [121.419286, 25.042455], [121.41914, 25.04258], [121.419201, 25.043074], [121.419064, 25.043507], [121.418774, 25.040081], [121.418611, 25.039892], [121.418758, 25.039825], [121.418911, 25.040011], [121.41866, 25.039701], [121.418669, 25.039283], [121.418737, 25.039238], [121.421234, 25.039317], [121.421373, 25.0395], [121.421929, 25.039324], [121.425185, 25.04317], [121.425383, 25.043157], [121.425568, 25.043026], [121.425612, 25.042892], [121.425653, 25.043324], [121.425784, 25.043315], [121.425985, 25.043776], [121.425872, 25.043821], [121.425711, 25.043511], [121.425505, 25.043406], [121.425149, 25.043548], [121.424986, 25.043573], [121.42494, 25.0435], [121.425774, 25.044949], [121.427282, 25.044233], [121.427483, 25.044054], [121.427457, 25.043916], [121.427378, 25.043928], [121.427394, 25.043995], [121.427372, 25.043856], [121.427443, 25.043839], [121.427239, 25.044066], [121.426991, 25.043549], [121.427413, 25.043357], [121.42709, 25.043346], [121.427004, 25.042838], [121.427711, 25.043231], [121.428029, 25.042795], [121.425791, 25.043138], [121.425787, 25.04325], [121.425474, 25.043552], [121.425483, 25.043703], [121.425344, 25.043742], [121.425945, 25.04461], [121.426176, 25.044485], [121.42587, 25.04465], [121.430326, 25.04275], [121.425817, 25.045362], [121.426446, 25.046438], [121.426332, 25.04678], [121.426417, 25.047017], [121.426306, 25.047083], [121.426266, 25.047035], [121.426251, 25.046789], [121.426682, 25.047069], [121.426831, 25.047701], [121.426917, 25.047738], [121.427044, 25.048108], [121.4268, 25.048172], [121.426645, 25.048024], [121.426547, 25.048048], [121.426519, 25.047954], [121.426613, 25.047932], [121.426362, 25.047844], [121.425945, 25.04794], [121.426452, 25.048258], [121.42626, 25.048648], [121.426456, 25.049206], [121.425994, 25.049143], [121.426713, 25.047699], [121.425995, 25.047205], [121.42502, 25.046945], [121.424725, 25.04693], [121.424736, 25.047056], [121.424063, 25.04719], [121.424055, 25.047355], [121.425512, 25.045591], [121.425425, 25.045307], [121.425645, 25.045158], [121.425679, 25.045208], [121.424919, 25.04388], [121.424712, 25.043811], [121.424656, 25.043527], [121.424529, 25.043399], [121.42423, 25.043366], [121.424226, 25.043515], [121.423965, 25.043313], [121.424391, 25.043532], [121.424381, 25.043706], [121.424226, 25.043723], [121.424292, 25.043902], [121.424442, 25.043825], [121.424222, 25.043943], [121.424277, 25.044099], [121.424128, 25.044229], [121.423557, 25.044214], [121.423539, 25.044319], [121.423517, 25.044103], [121.423781, 25.043719], [121.42302, 25.04433], [121.423537, 25.044694], [121.42449, 25.044797], [121.42469, 25.044695], [121.424748, 25.044767], [121.424668, 25.04494], [121.425622, 25.045486], [121.424712, 25.043039], [121.424778, 25.042558]]}}, {"type": "Feature", "properties": {"district": "65000160", "segment": 5, "total_segments": 10, "km": 12.12, "villages": ["泰友里", "義學里", "同榮里"]}, "geometry": {"type": "LineString", "coordinates": [[121.427453, 25.045245], [121.427404, 25.04549], [121.42643, 25.046], [121.426665, 25.046379], [121.427227, 25.048074], [121.428155, 25.048017], [121.427269, 25.046994], [121.427211, 25.047009], [121.427203, 25.046645], [121.427446, 25.046428], [121.427188, 25.045963], [121.427109, 25.04603], [121.427858, 25.046394], [121.427968, 25.046349], [121.427981, 25.046432], [121.427962, 25.046258], [121.42893, 25.045912], [121.429825, 25.046263], [121.428972, 25.044729], [121.428489, 25.044566], [121.428238, 25.044872], [121.428422, 25.044997], [121.428697, 25.044039], [121.429569, 25.044419], [121.431906, 25.043701], [121.43177, 25.042524], [121.432385, 25.042146], [121.432567, 25.041692], [121.432826, 25.041595], [121.433448, 25.04103], [121.433994, 25.040769], [121.435489, 25.039748], [121.4271, 25.048306], [121.427406, 25.049298], [121.427419, 25.049573], [121.427157, 25.04929], [121.427121, 25.049053], [121.427546, 25.050636], [121.427623, 25.051223], [121.427906, 25.051672], [121.429501, 25.05318], [121.429482, 25.053522], [121.429301, 25.054129], [121.429027, 25.054246], [121.428872, 25.054223], [121.428715, 25.054359], [121.428099, 25.05429], [121.428362, 25.053008], [121.427838, 25.052429], [121.428149, 25.052221], [121.427851, 25.051999], [121.427506, 25.051977], [121.427253, 25.051535], [121.427066, 25.051455], [121.426684, 25.051798], [121.42685, 25.052523], [121.427105, 25.052725], [121.426701, 25.050619], [121.42675, 25.050378], [121.426718, 25.054127], [121.426941, 25.054173], [121.426534, 25.054751], [121.426412, 25.055183], [121.426599, 25.055339], [121.426074, 25.055368], [121.425968, 25.055746], [121.425616, 25.055546], [121.425259, 25.055469], [121.425061, 25.055937], [121.425066, 25.056635], [121.424668, 25.0566], [121.423148, 25.057862], [121.421319, 25.056882], [121.421331, 25.055969], [121.421083, 25.055983], [121.42083, 25.055874], [121.42084, 25.055735], [121.421061, 25.055564], [121.421107, 25.055435], [121.42187, 25.056083], [121.42104, 25.053366], [121.426912, 25.057307], [121.428445, 25.056991], [121.429024, 25.05829], [121.428943, 25.058319], [121.429294, 25.058202], [121.429151, 25.058341], [121.429296, 25.058788], [121.429408, 25.058809], [121.429638, 25.05868], [121.429769, 25.058827], [121.429778, 25.058572], [121.429696, 25.058482], [121.430201, 25.058213], [121.429928, 25.057984], [121.430029, 25.057821], [121.429866, 25.057719], [121.430331, 25.057782], [121.430422, 25.057638], [121.430682, 25.057633], [121.430676, 25.057547], [121.430686, 25.058225], [121.430802, 25.058517], [121.431103, 25.058804], [121.430983, 25.05895], [121.431269, 25.059012], [121.431499, 25.059493], [121.431427, 25.059524], [121.431392, 25.059468], [121.431648, 25.059521], [121.431854, 25.059871], [121.431781, 25.059933], [121.431605, 25.059845], [121.429547, 25.05859], [121.429399, 25.058371], [121.429562, 25.058127], [121.429752, 25.058067], [121.430525, 25.057056], [121.430449, 25.057013], [121.430659, 25.057013], [121.430628, 25.055729], [121.430368, 25.054878], [121.430549, 25.054763], [121.4302, 25.054041], [121.430037, 25.053997], [121.429721, 25.054186], [121.429655, 25.054152], [121.428775, 25.054521], [121.429122, 25.054878], [121.429339, 25.05446], [121.428349, 25.054983], [121.429597, 25.055514], [121.42961, 25.05563], [121.429686, 25.05559], [121.429657, 25.055535], [121.427855, 25.058669], [121.427702, 25.0586], [121.427662, 25.058722], [121.428791, 25.05912], [121.42884, 25.059003], [121.422279, 25.05996]]}}, {"type": "Feature", "properties": {"district": "65000160", "segment": 6, "total_segments": 10, "km": 14.97, "villages": ["同興里", "福興里", "福泰里", "楓樹里"]}, "geometry": {"type": "LineString", "coordinates": [[121.430926, 25.058142], [121.431021, 25.058405], [121.431822, 25.059454], [121.431878, 25.05952], [121.431977, 25.059491], [121.432392, 25.058448], [121.432285, 25.058269], [121.43202, 25.058155], [121.432097, 25.058013], [121.432629, 25.058274], [121.431993, 25.057968], [121.431593, 25.058066], [121.431713, 25.05843], [121.431435, 25.058182], [121.431304, 25.058213], [121.431338, 25.058332], [121.430915, 25.058073], [121.430861, 25.055969], [121.430815, 25.055494], [121.430666, 25.055069], [121.430773, 25.054825], [121.431036, 25.054953], [121.431114, 25.054881], [121.430674, 25.054433], [121.430419, 25.054047], [121.431166, 25.056299], [121.431025, 25.056475], [121.431146, 25.056673], [121.431079, 25.056924], [121.431323, 25.056933], [121.431401, 25.056748], [121.431637, 25.056834], [121.431491, 25.05687], [121.431344, 25.057062], [121.431699, 25.057342], [121.431961, 25.057443], [121.432176, 25.05721], [121.431822, 25.057034], [121.431882, 25.056962], [121.432231, 25.057131], [121.43228, 25.056885], [121.43176, 25.056696], [121.43184, 25.056938], [121.431653, 25.057574], [121.431871, 25.05763], [121.431724, 25.057862], [121.431366, 25.057838], [121.431704, 25.056351], [121.431876, 25.055968], [121.43265, 25.05627], [121.433941, 25.056539], [121.434209, 25.05612], [121.434798, 25.056421], [121.434718, 25.056665], [121.43447, 25.056558], [121.434394, 25.056764], [121.43461, 25.056855], [121.434412, 25.057167], [121.434216, 25.057095], [121.434301, 25.056971], [121.434386, 25.057008], [121.434027, 25.056858], [121.433887, 25.057097], [121.433747, 25.057017], [121.434039, 25.056592], [121.434227, 25.056673], [121.434744, 25.057184], [121.434826, 25.05735], [121.434781, 25.057451], [121.434554, 25.057504], [121.434521, 25.057692], [121.435075, 25.057964], [121.435029, 25.05826], [121.434512, 25.059153], [121.43437, 25.059118], [121.434347, 25.059261], [121.434138, 25.059422], [121.432652, 25.060312], [121.432256, 25.060423], [121.431957, 25.059696], [121.43217, 25.059342], [121.432803, 25.059682], [121.433171, 25.059487], [121.433627, 25.058857], [121.43352, 25.058793], [121.433764, 25.058818], [121.433882, 25.058983], [121.43395, 25.058909], [121.434271, 25.058996], [121.433727, 25.058904], [121.433622, 25.0585], [121.433785, 25.058194], [121.433127, 25.057891], [121.432721, 25.058461], [121.433222, 25.05829], [121.433531, 25.058485], [121.433762, 25.057986], [121.433919, 25.05804], [121.433951, 25.057928], [121.433326, 25.057734], [121.433255, 25.057695], [121.433296, 25.057619], [121.433797, 25.05756], [121.434059, 25.057768], [121.434385, 25.057619], [121.434264, 25.05748], [121.434575, 25.057286], [121.434995, 25.057493], [121.435106, 25.057306], [121.435161, 25.057561], [121.435467, 25.05755], [121.433904, 25.057363], [121.433647, 25.0572], [121.434707, 25.055538], [121.432285, 25.060507], [121.432436, 25.060531], [121.434029, 25.059613], [121.434192, 25.059698], [121.433718, 25.060516], [121.433907, 25.060581], [121.433816, 25.060804], [121.433411, 25.061366], [121.432981, 25.061755], [121.43296, 25.061846], [121.433315, 25.062515], [121.433789, 25.062088], [121.433951, 25.061227], [121.434223, 25.061324], [121.434336, 25.061127], [121.43392, 25.060529], [121.434921, 25.058852], [121.434221, 25.059647], [121.433474, 25.060114], [121.433538, 25.060803], [121.433165, 25.061361], [121.432852, 25.061627], [121.432391, 25.060711], [121.435791, 25.057956], [121.436387, 25.058081], [121.43876, 25.052667], [121.438846, 25.056273], [121.438532, 25.056774], [121.439035, 25.057394], [121.439423, 25.056873], [121.439872, 25.057089], [121.439795, 25.057404], [121.439985, 25.057108], [121.439583, 25.058515], [121.439988, 25.058976], [121.439712, 25.05966], [121.439945, 25.059928], [121.441017, 25.059949], [121.441126, 25.060908], [121.440253, 25.061196], [121.440113, 25.06137], [121.440707, 25.061671], [121.4406, 25.061917], [121.441419, 25.061806], [121.442044, 25.06124], [121.442919, 25.061363], [121.443004, 25.061189], [121.442989, 25.060816], [121.443091, 25.06064], [121.443229, 25.060765], [121.443279, 25.060297], [121.444921, 25.05998], [121.445339, 25.059211], [121.446498, 25.060539], [121.445573, 25.061587], [121.445352, 25.061532], [121.444426, 25.062366], [121.444518, 25.062758], [121.443588, 25.062243], [121.44281, 25.062601], [121.441859, 25.062769], [121.441416, 25.063961], [121.440515, 25.064555], [121.439826, 25.065271], [121.439458, 25.065007], [121.439322, 25.065046], [121.439294, 25.064939], [121.439034, 25.064906], [121.438997, 25.064972], [121.438836, 25.064866], [121.438956, 25.064717], [121.438909, 25.064689], [121.439083, 25.064845], [121.439131, 25.06479], [121.439599, 25.063689], [121.439923, 25.063242], [121.439201, 25.062688], [121.438953, 25.063523], [121.438422, 25.063773], [121.438405, 25.064432], [121.43772, 25.063849], [121.437066, 25.063484], [121.436964, 25.06372], [121.435728, 25.062969], [121.435727, 25.062904], [121.435934, 25.062925], [121.435978, 25.062803], [121.435422, 25.062638], [121.435259, 25.062722], [121.435267, 25.062803], [121.435234, 25.062605], [121.434911, 25.062592], [121.434993, 25.062663], [121.434991, 25.062873], [121.434703, 25.062862], [121.434718, 25.062771], [121.434548, 25.062805], [121.434578, 25.06312], [121.434486, 25.063121], [121.434489, 25.063228], [121.434591, 25.06323], [121.434893, 25.063189], [121.434882, 25.063117], [121.434914, 25.063346], [121.434673, 25.063376], [121.434639, 25.063533], [121.434534, 25.063534], [121.434775, 25.063538], [121.434924, 25.063734], [121.43498, 25.063468], [121.435302, 25.063659], [121.435454, 25.063502], [121.435619, 25.06348], [121.435972, 25.06373], [121.436788, 25.06405], [121.436637, 25.064563], [121.435, 25.064155], [121.434986, 25.064004], [121.434738, 25.064191], [121.434544, 25.064192], [121.434472, 25.063975], [121.434336, 25.06404], [121.433869, 25.064028], [121.433876, 25.064281], [121.433796, 25.06404], [121.433584, 25.064125], [121.433693, 25.06525], [121.433562, 25.065669], [121.433386, 25.065536], [121.4332, 25.065632], [121.432813, 25.065661], [121.432821, 25.065749], [121.43308, 25.065827], [121.433292, 25.065784], [121.43318, 25.065181], [121.433472, 25.065148], [121.433445, 25.064869], [121.433298, 25.064899], [121.433234, 25.065035]]}}, {"type": "Feature", "properties": {"district": "65000160", "segment": 7, "total_segments": 10, "km": 14.9, "villages": ["楓樹里", "山腳里"]}, "geometry": {"type": "LineString", "coordinates": [[121.43329, 25.064777], [121.433785, 25.064697], [121.433974, 25.06455], [121.434335, 25.064518], [121.43419, 25.064722], [121.434218, 25.065104], [121.434237, 25.065226], [121.434451, 25.065232], [121.434564, 25.066327], [121.434443, 25.06606], [121.434383, 25.06547], [121.434463, 25.065104], [121.434939, 25.065399], [121.434931, 25.066061], [121.435251, 25.066144], [121.435186, 25.065504], [121.434028, 25.065145], [121.434009, 25.064944], [121.433912, 25.064945], [121.433939, 25.065196], [121.432625, 25.065166], [121.432531, 25.064378], [121.431727, 25.064458], [121.432075, 25.06537], [121.432075, 25.065626], [121.431456, 25.065615], [121.433215, 25.064273], [121.433387, 25.06421], [121.433353, 25.064069], [121.433557, 25.064085], [121.433334, 25.063844], [121.433203, 25.062716], [121.43309, 25.062512], [121.433528, 25.062478], [121.433613, 25.062567], [121.43482, 25.062587], [121.434835, 25.062435], [121.434537, 25.062392], [121.434542, 25.06233], [121.43433, 25.062373], [121.434277, 25.062292], [121.434008, 25.062346], [121.433835, 25.062946], [121.433874, 25.063044], [121.434202, 25.062964], [121.434219, 25.063176], [121.433532, 25.063281], [121.433423, 25.062651], [121.433572, 25.062605], [121.433466, 25.063341], [121.433498, 25.063609], [121.434869, 25.06244], [121.435308, 25.062426], [121.434895, 25.061662], [121.436819, 25.06244], [121.4371, 25.062778], [121.436963, 25.062956], [121.438473, 25.065534], [121.43928, 25.065836], [121.439713, 25.066604], [121.439834, 25.06668], [121.439604, 25.066901], [121.439457, 25.066916], [121.439441, 25.066854], [121.439342, 25.066907], [121.440056, 25.06635], [121.44072, 25.066159], [121.440791, 25.065863], [121.440686, 25.065715], [121.44056, 25.065778], [121.440202, 25.065499], [121.440917, 25.065452], [121.442045, 25.066348], [121.441908, 25.066524], [121.442101, 25.066609], [121.441933, 25.066875], [121.441728, 25.066872], [121.441435, 25.067421], [121.440892, 25.067554], [121.440649, 25.067249], [121.440658, 25.066855], [121.440461, 25.066805], [121.442936, 25.066255], [121.443751, 25.066675], [121.444119, 25.066628], [121.444382, 25.06642], [121.444262, 25.066922], [121.443971, 25.066983], [121.444452, 25.067222], [121.444477, 25.067722], [121.443008, 25.065069], [121.443106, 25.064922], [121.443011, 25.064747], [121.443513, 25.064215], [121.445208, 25.063386], [121.446355, 25.063166], [121.446336, 25.062967], [121.442289, 25.059223], [121.437383, 25.058395], [121.437154, 25.059138], [121.437405, 25.059395], [121.436617, 25.060038], [121.432623, 25.061593], [121.432629, 25.061763], [121.43178, 25.062179], [121.431897, 25.062313], [121.432773, 25.061903], [121.43304, 25.06239], [121.432689, 25.062379], [121.432587, 25.062299], [121.432691, 25.062226], [121.432347, 25.062306], [121.432387, 25.062373], [121.432509, 25.062357], [121.432204, 25.062598], [121.432334, 25.062661], [121.432169, 25.062766], [121.432463, 25.063401], [121.432693, 25.063314], [121.432729, 25.063037], [121.43266, 25.062925], [121.432372, 25.062856], [121.432126, 25.063019], [121.432369, 25.063557], [121.432186, 25.063734], [121.43215, 25.063651], [121.431804, 25.063772], [121.431664, 25.063519], [121.431544, 25.063582], [121.431423, 25.063477], [121.431368, 25.063379], [121.431517, 25.063264], [121.431839, 25.063839], [121.430717, 25.063731], [121.430605, 25.063822], [121.430596, 25.063705], [121.43035, 25.063744], [121.43015, 25.063165], [121.431034, 25.062796], [121.431192, 25.062663], [121.431084, 25.06252], [121.429183, 25.063401], [121.428934, 25.063447], [121.429151, 25.063603], [121.429917, 25.06328], [121.430018, 25.063382], [121.429529, 25.063863], [121.429792, 25.064715], [121.430002, 25.064765], [121.42964, 25.064601], [121.429178, 25.064863], [121.429433, 25.065135], [121.429429, 25.065576], [121.427892, 25.065428], [121.428183, 25.065286], [121.428206, 25.065143], [121.428014, 25.065122], [121.428326, 25.065154], [121.427696, 25.064936], [121.427773, 25.064848], [121.427697, 25.064727], [121.427742, 25.064433], [121.427845, 25.064418], [121.42789, 25.064532], [121.427944, 25.064413], [121.428091, 25.064398], [121.428058, 25.064649], [121.428158, 25.064048], [121.428653, 25.063832], [121.42872, 25.064149], [121.429004, 25.063802], [121.429007, 25.063695], [121.428871, 25.063733], [121.429107, 25.063737], [121.429121, 25.064224], [121.42826, 25.063794], [121.427174, 25.064194], [121.427186, 25.064101], [121.42707, 25.064177], [121.426771, 25.064145], [121.423672, 25.063671], [121.424109, 25.063524], [121.424632, 25.063616], [121.424488, 25.063996], [121.424546, 25.064015], [121.424388, 25.064006], [121.424144, 25.06394], [121.424172, 25.06344], [121.425362, 25.063791], [121.42524, 25.064153], [121.424959, 25.064118], [121.424852, 25.064176], [121.424772, 25.064608], [121.42527, 25.064628], [121.425276, 25.064683], [121.425293, 25.064463], [121.425448, 25.064465], [121.425415, 25.064652], [121.425748, 25.064744], [121.42584, 25.064729], [121.425944, 25.064492], [121.425896, 25.064242], [121.425321, 25.064246], [121.426043, 25.064213], [121.426766, 25.064358], [121.427564, 25.064335], [121.427537, 25.064528], [121.427852, 25.064172], [121.428035, 25.064108], [121.427161, 25.065337], [121.426765, 25.065281], [121.426678, 25.065149], [121.426754, 25.065456], [121.426909, 25.065475], [121.426566, 25.065937], [121.426477, 25.065924], [121.430283, 25.064333], [121.430246, 25.064241], [121.430365, 25.064422], [121.430525, 25.064302], [121.430348, 25.063811], [121.430137, 25.063968], [121.430186, 25.064083], [121.430583, 25.064388], [121.43067, 25.064605], [121.430832, 25.064416], [121.430977, 25.064578], [121.43136, 25.064524], [121.431214, 25.064716], [121.431009, 25.064783], [121.430759, 25.065305], [121.431406, 25.062757], [121.431285, 25.062342], [121.430889, 25.062162], [121.430813, 25.06222], [121.431948, 25.062416], [121.43201, 25.062819], [121.431763, 25.062834], [121.432217, 25.061833], [121.432158, 25.061455], [121.432464, 25.061293], [121.432602, 25.06155], [121.432224, 25.060787], [121.432046, 25.060916], [121.432089, 25.061043], [121.432089, 25.060525], [121.431891, 25.059952], [121.431815, 25.060002], [121.431907, 25.060277], [121.431641, 25.060139], [121.431612, 25.060459], [121.431528, 25.060517], [121.431539, 25.060584], [121.431754, 25.060557], [121.430469, 25.060499]]}}, {"type": "Feature", "properties": {"district": "65000160", "segment": 8, "total_segments": 10, "km": 10.62, "villages": ["黎明里"]}, "geometry": {"type": "LineString", "coordinates": [[121.429328, 25.066147], [121.429799, 25.067818], [121.431252, 25.067544], [121.431672, 25.067516], [121.431719, 25.067616], [121.43187, 25.06717], [121.430387, 25.068846], [121.427054, 25.068711], [121.427096, 25.066889], [121.426941, 25.066806], [121.42729, 25.066853], [121.427433, 25.06663], [121.425519, 25.066372], [121.422924, 25.065332], [121.422228, 25.064756], [121.421773, 25.064665], [121.421072, 25.064202], [121.420676, 25.064069], [121.420279, 25.063657], [121.420136, 25.063207], [121.420188, 25.062778], [121.420487, 25.062502], [121.420707, 25.06255], [121.421075, 25.062904], [121.420942, 25.062955], [121.421081, 25.063084], [121.421333, 25.063111], [121.421396, 25.063001], [121.421288, 25.063281], [121.421426, 25.063357], [121.423456, 25.063657], [121.423371, 25.063827], [121.421762, 25.063595], [121.422133, 25.063905], [121.423627, 25.064436], [121.42362, 25.063891], [121.423822, 25.063888], [121.420797, 25.062184], [121.420733, 25.061611], [121.420803, 25.061393], [121.420939, 25.06128], [121.421007, 25.061335], [121.421175, 25.061261], [121.421069, 25.06105], [121.421801, 25.060175], [121.421627, 25.059978], [121.422128, 25.05958], [121.422295, 25.058991], [121.41966, 25.065579], [121.419616, 25.065895], [121.418133, 25.06608], [121.417994, 25.065802], [121.41683, 25.066275], [121.416671, 25.066369], [121.416742, 25.066786], [121.416452, 25.066954], [121.416804, 25.067392], [121.416986, 25.067378], [121.417865, 25.0668], [121.415429, 25.067584], [121.415204, 25.067093], [121.414125, 25.067979], [121.413316, 25.06777], [121.413143, 25.068582], [121.412701, 25.069036], [121.412148, 25.0701], [121.410468, 25.070294], [121.410123, 25.071273], [121.407359, 25.073058], [121.406888, 25.072723], [121.405223, 25.072662], [121.404045, 25.072712], [121.404123, 25.07305], [121.401365, 25.073647], [121.401244, 25.073327], [121.40576, 25.067951], [121.404779, 25.06541], [121.408388, 25.066507], [121.408478, 25.066731], [121.408934, 25.066511], [121.409412, 25.066659], [121.409621, 25.066844], [121.410034, 25.066935], [121.410077, 25.066684], [121.411542, 25.067121], [121.411759, 25.06707], [121.412458, 25.067367], [121.423728, 25.067977], [121.423806, 25.068054]]}}, {"type": "Feature", "properties": {"district": "65000160", "segment": 9, "total_segments": 10, "km": 14.81, "villages": ["大科里"]}, "geometry": {"type": "LineString", "coordinates": [[121.419667, 25.06471], [121.419137, 25.062617], [121.418591, 25.062055], [121.418994, 25.061412], [121.418999, 25.061274], [121.416877, 25.060958], [121.415883, 25.062572], [121.412947, 25.060901], [121.412818, 25.060719], [121.411922, 25.06034], [121.411826, 25.060377], [121.411597, 25.060208], [121.411979, 25.060045], [121.411275, 25.060247], [121.411098, 25.060116], [121.410947, 25.060164], [121.41102, 25.060281], [121.410945, 25.060368], [121.411023, 25.06041], [121.41052, 25.059913], [121.409948, 25.059618], [121.409949, 25.059375], [121.409675, 25.05903], [121.4097, 25.058927], [121.408894, 25.058719], [121.408709, 25.058799], [121.408752, 25.058889], [121.408387, 25.058867], [121.408937, 25.058488], [121.408916, 25.058316], [121.40811, 25.058138], [121.408022, 25.05793], [121.407484, 25.057676], [121.406898, 25.057599], [121.406987, 25.057455], [121.407174, 25.057371], [121.406914, 25.057231], [121.406613, 25.056902], [121.40642, 25.057035], [121.406352, 25.056713], [121.405906, 25.056791], [121.405921, 25.056688], [121.404935, 25.056558], [121.404592, 25.056108], [121.40404, 25.054909], [121.40416, 25.054614], [121.404032, 25.054506], [121.404117, 25.054425], [121.404032, 25.054327], [121.40397, 25.054356], [121.403987, 25.054185], [121.404107, 25.054107], [121.403802, 25.054445], [121.405863, 25.05513], [121.406733, 25.0553], [121.407008, 25.055491], [121.407378, 25.055571], [121.409259, 25.056838], [121.411815, 25.058372], [121.412566, 25.058742], [121.413136, 25.058653], [121.413765, 25.059368], [121.415012, 25.059745], [121.416697, 25.063266], [121.417248, 25.06368], [121.409974, 25.061313], [121.40981, 25.061709], [121.410296, 25.059518], [121.415835, 25.053653], [121.415596, 25.051519], [121.415747, 25.051057], [121.415904, 25.050899], [121.415278, 25.051108], [121.414873, 25.048126], [121.415345, 25.048067], [121.414319, 25.045971], [121.413944, 25.045582], [121.414143, 25.04356], [121.409296, 25.045255], [121.407153, 25.04481], [121.407003, 25.044602], [121.406639, 25.044623], [121.406521, 25.044901], [121.402702, 25.047457], [121.402593, 25.047385], [121.402767, 25.048176], [121.400698, 25.047637], [121.39973, 25.047691], [121.399204, 25.048092], [121.399018, 25.048035], [121.39986, 25.045649], [121.405444, 25.052017], [121.405668, 25.052089], [121.405381, 25.052562], [121.404512, 25.052563], [121.402144, 25.054011], [121.402112, 25.054765], [121.401577, 25.055089], [121.401445, 25.054633], [121.400936, 25.054529], [121.399699, 25.05549], [121.399549, 25.055461], [121.399482, 25.055563], [121.399355, 25.055563], [121.399566, 25.055986], [121.398782, 25.055456], [121.400033, 25.057157], [121.399789, 25.05733], [121.400048, 25.057697], [121.399397, 25.057866], [121.399155, 25.057745], [121.399169, 25.058099], [121.398984, 25.058259], [121.39908, 25.058446], [121.398981, 25.058539], [121.398761, 25.058356], [121.398772, 25.058164], [121.398057, 25.059089], [121.398269, 25.059181], [121.397873, 25.059286], [121.397782, 25.059741], [121.397316, 25.060548], [121.395958, 25.061336], [121.395773, 25.061526], [121.395842, 25.061865], [121.396034, 25.061831], [121.396089, 25.061748], [121.396285, 25.062181], [121.395728, 25.062324], [121.395537, 25.062501], [121.395471, 25.061813], [121.394777, 25.06297], [121.39438, 25.063325], [121.394053, 25.063386], [121.394021, 25.06351], [121.394358, 25.063808], [121.39482, 25.063441], [121.393636, 25.06384], [121.39342, 25.064248], [121.392756, 25.064524], [121.39273, 25.064623], [121.392451, 25.064752], [121.392258, 25.064652], [121.39207, 25.064788], [121.3924, 25.064987], [121.392377, 25.064553], [121.392703, 25.064308], [121.392989, 25.064166], [121.391808, 25.065202], [121.391826, 25.065527], [121.391623, 25.065513], [121.391477, 25.065], [121.391987, 25.066169], [121.391906, 25.066195], [121.39237, 25.066166], [121.392368, 25.066006]]}}, {"type": "Feature", "properties": {"district": "65000160", "segment": 10, "total_segments": 10, "km": 4.7, "villages": ["大科里"]}, "geometry": {"type": "LineString", "coordinates": [[121.38978, 25.06567], [121.388348, 25.065962], [121.387779, 25.0662], [121.387626, 25.065836], [121.386996, 25.066321], [121.385544, 25.066364], [121.384212, 25.065325], [121.38644, 25.068247], [121.384502, 25.069495], [121.39817, 25.065317], [121.398773, 25.059106], [121.399643, 25.05818], [121.400655, 25.056676], [121.400908, 25.056783], [121.407284, 25.051116]]}}]}