{"type": "FeatureCollection", "features": [{"type": "Feature", "properties": {"district": "65000040", "segment": 1, "total_segments": 12, "km": 9.06, "villages": ["上林里", "復興里", "光復里", "網溪里", "河堤里", "頂溪里"]}, "geometry": {"type": "LineString", "coordinates": [[121.51808, 25.014283], [121.518166, 25.014335], [121.518483, 25.014167], [121.518941, 25.014257], [121.518998, 25.014092], [121.518915, 25.014154], [121.518579, 25.014056], [121.518302, 25.013841], [121.518194, 25.013918], [121.51934, 25.012936], [121.519675, 25.012268], [121.519841, 25.012351], [121.519781, 25.012464], [121.520302, 25.012654], [121.521218, 25.013791], [121.521551, 25.013946], [121.521726, 25.013732], [121.521299, 25.014419], [121.521177, 25.014542], [121.521212, 25.014348], [121.520834, 25.014981], [121.520638, 25.015125], [121.520094, 25.014826], [121.519876, 25.014397], [121.519657, 25.014319], [121.519752, 25.014077], [121.52002, 25.01415], [121.519606, 25.01398], [121.519746, 25.013816], [121.519591, 25.013737], [121.519743, 25.015009], [121.520556, 25.015329], [121.520641, 25.015223], [121.519221, 25.014829], [121.518554, 25.014523], [121.521564, 25.013224], [121.520199, 25.015396], [121.520338, 25.015592], [121.519979, 25.015962], [121.519286, 25.015778], [121.518546, 25.015781], [121.518821, 25.014956], [121.51718, 25.015148], [121.517072, 25.015243], [121.517062, 25.015578], [121.51719, 25.015585], [121.51719, 25.015501], [121.517178, 25.015752], [121.517269, 25.015747], [121.517068, 25.015757], [121.516663, 25.015577], [121.516237, 25.015727], [121.516037, 25.015077], [121.516215, 25.015295], [121.516267, 25.015869], [121.516452, 25.01661], [121.51667, 25.01655], [121.516684, 25.016263], [121.516839, 25.016289], [121.516967, 25.016485], [121.517532, 25.01642], [121.517559, 25.01628], [121.517164, 25.016283], [121.517297, 25.016077], [121.517217, 25.015905], [121.517537, 25.016011], [121.517547, 25.015887], [121.517934, 25.015892], [121.517873, 25.016177], [121.517681, 25.016348], [121.518648, 25.016359], [121.518936, 25.016443], [121.518843, 25.016278], [121.517961, 25.016254], [121.518419, 25.016157], [121.518497, 25.015901], [121.518926, 25.015965], [121.519129, 25.016285], [121.519397, 25.016496], [121.519619, 25.016295], [121.519655, 25.016061], [121.519839, 25.016074], [121.518861, 25.016852], [121.51879, 25.016759], [121.518504, 25.016745], [121.518551, 25.016628], [121.518662, 25.016651], [121.51809, 25.016604], [121.518255, 25.015895], [121.516499, 25.015868], [121.516499, 25.015929], [121.516853, 25.016866], [121.516966, 25.017059], [121.517107, 25.016822], [121.517484, 25.017149], [121.517541, 25.017364], [121.517443, 25.01742], [121.517982, 25.017081], [121.517965, 25.016832], [121.518304, 25.016758], [121.518487, 25.017065], [121.518537, 25.017041], [121.518346, 25.017133], [121.517675, 25.016929], [121.516616, 25.017232], [121.516402, 25.017694], [121.516083, 25.017616], [121.516178, 25.017138], [121.516291, 25.01712], [121.515483, 25.017629], [121.515253, 25.017687], [121.515102, 25.017432], [121.515167, 25.01732], [121.514908, 25.01766], [121.514129, 25.017515], [121.513797, 25.017306], [121.51371, 25.017646], [121.513353, 25.017657], [121.513334, 25.017868], [121.513699, 25.017912], [121.513684, 25.018056], [121.51319, 25.018026], [121.513005, 25.017844], [121.512906, 25.017997], [121.512754, 25.017976], [121.512589, 25.017915], [121.512646, 25.017788], [121.512546, 25.017731], [121.512439, 25.017882], [121.512138, 25.017707], [121.512214, 25.017614], [121.512324, 25.017671], [121.512378, 25.017425], [121.512711, 25.017642], [121.513193, 25.017381], [121.513414, 25.01709], [121.513076, 25.016638], [121.512822, 25.016979], [121.511864, 25.017202], [121.513974, 25.017935], [121.513962, 25.018036], [121.515212, 25.017912], [121.514375, 25.017215], [121.514435, 25.017074], [121.514587, 25.017119], [121.515273, 25.019121], [121.515487, 25.017243], [121.515692, 25.016824], [121.51562, 25.016775], [121.515312, 25.016856], [121.515054, 25.017198], [121.514826, 25.016962], [121.514332, 25.017093], [121.513673, 25.01677], [121.513999, 25.015764], [121.514334, 25.015791], [121.514417, 25.015633], [121.514763, 25.015722], [121.514818, 25.015722], [121.514805, 25.015619], [121.51494, 25.015639], [121.51501, 25.015858], [121.515267, 25.015871], [121.51526, 25.015986], [121.515194, 25.015984], [121.515472, 25.015853], [121.515859, 25.015845], [121.515946, 25.01589], [121.515904, 25.016067], [121.515681, 25.015991], [121.515922, 25.015764], [121.515738, 25.015098], [121.515298, 25.015627], [121.51513, 25.015604], [121.515354, 25.015675], [121.514719, 25.015835], [121.514562, 25.015828], [121.51433, 25.015612], [121.513955, 25.015563], [121.513968, 25.015257], [121.514332, 25.015196], [121.514735, 25.015264], [121.514857, 25.016409], [121.515032, 25.016468], [121.515124, 25.01637], [121.515772, 25.016507]]}}, {"type": "Feature", "properties": {"district": "65000040", "segment": 2, "total_segments": 12, "km": 10.52, "villages": ["上溪里", "勵行里", "中興里", "永興里", "桂林里", "竹林里"]}, "geometry": {"type": "LineString", "coordinates": [[121.515651, 25.014888], [121.515327, 25.013666], [121.515125, 25.013646], [121.514935, 25.013976], [121.514621, 25.01413], [121.514151, 25.014026], [121.514334, 25.013923], [121.514331, 25.013773], [121.514544, 25.013818], [121.51453, 25.01356], [121.514973, 25.013623], [121.514732, 25.013772], [121.514594, 25.013989], [121.514499, 25.013951], [121.514889, 25.014201], [121.514975, 25.01413], [121.515104, 25.014167], [121.515105, 25.01404], [121.515239, 25.01408], [121.515322, 25.014361], [121.514991, 25.014557], [121.514073, 25.014494], [121.514046, 25.014558], [121.513846, 25.014542], [121.513773, 25.01453], [121.513795, 25.014407], [121.513987, 25.014432], [121.514114, 25.014563], [121.514108, 25.014745], [121.514802, 25.014714], [121.5148, 25.0148], [121.514483, 25.01483], [121.51447, 25.014888], [121.514016, 25.014743], [121.513628, 25.015098], [121.512789, 25.015156], [121.513073, 25.014648], [121.513299, 25.014627], [121.513089, 25.014555], [121.513115, 25.014154], [121.513718, 25.013912], [121.513692, 25.013468], [121.513207, 25.013412], [121.514191, 25.013545], [121.514455, 25.014358], [121.515238, 25.014732], [121.515286, 25.014942], [121.515447, 25.014829], [121.515594, 25.014886], [121.51596, 25.014804], [121.515999, 25.014857], [121.51543, 25.012822], [121.515801, 25.013368], [121.516642, 25.013754], [121.516357, 25.014087], [121.516364, 25.014285], [121.516014, 25.013992], [121.515935, 25.014009], [121.515884, 25.014071], [121.516067, 25.014234], [121.516921, 25.013437], [121.517712, 25.014141], [121.517575, 25.014259], [121.516602, 25.013599], [121.516472, 25.013236], [121.516146, 25.013046], [121.516144, 25.012959], [121.51568, 25.012843], [121.515538, 25.012648], [121.516003, 25.012355], [121.515925, 25.012231], [121.516266, 25.012082], [121.516414, 25.012234], [121.516215, 25.012376], [121.516228, 25.012643], [121.517039, 25.012958], [121.516805, 25.013399], [121.516261, 25.013009], [121.516646, 25.013079], [121.516774, 25.012988], [121.516788, 25.013162], [121.517033, 25.013258], [121.51738, 25.012375], [121.517248, 25.012335], [121.517083, 25.012889], [121.516487, 25.012628], [121.515932, 25.012717], [121.515465, 25.012273], [121.515684, 25.012084], [121.516873, 25.011719], [121.517518, 25.012], [121.517455, 25.012153], [121.517329, 25.012072], [121.517276, 25.012219], [121.517106, 25.012299], [121.517375, 25.012706], [121.517338, 25.012777], [121.518237, 25.01307], [121.51811, 25.013437], [121.51824, 25.013644], [121.518151, 25.013726], [121.518022, 25.01368], [121.517995, 25.013733], [121.518094, 25.013772], [121.517798, 25.014021], [121.517031, 25.013437], [121.516989, 25.013332], [121.517217, 25.012918], [121.517284, 25.012912], [121.51749, 25.013341], [121.517764, 25.013376], [121.517867, 25.013483], [121.51805, 25.013435], [121.517692, 25.013594], [121.518468, 25.013349], [121.518628, 25.013216], [121.518403, 25.012771], [121.517613, 25.012518], [121.517957, 25.012453], [121.518074, 25.012148], [121.519341, 25.012548], [121.519133, 25.0128], [121.518019, 25.01212], [121.517646, 25.011999], [121.517903, 25.011626], [121.518378, 25.011755], [121.5184, 25.012061], [121.519413, 25.012369], [121.520277, 25.010335], [121.51817, 25.010065], [121.518194, 25.010371], [121.518271, 25.010378], [121.518272, 25.010284], [121.518078, 25.010323], [121.51811, 25.010483], [121.518241, 25.010485], [121.518021, 25.010612], [121.517944, 25.010847], [121.517733, 25.010833], [121.517753, 25.010716], [121.517614, 25.01102], [121.517835, 25.011201], [121.517786, 25.011301], [121.517472, 25.011213], [121.517506, 25.011541], [121.517106, 25.011636], [121.517124, 25.010805], [121.517235, 25.010653], [121.517847, 25.010372], [121.517899, 25.010239], [121.517926, 25.010022], [121.517331, 25.009935], [121.518139, 25.011047], [121.518878, 25.010996], [121.518814, 25.011136], [121.519074, 25.010881], [121.51915, 25.01089], [121.519043, 25.010375], [121.519023, 25.011944], [121.519785, 25.012029], [121.519782, 25.012153], [121.519988, 25.011555], [121.521007, 25.011751], [121.521285, 25.011886], [121.521389, 25.012175], [121.521539, 25.012283], [121.521533, 25.011878], [121.521608, 25.011724], [121.521805, 25.011706], [121.521892, 25.011597], [121.522992, 25.01188], [121.523543, 25.011055], [121.522993, 25.011344], [121.522945, 25.010864], [121.523892, 25.010519], [121.52288, 25.012108], [121.522769, 25.012034], [121.522223, 25.013029], [121.522092, 25.012953], [121.521943, 25.013136], [121.522088, 25.013228], [121.521971, 25.013436], [121.521505, 25.011151], [121.52163, 25.010995], [121.521478, 25.010793], [121.521583, 25.010707], [121.52142, 25.010671], [121.521326, 25.010836], [121.521398, 25.010502], [121.520924, 25.010421], [121.520924, 25.010302], [121.521024, 25.010311], [121.520819, 25.010278], [121.520746, 25.010429], [121.520456, 25.010419], [121.520083, 25.011349], [121.520709, 25.010817], [121.520512, 25.010272], [121.520726, 25.009234], [121.521343, 25.010324], [121.521729, 25.010363], [121.521748, 25.010468], [121.521647, 25.010595], [121.521611, 25.010455], [121.52147, 25.010464], [121.522069, 25.010048], [121.522266, 25.010677], [121.52239, 25.010636], [121.522407, 25.010741], [121.522278, 25.010803], [121.522365, 25.010505], [121.522523, 25.010428], [121.522852, 25.010027], [121.522768, 25.00994], [121.522854, 25.009777], [121.522972, 25.009836], [121.523085, 25.009767], [121.522941, 25.009677], [121.523229, 25.009909], [121.524184, 25.009459], [121.524004, 25.010187], [121.523892, 25.010328], [121.52351, 25.010364], [121.523171, 25.009976]]}}, {"type": "Feature", "properties": {"district": "65000040", "segment": 3, "total_segments": 12, "km": 11.43, "villages": ["福林里", "永福里", "河濱里", "秀成里", "秀朗里", "秀和里"]}, "geometry": {"type": "LineString", "coordinates": [[121.523035, 25.009502], [121.522467, 25.008548], [121.522883, 25.008591], [121.523013, 25.00869], [121.523105, 25.008139], [121.523262, 25.008155], [121.523821, 25.008392], [121.522942, 25.008111], [121.520996, 25.007907], [121.520903, 25.008074], [121.520749, 25.009076], [121.521564, 25.008657], [121.521856, 25.008121], [121.522086, 25.008114], [121.522093, 25.008059], [121.522202, 25.007816], [121.522901, 25.007893], [121.523113, 25.007891], [121.523112, 25.007834], [121.523878, 25.008125], [121.523647, 25.008008], [121.524001, 25.007743], [121.524054, 25.0078], [121.524137, 25.007666], [121.524053, 25.00759], [121.523883, 25.007638], [121.523284, 25.00744], [121.52321, 25.007142], [121.523136, 25.007118], [121.52413, 25.006527], [121.524681, 25.007249], [121.524506, 25.007359], [121.52463, 25.007552], [121.524767, 25.007474], [121.524756, 25.00735], [121.524242, 25.007023], [121.524165, 25.006875], [121.523037, 25.007145], [121.522567, 25.006936], [121.522395, 25.006569], [121.522053, 25.007797], [121.521775, 25.007769], [121.524372, 25.008374], [121.524581, 25.008117], [121.524536, 25.008058], [121.524641, 25.008024], [121.524575, 25.007907], [121.524667, 25.008115], [121.525283, 25.00821], [121.525374, 25.007712], [121.525202, 25.007707], [121.525303, 25.007447], [121.525616, 25.007763], [121.526847, 25.005927], [121.526568, 25.006075], [121.526208, 25.006644], [121.526118, 25.006439], [121.526241, 25.006247], [121.526029, 25.00603], [121.524579, 25.006251], [121.524254, 25.006456], [121.527271, 25.005317], [121.526922, 25.001553], [121.527688, 25.001639], [121.527592, 25.002806], [121.528128, 25.003321], [121.528278, 25.003224], [121.528338, 25.003337], [121.528558, 25.00279], [121.528261, 25.0036], [121.52816, 25.003529], [121.52807, 25.003916], [121.527812, 25.003719], [121.527946, 25.003573], [121.527998, 25.003704], [121.528016, 25.003463], [121.527706, 25.003617], [121.527624, 25.003796], [121.527361, 25.003764], [121.52769, 25.003987], [121.527786, 25.004218], [121.527917, 25.004292], [121.528045, 25.004134], [121.527672, 25.004544], [121.527412, 25.004535], [121.527636, 25.004756], [121.527524, 25.004929], [121.527579, 25.005454], [121.526973, 25.004986], [121.525977, 25.005038], [121.525803, 25.004919], [121.52589, 25.00489], [121.525694, 25.004784], [121.525804, 25.004427], [121.526084, 25.004402], [121.52632, 25.004157], [121.526025, 25.003752], [121.526221, 25.003643], [121.525814, 25.003461], [121.525232, 25.003506], [121.525279, 25.003316], [121.525478, 25.003306], [121.525476, 25.003253], [121.526015, 25.00327], [121.52606, 25.00316], [121.526038, 25.002918], [121.525785, 25.00308], [121.525285, 25.002891], [121.525249, 25.002761], [121.525796, 25.002559], [121.52611, 25.002542], [121.526229, 25.002739], [121.526728, 25.002905], [121.526893, 25.004048], [121.525724, 25.003932], [121.525684, 25.00373], [121.525347, 25.003858], [121.525392, 25.004033], [121.524589, 25.004143], [121.524617, 25.004242], [121.524898, 25.004398], [121.525512, 25.004007], [121.526786, 25.002703], [121.526733, 25.0021], [121.526605, 25.002136], [121.52673, 25.001912], [121.526716, 25.001731], [121.526242, 25.002051], [121.526365, 25.002193], [121.525708, 25.00193], [121.525471, 25.001647], [121.525175, 25.001666], [121.525222, 25.00181], [121.525866, 25.001547], [121.516982, 25.003917], [121.520856, 25.003998], [121.521954, 25.003056], [121.52201, 25.003227], [121.52211, 25.003255], [121.522149, 25.003172], [121.522393, 25.003271], [121.52397, 25.004199], [121.523391, 25.004562], [121.523254, 25.004557], [121.523267, 25.004436], [121.523429, 25.004337], [121.523103, 25.004544], [121.522886, 25.004576], [121.522933, 25.00437], [121.522877, 25.003976], [121.522101, 25.003712], [121.522098, 25.003858], [121.522352, 25.003906], [121.521972, 25.003827], [121.52186, 25.003947], [121.521901, 25.003987], [121.52171, 25.003891], [121.521677, 25.003766], [121.521781, 25.00378], [121.52189, 25.00334], [121.521722, 25.003001], [121.521915, 25.00283], [121.522586, 25.002602], [121.522423, 25.002095], [121.521994, 25.002117], [121.521858, 25.002204], [121.521917, 25.002359], [121.521232, 25.002528], [121.521339, 25.002739], [121.521637, 25.002999], [121.520939, 25.00359], [121.520908, 25.003169], [121.520788, 25.003076], [121.522352, 25.004428], [121.5234, 25.004807], [121.523864, 25.00451], [121.524259, 25.004601], [121.524469, 25.004531], [121.524539, 25.005116], [121.52473, 25.005528], [121.524755, 25.005829], [121.524568, 25.005752], [121.524305, 25.005084], [121.524881, 25.005229], [121.52505, 25.005131], [121.525099, 25.005606], [121.525045, 25.005649], [121.525493, 25.005657], [121.525656, 25.005747], [121.525742, 25.00563], [121.525391, 25.005341], [121.525532, 25.005223], [121.525872, 25.00535], [121.525217, 25.004951], [121.524528, 25.005856], [121.524454, 25.006076], [121.523319, 25.006689]]}}, {"type": "Feature", "properties": {"district": "65000040", "segment": 4, "total_segments": 12, "km": 10.68, "villages": ["秀林里", "秀元里", "秀得里", "民樂里", "民本里", "民富里"]}, "geometry": {"type": "LineString", "coordinates": [[121.524278, 25.004043], [121.523051, 25.003316], [121.522889, 25.002789], [121.523969, 25.002691], [121.523866, 25.003423], [121.523714, 25.0034], [121.52362, 25.002515], [121.523465, 25.002506], [121.523989, 25.002485], [121.524363, 25.002854], [121.524275, 25.003659], [121.525108, 25.003553], [121.525138, 25.00387], [121.525217, 25.00387], [121.524336, 25.00403], [121.524186, 25.003661], [121.523918, 25.003571], [121.523198, 25.002527], [121.523197, 25.002274], [121.522969, 25.002303], [121.522891, 25.002361], [121.522929, 25.002566], [121.522808, 25.002562], [121.522567, 25.001807], [121.523172, 25.001752], [121.52311, 25.001598], [121.522681, 25.001624], [121.52247, 25.001512], [121.522358, 25.001156], [121.523515, 25.001367], [121.523618, 25.001455], [121.523603, 25.001572], [121.523309, 25.001585], [121.523505, 25.001724], [121.52435, 25.001676], [121.524377, 25.001525], [121.524773, 25.0015], [121.524727, 25.001646], [121.525025, 25.001636], [121.524544, 25.001674], [121.524487, 25.001906], [121.524633, 25.001844], [121.524643, 25.001953], [121.524839, 25.002], [121.524254, 25.001473], [121.523715, 25.001555], [121.524394, 25.001284], [121.524913, 25.001503], [121.52539, 25.001476], [121.524711, 25.000782], [121.524848, 25.00068], [121.524484, 25.000713], [121.524271, 25.000589], [121.524033, 25.000643], [121.523933, 25.000512], [121.5241, 25.000401], [121.523772, 25.000099], [121.523159, 25.000178], [121.52353, 25.00069], [121.524179, 25.000783], [121.523806, 24.999607], [121.52455, 24.999509], [121.524617, 24.999691], [121.523716, 24.999614], [121.522011, 24.999897], [121.522342, 25.001], [121.522749, 25.000678], [121.524737, 24.999465], [121.526046, 24.999238], [121.526349, 24.999291], [121.526375, 24.999752], [121.526236, 24.999735], [121.526394, 25.001137], [121.526067, 25.00137], [121.525518, 25.001455], [121.526507, 25.000547], [121.526612, 25.000546], [121.526596, 24.999268], [121.526362, 24.999236], [121.526151, 24.999459], [121.526411, 24.999889], [121.526453, 25.000286], [121.526869, 25.000391], [121.526887, 25.000876], [121.527482, 25.00091], [121.527488, 25.000974], [121.527323, 24.999892], [121.526896, 24.999919], [121.52677, 24.998323], [121.527351, 24.9984], [121.527367, 24.998545], [121.527514, 24.998655], [121.527528, 24.998841], [121.528026, 24.998858], [121.527973, 24.998972], [121.528395, 24.998956], [121.528367, 24.998836], [121.528157, 24.998848], [121.52828, 24.999102], [121.528401, 24.999102], [121.528349, 24.999231], [121.528137, 24.999239], [121.528693, 24.999157], [121.52885, 25.000255], [121.528744, 25.00065], [121.528668, 25.000629], [121.527517, 25.001399], [121.526898, 25.000153], [121.528685, 24.999088], [121.528579, 24.998723], [121.528213, 24.997677], [121.527594, 24.996149], [121.52745, 24.996262], [121.526666, 24.996245], [121.526661, 24.996163], [121.52673, 24.997713], [121.526502, 24.99769], [121.5265, 24.997812], [121.526341, 24.997748], [121.526505, 24.997564], [121.526475, 24.99742], [121.526146, 24.997407], [121.52619, 24.997281], [121.526478, 24.997258], [121.526444, 24.996709], [121.526867, 24.996953], [121.526883, 24.997068], [121.527264, 24.996908], [121.527353, 24.996677], [121.527377, 24.995751], [121.527332, 24.995634], [121.52717, 24.995687], [121.52709, 24.995487], [121.527255, 24.995465], [121.527128, 24.994934], [121.526754, 24.994947], [121.526644, 24.995974], [121.526965, 24.997748], [121.527712, 24.997674], [121.527691, 24.997515], [121.527411, 24.997495], [121.527786, 24.997517], [121.52797, 24.997451], [121.528006, 24.997529], [121.526171, 24.997866], [121.526141, 24.997575], [121.525963, 24.997609], [121.525952, 24.997898], [121.525846, 24.997915], [121.52579, 24.997578], [121.525848, 24.998076], [121.52587, 24.998279], [121.526046, 24.99829], [121.526097, 24.999009], [121.524645, 24.999244], [121.524715, 24.999004], [121.524628, 24.998857], [121.525521, 24.998648], [121.525773, 24.998743], [121.525809, 24.998683], [121.525487, 24.998537], [121.52567, 24.998305], [121.525475, 24.998131], [121.524414, 24.998283], [121.524468, 24.998688], [121.525278, 24.998558], [121.525656, 24.998848], [121.525889, 24.99891], [121.526242, 24.998775], [121.526224, 24.99833], [121.526187, 24.998235], [121.526035, 24.998216], [121.526016, 24.998061], [121.526186, 24.998053], [121.526197, 24.997982], [121.526527, 24.997983], [121.52657, 24.998888], [121.526291, 24.998982], [121.52677, 24.998175], [121.526758, 24.997908], [121.527286, 24.997827], [121.527314, 24.998134], [121.527453, 24.998111], [121.527436, 24.997882], [121.527228, 24.998238], [121.527684, 24.998344], [121.527984, 24.998209], [121.528284, 24.99822], [121.528379, 24.998349], [121.528104, 24.998347], [121.528523, 24.998491], [121.528573, 24.998658], [121.528319, 24.997922], [121.528112, 24.997827], [121.52559, 24.998085], [121.525719, 24.998178], [121.525029, 24.99895], [121.524528, 24.998869]]}}, {"type": "Feature", "properties": {"district": "65000040", "segment": 5, "total_segments": 12, "km": 10.12, "villages": ["民生里", "永元里", "得和里", "福和里"]}, "geometry": {"type": "LineString", "coordinates": [[121.524363, 24.998884], [121.523939, 24.99895], [121.523919, 24.999186], [121.523843, 24.999146], [121.523776, 24.998798], [121.523951, 24.998768], [121.523927, 24.998656], [121.523573, 24.99871], [121.523556, 24.998839], [121.523438, 24.998847], [121.523385, 24.998732], [121.52328, 24.998752], [121.523369, 24.999248], [121.523264, 24.999272], [121.523218, 24.999048], [121.522986, 24.999074], [121.52312, 24.999402], [121.523034, 24.999469], [121.524466, 24.999282], [121.524416, 24.999053], [121.52412, 24.999104], [121.524077, 24.998758], [121.524307, 24.998712], [121.524188, 24.998457], [121.523966, 24.998479], [121.523885, 24.998368], [121.523775, 24.998393], [121.523777, 24.998509], [121.52355, 24.998562], [121.523651, 24.998266], [121.525662, 24.997952], [121.525594, 24.99779], [121.52409, 24.997564], [121.523961, 24.997771], [121.523787, 24.997778], [121.523788, 24.997971], [121.52351, 24.998229], [121.523064, 24.998238], [121.523199, 24.998606], [121.523406, 24.998574], [121.523353, 24.998468], [121.523456, 24.998437], [121.523045, 24.998596], [121.523136, 24.998788], [121.523512, 24.998999], [121.523555, 24.999224], [121.523672, 24.999211], [121.523673, 24.998829], [121.524016, 24.998349], [121.524207, 24.998315], [121.524228, 24.99795], [121.524301, 24.997943], [121.524163, 24.997838], [121.524347, 24.997816], [121.5246, 24.998006], [121.524714, 24.997814], [121.524682, 24.997495], [121.525234, 24.997596], [121.523755, 24.997413], [121.523712, 24.997199], [121.522709, 24.997208], [121.522623, 24.996793], [121.522746, 24.997609], [121.522859, 24.997755], [121.522868, 24.998367], [121.521774, 24.999945], [121.521881, 25.000386], [121.521513, 25.000456], [121.521402, 24.999975], [121.521688, 24.999924], [121.520598, 25.000092], [121.520344, 25.000167], [121.520352, 25.000224], [121.520079, 25.00018], [121.519205, 25.000316], [121.519234, 25.000553], [121.519334, 25.000534], [121.519345, 25.000603], [121.519601, 25.000502], [121.519672, 25.000902], [121.51945, 25.000948], [121.519487, 25.001081], [121.520346, 25.000868], [121.520261, 25.000739], [121.519806, 25.000858], [121.520489, 25.001257], [121.520257, 25.001523], [121.520159, 25.001411], [121.520201, 25.001349], [121.519925, 25.001727], [121.520364, 25.002008], [121.520526, 25.001876], [121.520551, 25.002191], [121.520632, 25.002298], [121.520359, 25.002242], [121.520303, 25.002299], [121.520333, 25.002514], [121.520117, 25.002544], [121.520116, 25.002448], [121.52045, 25.002796], [121.520665, 25.002656], [121.520765, 25.00279], [121.52052, 25.002894], [121.520901, 25.00256], [121.520835, 25.002496], [121.521022, 25.001906], [121.520787, 25.001496], [121.52057, 25.000865], [121.520439, 25.000703], [121.520353, 25.000703], [121.520764, 25.000276], [121.520856, 25.000376], [121.520981, 25.000222], [121.521149, 25.000847], [121.52126, 25.000938], [121.521263, 25.001138], [121.521069, 25.001199], [121.52096, 25.00139], [121.520532, 25.001453], [121.520544, 25.00119], [121.521402, 25.001222], [121.521855, 25.002009], [121.52191, 25.001978], [121.521549, 25.002183], [121.522093, 25.001882], [121.522292, 25.001705], [121.522291, 25.001619], [121.522024, 25.00072], [121.520276, 25.000146], [121.519253, 25.001251], [121.519875, 25.001692], [121.519761, 25.00205], [121.519454, 25.002615], [121.519311, 25.003024], [121.519395, 25.003114], [121.519619, 25.003085], [121.519616, 25.003216], [121.519325, 25.003287], [121.519199, 25.003158], [121.517491, 25.003441], [121.517549, 25.003057], [121.517627, 25.002995], [121.517545, 25.0028], [121.517661, 25.002629], [121.517615, 25.002301], [121.517814, 25.000311], [121.519036, 25.000327], [121.519098, 25.001028], [121.518969, 25.002072], [121.519056, 25.002167], [121.519102, 25.003065], [121.519936, 25.003206], [121.520171, 25.003147], [121.520035, 25.003007], [121.519801, 25.00306], [121.520354, 25.00292], [121.520399, 25.003094], [121.518595, 25.003492], [121.517528, 25.003587], [121.517402, 25.004163], [121.517455, 25.004237], [121.517569, 25.004253], [121.519586, 25.004428], [121.519399, 25.004625], [121.517392, 25.00446], [121.517105, 25.007281], [121.519058, 25.007486], [121.51913, 25.006733], [121.518857, 25.006693], [121.518794, 25.006591], [121.518416, 25.006487], [121.518275, 25.006736], [121.518189, 25.006194], [121.51853, 25.006219], [121.518581, 25.005753], [121.518522, 25.005593], [121.519499, 25.004785], [121.519017, 25.004817], [121.519029, 25.004954], [121.518647, 25.004792], [121.518712, 25.00471], [121.518681, 25.004922], [121.518243, 25.004987], [121.517992, 25.004895], [121.518023, 25.004634], [121.517827, 25.004929], [121.517693, 25.00486], [121.517724, 25.004746], [121.517967, 25.005034], [121.517907, 25.005285], [121.517763, 25.005304], [121.518039, 25.005511], [121.518024, 25.005642], [121.517917, 25.005684], [121.517914, 25.00588], [121.51789, 25.005588], [121.517522, 25.005612], [121.517539, 25.0059], [121.518442, 25.005249], [121.51856, 25.005248], [121.518399, 25.004681], [121.518464, 25.004205], [121.518613, 25.004183], [121.518172, 25.004067], [121.518244, 25.004208], [121.520124, 25.00427], [121.520781, 25.003738], [121.521038, 25.00586]]}}, {"type": "Feature", "properties": {"district": "65000040", "segment": 6, "total_segments": 12, "km": 9.38, "villages": ["永貞里", "光明里", "豫溪里", "大新里"]}, "geometry": {"type": "LineString", "coordinates": [[121.521135, 25.006136], [121.521187, 25.006143], [121.521004, 25.006208], [121.521101, 25.006883], [121.521042, 25.007132], [121.521593, 25.007152], [121.521534, 25.007582], [121.521673, 25.007569], [121.521745, 25.007206], [121.521642, 25.007061], [121.52152, 25.007742], [121.519249, 25.007509], [121.519323, 25.006961], [121.520094, 25.007], [121.52027, 25.006932], [121.520245, 25.006644], [121.520372, 25.006623], [121.520365, 25.006699], [121.520443, 25.006721], [121.520572, 25.006677], [121.520528, 25.006564], [121.520373, 25.006514], [121.520362, 25.006384], [121.520579, 25.00629], [121.52052, 25.006168], [121.520751, 25.006105], [121.520729, 25.005935], [121.520102, 25.005156], [121.519653, 25.004968], [121.519175, 25.005413], [121.519298, 25.005551], [121.519201, 25.005662], [121.51928, 25.00573], [121.519246, 25.005801], [121.51912, 25.005775], [121.519027, 25.005906], [121.5188, 25.005918], [121.518925, 25.00577], [121.518724, 25.005731], [121.518929, 25.005494], [121.51912, 25.005589], [121.519198, 25.005926], [121.519396, 25.005851], [121.519697, 25.006144], [121.519825, 25.006049], [121.519741, 25.005974], [121.520038, 25.006235], [121.520455, 25.006179], [121.52024, 25.006413], [121.519808, 25.006294], [121.519552, 25.006305], [121.519445, 25.006161], [121.519278, 25.006417], [121.519298, 25.006759], [121.519945, 25.006823], [121.520866, 25.006683], [121.520799, 25.006302], [121.521878, 25.005777], [121.522208, 25.006277], [121.521739, 25.007763], [121.521633, 25.007758], [121.519095, 25.005984], [121.518955, 25.006141], [121.51877, 25.007668], [121.517069, 25.007515], [121.517004, 25.008001], [121.517061, 25.008165], [121.516937, 25.008767], [121.517361, 25.008137], [121.517833, 25.00821], [121.518372, 25.008108], [121.518238, 25.007995], [121.51778, 25.008098], [121.518338, 25.007941], [121.518817, 25.007675], [121.520739, 25.007905], [121.520648, 25.008429], [121.519134, 25.008258], [121.519115, 25.00811], [121.519183, 25.008083], [121.519513, 25.00813], [121.519168, 25.008441], [121.518723, 25.008466], [121.518606, 25.008336], [121.518485, 25.008413], [121.51895, 25.008237], [121.518985, 25.008068], [121.518478, 25.00885], [121.518127, 25.008852], [121.51824, 25.008567], [121.518372, 25.008596], [121.518411, 25.009172], [121.518345, 25.009179], [121.518623, 25.009257], [121.518513, 25.009527], [121.518589, 25.009556], [121.519384, 25.00973], [121.519421, 25.009596], [121.520013, 25.009712], [121.519962, 25.010158], [121.519528, 25.010034], [121.51909, 25.010064], [121.516542, 25.009767], [121.516881, 25.009309], [121.516894, 25.009112], [121.516681, 25.009054], [121.516514, 25.00942], [121.516154, 25.009781], [121.515751, 25.009814], [121.515662, 25.009841], [121.515667, 25.009944], [121.514884, 25.010154], [121.514826, 25.010002], [121.514549, 25.00984], [121.514272, 25.008929], [121.51463, 25.009276], [121.514652, 25.009417], [121.514984, 25.009315], [121.51486, 25.009146], [121.515366, 25.009837], [121.515536, 25.009829], [121.516517, 25.008944], [121.517832, 25.009347], [121.518006, 25.009493], [121.517739, 25.009658], [121.518701, 25.009697], [121.518718, 25.009782], [121.519349, 25.009886], [121.519306, 25.009551], [121.519138, 25.009528], [121.519967, 25.009398], [121.519966, 25.009217], [121.5201, 25.00911], [121.520424, 25.009169], [121.520287, 25.010217], [121.520576, 25.008735], [121.516741, 25.008458], [121.516731, 25.008535], [121.516754, 25.008336], [121.516627, 25.008336], [121.51656, 25.008246], [121.51496, 25.008461], [121.514984, 25.00859], [121.515998, 25.008424], [121.515834, 25.008637], [121.515578, 25.00874], [121.515518, 25.008151], [121.515402, 25.008138], [121.515417, 25.008014], [121.515237, 25.008002], [121.515248, 25.008138], [121.515061, 25.008143], [121.515081, 25.007985], [121.514917, 25.007972], [121.514747, 25.008141], [121.514362, 25.008115], [121.514404, 25.008006], [121.514249, 25.007866], [121.514686, 25.007561], [121.514791, 25.007689], [121.515143, 25.007621], [121.515116, 25.007736], [121.515036, 25.007306], [121.516603, 25.007447], [121.516822, 25.007484], [121.516751, 25.008205], [121.516448, 25.008149], [121.516426, 25.007967], [121.516534, 25.007982], [121.516569, 25.007866], [121.516468, 25.007862], [121.516478, 25.00774], [121.51632, 25.007904], [121.516316, 25.007984], [121.516385, 25.007969], [121.515657, 25.008144], [121.51473, 25.008622], [121.514726, 25.008473], [121.514598, 25.008503], [121.514423, 25.008238], [121.514208, 25.008109], [121.514075, 25.008077], [121.514065, 25.008132], [121.514256, 25.008892], [121.514602, 25.00893], [121.514688, 25.008853], [121.514711, 25.008933], [121.514876, 25.008937], [121.514567, 25.00884], [121.514109, 25.007976], [121.51669, 25.008798]]}}, {"type": "Feature", "properties": {"district": "65000040", "segment": 7, "total_segments": 12, "km": 11.49, "villages": ["店街里", "永安里", "永樂里", "協和里", "和平里"]}, "geometry": {"type": "LineString", "coordinates": [[121.51683, 25.007264], [121.516868, 25.007209], [121.516725, 25.007255], [121.515131, 25.007089], [121.514896, 25.006865], [121.514715, 25.006579], [121.51509, 25.006561], [121.515412, 25.006412], [121.515525, 25.006507], [121.51548, 25.00627], [121.515622, 25.006173], [121.515665, 25.006012], [121.516985, 25.006087], [121.516893, 25.007008], [121.514722, 25.007254], [121.514093, 25.007741], [121.513931, 25.007659], [121.514005, 25.006949], [121.514424, 25.006648], [121.514582, 25.006839], [121.516232, 25.004971], [121.516255, 25.004754], [121.516387, 25.00458], [121.516685, 25.004495], [121.516769, 25.004393], [121.517144, 25.004442], [121.517057, 25.005427], [121.516912, 25.00532], [121.516856, 25.005028], [121.516545, 25.004856], [121.516824, 25.004212], [121.517176, 25.004209], [121.517243, 25.00378], [121.51702, 25.003849], [121.516757, 25.004182], [121.516971, 25.005692], [121.51601, 25.005129], [121.516033, 25.005041], [121.515722, 25.004698], [121.515775, 25.004669], [121.515351, 25.004281], [121.515651, 25.004636], [121.51605, 25.00479], [121.516066, 25.004876], [121.516113, 25.004701], [121.515949, 25.004468], [121.516006, 25.004269], [121.516345, 25.004354], [121.516342, 25.004433], [121.516455, 25.004144], [121.516206, 25.004097], [121.5163, 25.003912], [121.515911, 25.003533], [121.515786, 25.003618], [121.515694, 25.00352], [121.51575, 25.003481], [121.515595, 25.003681], [121.515388, 25.003646], [121.515352, 25.003894], [121.514907, 25.003783], [121.51488, 25.003987], [121.514597, 25.003973], [121.514569, 25.004102], [121.514894, 25.004206], [121.514679, 25.004635], [121.514435, 25.004624], [121.514427, 25.004858], [121.514538, 25.004196], [121.514975, 25.00402], [121.515946, 25.004258], [121.515958, 25.004035], [121.515572, 25.003915], [121.515535, 25.003831], [121.515695, 25.00375], [121.515766, 25.003792], [121.515036, 25.004258], [121.515345, 25.00468], [121.514994, 25.004915], [121.514838, 25.005328], [121.51513, 25.005573], [121.5153, 25.00556], [121.51525, 25.005499], [121.515387, 25.005644], [121.515228, 25.005816], [121.5155, 25.005882], [121.515519, 25.005947], [121.515425, 25.006124], [121.51515, 25.006084], [121.514879, 25.00621], [121.515129, 25.006432], [121.514576, 25.006481], [121.514462, 25.006131], [121.514437, 25.005667], [121.514538, 25.005462], [121.514832, 25.005865], [121.515683, 25.005581], [121.515828, 25.005443], [121.516634, 25.004021], [121.516846, 25.003817], [121.516738, 25.003782], [121.514452, 25.004001], [121.514278, 25.00431], [121.514202, 25.005065], [121.514311, 25.005953], [121.514175, 25.00604], [121.514283, 25.006173], [121.5141, 25.006267], [121.513722, 25.006239], [121.514126, 25.006672], [121.514285, 25.006479], [121.514149, 25.006011], [121.513761, 25.005582], [121.513672, 25.00537], [121.513359, 25.005126], [121.513519, 25.004954], [121.513522, 25.005045], [121.513652, 25.005122], [121.513561, 25.004763], [121.513673, 25.004657], [121.513696, 25.00448], [121.513945, 25.004518], [121.51375, 25.004843], [121.513236, 25.004935], [121.513072, 25.004792], [121.513351, 25.004718], [121.513257, 25.004351], [121.513483, 25.004278], [121.513147, 25.005258], [121.513545, 25.005653], [121.513635, 25.005887], [121.513835, 25.006032], [121.514062, 25.0056], [121.513135, 25.005561], [121.51314, 25.005365], [121.513092, 25.006114], [121.513277, 25.006965], [121.513788, 25.007529], [121.513792, 25.007037], [121.513519, 25.007586], [121.513594, 25.00765], [121.513221, 25.008025], [121.513089, 25.007956], [121.513158, 25.007728], [121.513208, 25.007711], [121.513269, 25.008137], [121.513405, 25.008127], [121.513099, 25.008269], [121.512988, 25.008227], [121.512912, 25.00855], [121.513005, 25.008535], [121.513047, 25.008451], [121.512742, 25.008565], [121.511765, 25.008338], [121.511772, 25.007948], [121.511704, 25.007895], [121.511936, 25.007687], [121.512239, 25.007716], [121.512387, 25.007573], [121.51109, 25.006917], [121.511046, 25.006881], [121.51117, 25.006754], [121.511963, 25.007182], [121.512469, 25.007124], [121.512684, 25.006881], [121.512528, 25.006785], [121.512413, 25.006898], [121.512573, 25.007288], [121.512964, 25.006911], [121.512449, 25.00795], [121.512538, 25.007993], [121.512574, 25.008185], [121.513788, 25.008016], [121.513931, 25.008613], [121.511088, 25.006709], [121.511678, 25.006066], [121.51028, 25.007488], [121.510154, 25.007786], [121.509833, 25.007799], [121.509437, 25.007457], [121.508652, 25.008293], [121.509221, 25.008758], [121.509344, 25.008703], [121.509308, 25.008815], [121.510055, 25.009441], [121.510358, 25.009153], [121.510471, 25.009289], [121.510209, 25.009583], [121.510685, 25.009948], [121.510626, 25.009177], [121.510916, 25.008921], [121.511165, 25.00935], [121.511258, 25.009377], [121.511214, 25.009499], [121.511476, 25.009762], [121.511308, 25.009892], [121.510986, 25.009883], [121.511075, 25.009624], [121.51154, 25.009554], [121.511617, 25.009621], [121.511613, 25.009308], [121.511715, 25.009303], [121.511684, 25.009389], [121.512126, 25.009294], [121.512586, 25.009445], [121.5126, 25.009639], [121.512695, 25.009041], [121.512825, 25.008774], [121.511861, 25.008516], [121.51153, 25.008554], [121.511089, 25.008774], [121.510995, 25.008597], [121.511327, 25.00844], [121.511603, 25.008631], [121.511943, 25.008612], [121.511962, 25.008908], [121.512221, 25.008804], [121.512446, 25.008907], [121.512171, 25.00987], [121.510859, 25.008713], [121.510538, 25.008976], [121.509903, 25.008796], [121.509766, 25.008603], [121.510753, 25.008328], [121.509341, 25.008058], [121.508944, 25.007684], [121.508741, 25.007778], [121.508726, 25.007913], [121.508452, 25.00811], [121.507872, 25.007666], [121.508076, 25.00763], [121.507844, 25.00737], [121.507711, 25.007545], [121.507785, 25.007602], [121.507534, 25.007319], [121.507446, 25.007329], [121.507104, 25.007062], [121.507614, 25.006865], [121.509084, 25.007511], [121.509191, 25.007412]]}}, {"type": "Feature", "properties": {"district": "65000040", "segment": 8, "total_segments": 12, "km": 9.55, "villages": ["前溪里", "信義里", "正興里", "後溪里", "仁愛里", "新廍里"]}, "geometry": {"type": "LineString", "coordinates": [[121.510893, 25.009989], [121.510903, 25.010142], [121.511157, 25.010333], [121.51132, 25.010264], [121.511526, 25.010401], [121.511464, 25.01056], [121.511672, 25.01065], [121.511796, 25.010518], [121.511883, 25.010584], [121.51204, 25.010505], [121.512486, 25.010052], [121.512375, 25.009987], [121.511169, 25.009994], [121.511893, 25.010465], [121.512166, 25.010195], [121.512311, 25.010655], [121.512047, 25.010689], [121.51341, 25.010423], [121.513636, 25.009976], [121.514047, 25.009989], [121.51421, 25.009755], [121.51429, 25.009799], [121.514046, 25.008915], [121.512937, 25.00883], [121.512794, 25.009268], [121.512999, 25.009195], [121.513001, 25.009062], [121.512737, 25.00946], [121.512654, 25.009847], [121.513421, 25.00986], [121.513397, 25.009661], [121.513016, 25.009999], [121.512813, 25.01], [121.512811, 25.010804], [121.51196, 25.010986], [121.511327, 25.010798], [121.511409, 25.012096], [121.512421, 25.011579], [121.51265, 25.011643], [121.512911, 25.011446], [121.5128, 25.011232], [121.513172, 25.011218], [121.513598, 25.011434], [121.513827, 25.01171], [121.513497, 25.011714], [121.513165, 25.011911], [121.513145, 25.011579], [121.51343, 25.01097], [121.513434, 25.010757], [121.51341, 25.010687], [121.513253, 25.010722], [121.513237, 25.010823], [121.513177, 25.010749], [121.512976, 25.010802], [121.513706, 25.010637], [121.514048, 25.011199], [121.514411, 25.011557], [121.514149, 25.011545], [121.514375, 25.011754], [121.514448, 25.011954], [121.51469, 25.011927], [121.514703, 25.011748], [121.51482, 25.011705], [121.514518, 25.010618], [121.514168, 25.012052], [121.515138, 25.01188], [121.514759, 25.010416], [121.515508, 25.010185], [121.515828, 25.010167], [121.516236, 25.009972], [121.516337, 25.010026], [121.516375, 25.009927], [121.516785, 25.009979], [121.517203, 25.009913], [121.516886, 25.010009], [121.516888, 25.010121], [121.516688, 25.010051], [121.516676, 25.010171], [121.516939, 25.010256], [121.516924, 25.010756], [121.516763, 25.01084], [121.516682, 25.010699], [121.516503, 25.010697], [121.515782, 25.010937], [121.515552, 25.010424], [121.515492, 25.01047], [121.515616, 25.010894], [121.515259, 25.010899], [121.515423, 25.010681], [121.51583, 25.010741], [121.515947, 25.011051], [121.515853, 25.011082], [121.516628, 25.010862], [121.516786, 25.011158], [121.516616, 25.011204], [121.516596, 25.011337], [121.516812, 25.01135], [121.517018, 25.010742], [121.517277, 25.010538], [121.517263, 25.010245], [121.516418, 25.010454], [121.516395, 25.010371], [121.516271, 25.010389], [121.516273, 25.010468], [121.516059, 25.010363], [121.516252, 25.010195], [121.516237, 25.010126], [121.516354, 25.010132], [121.515043, 25.010685], [121.515645, 25.011491], [121.515661, 25.011625], [121.515216, 25.01207], [121.514911, 25.012111], [121.514845, 25.011797], [121.514411, 25.012174], [121.51408, 25.012308], [121.51362, 25.012361], [121.513539, 25.012529], [121.513434, 25.012537], [121.513437, 25.012683], [121.513315, 25.01227], [121.513533, 25.012187], [121.513155, 25.012323], [121.513077, 25.012378], [121.51321, 25.012499], [121.512896, 25.012739], [121.512737, 25.012597], [121.512534, 25.012968], [121.51286, 25.012528], [121.512902, 25.011952], [121.512556, 25.012022], [121.512273, 25.011983], [121.512375, 25.011808], [121.512279, 25.011785], [121.512308, 25.011673], [121.512455, 25.011725], [121.512043, 25.011689], [121.513282, 25.013247], [121.513668, 25.013289], [121.514746, 25.012729], [121.515073, 25.012679], [121.51501, 25.01244], [121.515268, 25.013457], [121.513097, 25.013213], [121.512693, 25.013155], [121.512697, 25.013333], [121.512571, 25.013366], [121.512439, 25.014181], [121.512462, 25.015069], [121.512266, 25.015127], [121.512179, 25.014623], [121.512386, 25.013311], [121.511626, 25.013142], [121.511587, 25.012959], [121.51245, 25.013089], [121.512914, 25.013432], [121.512938, 25.013372], [121.513039, 25.013393], [121.512122, 25.013826], [121.511407, 25.01326], [121.511273, 25.013253], [121.511098, 25.013385], [121.510628, 25.013212], [121.510735, 25.013016], [121.510905, 25.013035], [121.510967, 25.012841], [121.510773, 25.012772], [121.511062, 25.012169], [121.51147, 25.012717], [121.51165, 25.012635], [121.511852, 25.012675], [121.511808, 25.012766], [121.512156, 25.012593], [121.512305, 25.012633], [121.512313, 25.0125], [121.512398, 25.012515], [121.511418, 25.012935], [121.511006, 25.012848], [121.511191, 25.013129], [121.511335, 25.013138], [121.510568, 25.01331], [121.512255, 25.015255], [121.512692, 25.015188], [121.512695, 25.015385], [121.512028, 25.015531], [121.512036, 25.015665], [121.511637, 25.015764], [121.511189, 25.016124], [121.511045, 25.01615], [121.511076, 25.016436], [121.510839, 25.01632], [121.510318, 25.01661], [121.511316, 25.017633], [121.511974, 25.01775], [121.511815, 25.016666], [121.511923, 25.016506], [121.512783, 25.015468], [121.512776, 25.015374], [121.513843, 25.015244]]}}, {"type": "Feature", "properties": {"district": "65000040", "segment": 9, "total_segments": 12, "km": 10.34, "villages": ["文化里", "永成里", "忠義里", "新生里", "大同里", "下溪里", "中溪里"]}, "geometry": {"type": "LineString", "coordinates": [[121.511975, 25.014836], [121.51158, 25.015518], [121.509828, 25.014993], [121.509955, 25.015326], [121.509503, 25.015702], [121.509298, 25.015564], [121.509165, 25.015669], [121.509205, 25.015711], [121.508968, 25.015457], [121.508809, 25.015397], [121.50918, 25.01543], [121.509281, 25.015045], [121.509573, 25.014717], [121.509724, 25.014399], [121.509857, 25.014348], [121.50988, 25.014277], [121.509781, 25.014289], [121.509981, 25.013851], [121.510417, 25.01346], [121.510808, 25.014328], [121.511288, 25.014231], [121.509784, 25.014486], [121.509509, 25.01579], [121.509762, 25.016054], [121.509874, 25.016042], [121.509895, 25.016217], [121.510175, 25.016478], [121.510415, 25.016255], [121.510549, 25.016255], [121.510967, 25.015996], [121.509704, 25.016259], [121.509214, 25.015833], [121.509099, 25.016019], [121.509562, 25.016354], [121.509746, 25.01631], [121.510052, 25.016633], [121.509622, 25.016992], [121.509698, 25.016773], [121.509858, 25.016939], [121.51014, 25.016737], [121.510585, 25.017221], [121.510419, 25.017323], [121.510044, 25.016921], [121.509745, 25.017068], [121.509346, 25.016888], [121.50893, 25.016302], [121.508358, 25.015795], [121.508548, 25.015604], [121.508265, 25.015841], [121.508421, 25.016005], [121.508116, 25.015958], [121.508024, 25.016095], [121.508922, 25.01668], [121.508944, 25.016622], [121.508834, 25.016596], [121.508893, 25.016151], [121.50839, 25.015559], [121.508228, 25.015689], [121.50812, 25.015572], [121.508023, 25.015619], [121.507308, 25.014983], [121.507391, 25.014899], [121.508015, 25.015482], [121.508037, 25.015794], [121.507911, 25.015964], [121.508442, 25.015509], [121.508374, 25.015426], [121.507348, 25.015552], [121.507004, 25.015239], [121.506952, 25.015194], [121.506675, 25.014922], [121.50698, 25.01465], [121.507288, 25.014914], [121.506007, 25.013763], [121.505859, 25.013915], [121.506053, 25.014032], [121.505989, 25.014089], [121.506049, 25.014157], [121.505632, 25.013816], [121.505892, 25.013571], [121.505223, 25.012961], [121.505041, 25.013317], [121.505158, 25.013476], [121.505538, 25.013861], [121.505601, 25.013842], [121.505504, 25.013409], [121.505667, 25.01351], [121.505822, 25.01338], [121.505489, 25.013072], [121.505673, 25.012905], [121.505877, 25.013121], [121.505809, 25.013293], [121.505941, 25.013292], [121.505928, 25.013486], [121.505999, 25.013502], [121.506399, 25.01315], [121.505846, 25.012874], [121.506338, 25.013502], [121.506408, 25.013455], [121.506496, 25.013587], [121.506294, 25.013795], [121.506172, 25.013662], [121.506234, 25.013603], [121.507228, 25.014429], [121.507505, 25.014711], [121.507185, 25.014486], [121.507063, 25.014574], [121.507349, 25.014859], [121.507722, 25.014439], [121.507575, 25.014288], [121.507791, 25.014211], [121.508745, 25.015243], [121.508638, 25.015315], [121.508788, 25.014991], [121.50873, 25.014911], [121.507629, 25.01372], [121.507818, 25.013387], [121.507766, 25.013199], [121.507561, 25.013235], [121.507577, 25.013319], [121.507532, 25.013164], [121.507268, 25.013325], [121.506883, 25.012905], [121.507236, 25.012509], [121.50746, 25.012602], [121.507577, 25.012529], [121.507977, 25.012859], [121.508022, 25.01299], [121.508339, 25.013203], [121.508364, 25.013582], [121.508783, 25.014201], [121.508906, 25.01412], [121.508847, 25.013958], [121.508751, 25.013919], [121.508929, 25.01428], [121.509095, 25.014334], [121.509328, 25.014191], [121.509567, 25.01422], [121.509389, 25.014612], [121.509089, 25.014884], [121.508924, 25.014845], [121.508786, 25.014581], [121.508195, 25.014059], [121.508148, 25.013879], [121.508567, 25.01354], [121.508906, 25.013455], [121.50901, 25.01356], [121.509099, 25.013459], [121.509488, 25.013685], [121.50962, 25.013632], [121.509829, 25.013724], [121.509767, 25.013844], [121.509688, 25.013842], [121.509581, 25.014166], [121.509255, 25.013939], [121.508928, 25.013297], [121.508966, 25.013206], [121.509046, 25.013311], [121.509402, 25.013143], [121.509636, 25.013374], [121.509484, 25.013436], [121.509371, 25.013379], [121.509239, 25.013057], [121.508781, 25.012933], [121.51016, 25.013359], [121.509865, 25.013641], [121.506893, 25.013279], [121.506749, 25.013157], [121.506494, 25.013359], [121.506635, 25.013476], [121.506837, 25.013305], [121.50647, 25.013008], [121.50654, 25.01285], [121.505517, 25.012189], [121.505375, 25.012207], [121.505269, 25.012018], [121.507398, 25.012389], [121.508186, 25.011609], [121.508619, 25.01193], [121.508759, 25.011756], [121.508353, 25.011494], [121.50836, 25.011412], [121.509748, 25.010007], [121.510067, 25.009817], [121.510778, 25.010369], [121.510728, 25.010655], [121.510577, 25.010656], [121.510601, 25.010751], [121.510842, 25.010758], [121.511044, 25.01058], [121.511125, 25.010659], [121.510988, 25.010535], [121.510599, 25.01052], [121.510503, 25.010416], [121.509823, 25.010208], [121.509624, 25.010497], [121.509441, 25.01054], [121.509512, 25.010893], [121.509912, 25.011429], [121.510494, 25.012088], [121.510811, 25.012268], [121.510689, 25.012509], [121.510259, 25.01259], [121.50954, 25.01227], [121.509412, 25.01243], [121.510468, 25.012902], [121.510293, 25.013277], [121.50943, 25.012989], [121.509594, 25.012788], [121.509244, 25.012354], [121.508842, 25.012107], [121.508973, 25.011912], [121.509022, 25.011946], [121.508893, 25.011849], [121.509118, 25.012462], [121.509064, 25.012529], [121.508481, 25.012476], [121.508424, 25.012596], [121.508351, 25.012534], [121.508374, 25.012393], [121.508543, 25.012837], [121.508101, 25.012045], [121.51088, 25.012104], [121.510891, 25.011686]]}}, {"type": "Feature", "properties": {"district": "65000040", "segment": 10, "total_segments": 12, "km": 9.29, "villages": ["保順里", "保安里", "保平里"]}, "geometry": {"type": "LineString", "coordinates": [[121.504564, 25.011688], [121.504611, 25.010416], [121.50405, 25.009875], [121.504703, 25.009105], [121.504293, 25.008811], [121.504234, 25.008654], [121.503861, 25.008353], [121.503528, 25.008297], [121.503535, 25.008121], [121.50335, 25.008002], [121.50326, 25.008166], [121.503389, 25.008423], [121.502669, 25.00855], [121.502133, 25.008505], [121.503104, 25.007801], [121.503059, 25.007705], [121.502748, 25.007594], [121.502678, 25.007497], [121.501067, 25.007967], [121.5004, 25.00838], [121.500256, 25.009047], [121.501414, 25.009456], [121.501586, 25.009153], [121.501919, 25.009255], [121.501884, 25.009335], [121.501088, 25.009657], [121.500842, 25.00957], [121.500965, 25.009469], [121.500814, 25.009817], [121.501227, 25.010162], [121.501258, 25.010328], [121.501379, 25.01044], [121.501573, 25.010483], [121.50195, 25.010795], [121.502228, 25.010859], [121.502645, 25.011213], [121.503539, 25.010403], [121.503565, 25.010349], [121.503327, 25.010198], [121.503329, 25.010084], [121.502975, 25.010111], [121.502982, 25.00987], [121.503114, 25.009658], [121.503605, 25.009487], [121.503807, 25.010117], [121.503228, 25.010484], [121.503187, 25.010444], [121.503144, 25.010593], [121.502795, 25.010637], [121.502593, 25.011264], [121.503201, 25.011884], [121.50361, 25.011318], [121.504547, 25.012075], [121.504363, 25.012644], [121.499881, 25.00899], [121.499083, 25.008647], [121.503252, 25.007449], [121.503327, 25.007616], [121.503802, 25.008], [121.503692, 25.007602], [121.503772, 25.007524], [121.503907, 25.007592], [121.50407, 25.007529], [121.504116, 25.007405], [121.504003, 25.007283], [121.503518, 25.007502], [121.505632, 25.008144], [121.505859, 25.008532], [121.505297, 25.009012], [121.505293, 25.009248], [121.50635, 25.009933], [121.506409, 25.010062], [121.506526, 25.010073], [121.506685, 25.009958], [121.508233, 25.008395], [121.508225, 25.0083], [121.507977, 25.008101], [121.507609, 25.008302], [121.507296, 25.008022], [121.506982, 25.008098], [121.506653, 25.007938], [121.506593, 25.007847], [121.50674, 25.00751], [121.507046, 25.007344], [121.506985, 25.007753], [121.506478, 25.008062], [121.506419, 25.008182], [121.506423, 25.008019], [121.506139, 25.008285], [121.506862, 25.008354], [121.506812, 25.008828], [121.506725, 25.008814], [121.506886, 25.008956], [121.507053, 25.00887], [121.507098, 25.008984], [121.507281, 25.008864], [121.507315, 25.008761], [121.507223, 25.008726], [121.507351, 25.008589], [121.507646, 25.007837], [121.50978, 25.009589], [121.509819, 25.009692], [121.509699, 25.009814], [121.508626, 25.010751], [121.507725, 25.01136], [121.507204, 25.011039], [121.50547, 25.010715], [121.508216, 25.009334], [121.508238, 25.008733], [121.506386, 25.007251], [121.50656, 25.006965], [121.505643, 25.006216], [121.505955, 25.006941], [121.506515, 25.00655], [121.506965, 25.006922], [121.50669, 25.00633], [121.506451, 25.006396], [121.506401, 25.006281], [121.506597, 25.006195], [121.506189, 25.006268], [121.505844, 25.005998], [121.507303, 25.005777], [121.507666, 25.006136], [121.507499, 25.00632], [121.508028, 25.006732], [121.508122, 25.006655], [121.509482, 25.007071], [121.510108, 25.006388], [121.510169, 25.006298], [121.510009, 25.006146], [121.509104, 25.00542], [121.508965, 25.005483], [121.508993, 25.005325], [121.508605, 25.00509], [121.508144, 25.004645], [121.510318, 25.0065], [121.50991, 25.007028], [121.509651, 25.007211], [121.510436, 25.006482], [121.510781, 25.006736]]}}, {"type": "Feature", "properties": {"district": "65000040", "segment": 11, "total_segments": 12, "km": 9.88, "villages": ["水源里", "安和里", "雙和里", "潭墘里"]}, "geometry": {"type": "LineString", "coordinates": [[121.510872, 25.006579], [121.510533, 25.006272], [121.510695, 25.006152], [121.511052, 25.006447], [121.511067, 25.006118], [121.51114, 25.006027], [121.51104, 25.006005], [121.511272, 25.005773], [121.511341, 25.005844], [121.511377, 25.005789], [121.511271, 25.005952], [121.511485, 25.005901], [121.511767, 25.005449], [121.511708, 25.005353], [121.511797, 25.005265], [121.511437, 25.005591], [121.511288, 25.00567], [121.511196, 25.005584], [121.510766, 25.006034], [121.510541, 25.005923], [121.511123, 25.005314], [121.511002, 25.005246], [121.510851, 25.005315], [121.510469, 25.005741], [121.510219, 25.005837], [121.510085, 25.005979], [121.510342, 25.006153], [121.509986, 25.005892], [121.509586, 25.00531], [121.509672, 25.005235], [121.509756, 25.005302], [121.509952, 25.005115], [121.50985, 25.005027], [121.509359, 25.004771], [121.509236, 25.004814], [121.509441, 25.004977], [121.509411, 25.005311], [121.509317, 25.005352], [121.508314, 25.004519], [121.50933, 25.00413], [121.509624, 25.004423], [121.510059, 25.004357], [121.511146, 25.004602], [121.511363, 25.004796], [121.511688, 25.004821], [121.511888, 25.004947], [121.511832, 25.005058], [121.512016, 25.00486], [121.512052, 25.005016], [121.512373, 25.004988], [121.512678, 25.005084], [121.512676, 25.005177], [121.512125, 25.005667], [121.512213, 25.005722], [121.512142, 25.005775], [121.51193, 25.005656], [121.511883, 25.005718], [121.511936, 25.005759], [121.5117, 25.005805], [121.511905, 25.006002], [121.512158, 25.005869], [121.512275, 25.005977], [121.512314, 25.006042], [121.512265, 25.006101], [121.512194, 25.006049], [121.512053, 25.006183], [121.512103, 25.006226], [121.512189, 25.006152], [121.511874, 25.006029], [121.512334, 25.005836], [121.512286, 25.005652], [121.512587, 25.005565], [121.512604, 25.005399], [121.512903, 25.005266], [121.512875, 25.006044], [121.51267, 25.005902], [121.512726, 25.006172], [121.512782, 25.006226], [121.512878, 25.006126], [121.512779, 25.006327], [121.512865, 25.006404], [121.512832, 25.006477], [121.512496, 25.006211], [121.512901, 25.005206], [121.51166, 25.005117], [121.51131, 25.005455], [121.510701, 25.005272], [121.510511, 25.005485], [121.510507, 25.005264], [121.510637, 25.005134], [121.510953, 25.004405], [121.51114, 25.004464], [121.510053, 25.004147], [121.510341, 25.00346], [121.510581, 25.002601], [121.510714, 25.002421], [121.511475, 25.003299], [121.510979, 25.003398], [121.511077, 25.003614], [121.510564, 25.00353], [121.510745, 25.002691], [121.510423, 25.002649], [121.510253, 25.00291], [121.510315, 25.002992], [121.51024, 25.003102], [121.510001, 25.003324], [121.50978, 25.003301], [121.5098, 25.002979], [121.509717, 25.002741], [121.509816, 25.002581], [121.509894, 25.002581], [121.50942, 25.002121], [121.510028, 25.001652], [121.510586, 25.002326], [121.510145, 25.002186], [121.510072, 25.002261], [121.510022, 25.001983], [121.509936, 25.002063], [121.50982, 25.001946], [121.510109, 25.002582], [121.510088, 25.002699], [121.51001, 25.002774], [121.509335, 25.002611], [121.508982, 25.002679], [121.509043, 25.003108], [121.509168, 25.003078], [121.509066, 25.00337], [121.508958, 25.002546], [121.509012, 25.002347], [121.511944, 25.003844], [121.512268, 25.004216], [121.511994, 25.004194], [121.51206, 25.004315], [121.511997, 25.004543], [121.511928, 25.004411], [121.511789, 25.004656], [121.51214, 25.004779], [121.512516, 25.004532], [121.512827, 25.004945], [121.509867, 25.001506], [121.509377, 25.000891], [121.509143, 25.000731], [121.509019, 25.000501], [121.508406, 24.99991], [121.507718, 24.999777], [121.507524, 24.999801], [121.507528, 24.999907], [121.5074, 24.99978], [121.506772, 24.999799], [121.507216, 25.000082], [121.507418, 25.000088], [121.50781, 25.000781], [121.507385, 25.000893], [121.507381, 25.000957], [121.508056, 25.001498], [121.508052, 25.00199], [121.508191, 25.001963], [121.508227, 25.001844], [121.508884, 25.002238], [121.509585, 25.001512], [121.509299, 25.001142], [121.509377, 25.001011], [121.508431, 25.000434], [121.514151, 25.000088], [121.514366, 25.000511], [121.514992, 25.001184], [121.515229, 25.001566], [121.515108, 25.001963], [121.515324, 25.002256], [121.515473, 25.002661], [121.515373, 25.002728], [121.515336, 25.002683], [121.515262, 25.002795], [121.515345, 25.003098], [121.515469, 25.003067], [121.515402, 25.0028], [121.514903, 25.002832], [121.514675, 25.003701], [121.515517, 25.003177], [121.514903, 25.002753], [121.51505, 25.002239], [121.51567, 25.002245], [121.514963, 25.000832], [121.515552, 25.000477], [121.515785, 25.000152], [121.516324, 25.000028], [121.516119, 25.000262], [121.516147, 24.99983], [121.515235, 24.999182], [121.514925, 25.000022], [121.514784, 25.000111], [121.514173, 25.000015], [121.514264, 24.999481], [121.51699, 25.003609]]}}, {"type": "Feature", "properties": {"district": "65000040", "segment": 12, "total_segments": 12, "km": 11.35, "villages": ["潭安里", "民治里", "民族里", "民權里", "智光里"]}, "geometry": {"type": "LineString", "coordinates": [[121.517416, 25.001754], [121.517582, 25.000294], [121.51753, 24.999953], [121.517369, 24.99964], [121.51694, 24.999161], [121.516875, 24.999236], [121.516914, 24.999309], [121.516904, 24.999026], [121.515044, 24.996908], [121.514966, 24.996916], [121.513878, 24.995565], [121.51504, 24.998097], [121.514814, 24.998273], [121.514337, 24.998913], [121.514285, 24.999264], [121.51552, 24.998514], [121.515641, 24.998655], [121.516393, 24.99897], [121.516531, 24.998874], [121.516697, 24.999955], [121.516474, 25.000006], [121.51663, 25.000187], [121.516821, 25.000177], [121.51687, 25.0], [121.517308, 25.000046], [121.517167, 25.000221], [121.517065, 25.000198], [121.517321, 25.000879], [121.517881, 25.000067], [121.517416, 24.999294], [121.515885, 24.997487], [121.516045, 24.997393], [121.515927, 24.997279], [121.516218, 24.997042], [121.516403, 24.997383], [121.516961, 24.997923], [121.517081, 24.997834], [121.517136, 24.997872], [121.516478, 24.997115], [121.516891, 24.996845], [121.517464, 24.997643], [121.517642, 24.997563], [121.517094, 24.996787], [121.516879, 24.996821], [121.516782, 24.996678], [121.516577, 24.996724], [121.516319, 24.996949], [121.517278, 24.998262], [121.517007, 24.998472], [121.517128, 24.998627], [121.517662, 24.998197], [121.518323, 24.99896], [121.518179, 24.999065], [121.517384, 24.998165], [121.517884, 24.997891], [121.517733, 24.99765], [121.517968, 24.998058], [121.518136, 24.997995], [121.517816, 24.99813], [121.517317, 24.998104], [121.517214, 24.99798], [121.518086, 24.999319], [121.518452, 24.999669], [121.518475, 24.999789], [121.517956, 24.999752], [121.517735, 24.999308], [121.517758, 24.999196], [121.517477, 24.998996], [121.518, 24.999436], [121.518243, 24.999934], [121.51817, 25.000037], [121.51822, 25.000087], [121.518315, 25.000054], [121.518013, 25.000067], [121.518198, 24.998585], [121.518117, 24.998506], [121.518496, 24.998376], [121.518416, 24.997935], [121.519178, 24.997846], [121.519088, 24.99772], [121.518781, 24.997749], [121.519128, 24.997681], [121.519463, 24.997668], [121.519443, 24.997809], [121.519364, 24.997812], [121.51983, 24.997588], [121.519706, 24.996568], [121.519548, 24.996647], [121.518517, 24.996741], [121.51845, 24.997048], [121.518551, 24.997146], [121.518259, 24.997112], [121.518475, 24.997574], [121.518798, 24.998677], [121.51902, 24.998936], [121.518638, 24.999018], [121.518905, 24.999957], [121.518758, 24.999969], [121.518663, 24.999773], [121.518783, 25.000115], [121.518469, 25.000082], [121.519011, 25.000117], [121.520239, 24.999918], [121.519921, 24.998018], [121.519592, 24.998403], [121.519644, 24.998807], [121.519309, 24.998757], [121.519346, 24.999064], [121.519796, 24.999002], [121.519828, 24.999436], [121.519581, 24.999463], [121.519567, 24.999604], [121.519139, 24.999655], [121.519243, 24.99982], [121.519337, 24.999814], [121.519608, 24.999781], [121.519748, 24.99958], [121.519898, 24.999566], [121.518178, 24.995823], [121.517931, 24.995823], [121.517562, 24.995975], [121.517266, 24.995919], [121.517667, 24.995777], [121.51883, 24.996053], [121.519028, 24.996502], [121.518953, 24.99653], [121.520148, 24.996379], [121.520229, 24.996347], [121.5202, 24.996233], [121.519917, 24.996272], [121.520026, 24.996815], [121.520225, 24.996655], [121.520012, 24.997262], [121.520119, 24.997924], [121.520502, 24.998305], [121.520833, 24.998034], [121.521231, 24.997975], [121.521255, 24.997854], [121.521359, 24.99785], [121.521175, 24.997791], [121.522026, 24.998063], [121.52218, 24.997681], [121.522589, 24.997818], [121.522726, 24.999328], [121.521281, 24.999684], [121.521266, 24.996665], [121.516618, 24.995598], [121.516568, 24.995543], [121.516412, 24.995658], [121.516189, 24.99558], [121.516519, 24.995727], [121.515998, 24.996119], [121.515728, 24.995868], [121.515543, 24.99607], [121.515818, 24.996373], [121.515698, 24.996457], [121.516085, 24.996927], [121.516226, 24.99683], [121.516129, 24.996723], [121.516209, 24.996456], [121.516069, 24.996208], [121.515518, 24.99628], [121.515241, 24.996501], [121.514777, 24.995884], [121.514895, 24.995795], [121.515171, 24.996112], [121.515299, 24.995994], [121.514754, 24.995384], [121.514885, 24.995262], [121.51495, 24.995341], [121.515336, 24.99517], [121.51543, 24.995045], [121.515573, 24.995121], [121.515615, 24.995071], [121.515248, 24.995705], [121.515426, 24.996158], [121.51501, 24.996528], [121.513125, 24.994382], [121.512804, 24.993759], [121.515649, 24.997258]]}}]}