{"type": "FeatureCollection", "features": [{"type": "Feature", "properties": {"district": "65000080", "segment": 1, "total_segments": 14, "km": 14.99, "villages": ["中湖里"]}, "geometry": {"type": "LineString", "coordinates": [[121.3424, 24.961363], [121.342583, 24.961353], [121.34216, 24.961704], [121.34187, 24.961442], [121.341786, 24.960935], [121.342066, 24.960883], [121.342777, 24.961724], [121.342591, 24.963071], [121.342453, 24.963054], [121.342358, 24.963226], [121.342447, 24.963308], [121.34244, 24.963467], [121.342578, 24.963471], [121.342575, 24.963632], [121.342449, 24.963685], [121.34259, 24.963248], [121.34245, 24.962893], [121.342477, 24.962632], [121.342574, 24.963855], [121.342753, 24.96432], [121.342635, 24.964427], [121.342874, 24.964649], [121.342718, 24.964691], [121.342601, 24.964345], [121.343129, 24.965764], [121.343294, 24.965701], [121.343646, 24.966079], [121.344068, 24.966276], [121.344044, 24.966847], [121.344381, 24.967131], [121.344101, 24.967757], [121.344342, 24.967971], [121.343896, 24.968109], [121.343781, 24.968702], [121.342948, 24.96931], [121.342781, 24.969138], [121.342296, 24.969091], [121.342375, 24.968886], [121.341947, 24.969529], [121.341986, 24.969772], [121.342488, 24.970141], [121.344534, 24.970107], [121.345002, 24.970362], [121.345446, 24.970976], [121.345841, 24.970931], [121.345367, 24.970499], [121.345552, 24.970085], [121.345451, 24.970058], [121.345687, 24.969918], [121.345115, 24.96992], [121.345006, 24.970117], [121.345839, 24.969352], [121.346002, 24.969099], [121.346428, 24.969212], [121.346502, 24.969074], [121.346371, 24.970706], [121.346543, 24.971201], [121.346208, 24.971322], [121.346129, 24.971678], [121.346295, 24.972022], [121.346315, 24.972262], [121.346101, 24.97277], [121.345095, 24.973269], [121.346013, 24.973016], [121.346292, 24.97308], [121.346283, 24.972813], [121.346461, 24.972241], [121.346667, 24.972203], [121.34657, 24.972664], [121.346416, 24.972849], [121.346662, 24.973008], [121.346898, 24.972796], [121.34703, 24.972894], [121.34712, 24.972799], [121.34764, 24.97271], [121.348845, 24.972823], [121.349085, 24.973019], [121.348843, 24.972954], [121.348795, 24.973207], [121.349119, 24.973189], [121.349395, 24.973416], [121.349485, 24.97334], [121.349226, 24.973138], [121.34916, 24.972879], [121.348664, 24.972935], [121.348373, 24.972563], [121.348058, 24.972365], [121.348062, 24.972284], [121.348366, 24.972485], [121.347714, 24.972514], [121.347447, 24.972343], [121.347691, 24.972095], [121.348098, 24.972981], [121.348472, 24.974059], [121.349313, 24.974047], [121.34951, 24.97383], [121.349416, 24.973579], [121.349459, 24.973531], [121.349686, 24.973681], [121.34997, 24.974556], [121.349531, 24.975474], [121.348822, 24.975384], [121.348632, 24.976163], [121.348211, 24.976462], [121.348243, 24.976838], [121.348359, 24.976683], [121.348468, 24.976687], [121.348495, 24.976919], [121.348774, 24.976762], [121.347956, 24.977516], [121.346963, 24.978093], [121.346505, 24.978076], [121.346212, 24.978673], [121.346016, 24.979352], [121.34554, 24.97935], [121.345056, 24.979596], [121.34521, 24.979936], [121.344203, 24.980077], [121.343613, 24.980998], [121.349064, 24.978287], [121.351369, 24.974628], [121.345458, 24.971505], [121.344149, 24.973407], [121.344142, 24.973631], [121.343465, 24.973333], [121.342757, 24.973237], [121.342409, 24.973084], [121.342133, 24.972925], [121.341979, 24.972521], [121.341481, 24.972397], [121.341251, 24.97295], [121.341242, 24.973075], [121.341392, 24.973101], [121.341396, 24.973045], [121.341382, 24.973267], [121.341044, 24.973821], [121.340473, 24.973809], [121.340479, 24.973656], [121.34066, 24.973661], [121.340096, 24.973721], [121.340004, 24.973826], [121.33976, 24.973717], [121.339789, 24.974004], [121.339634, 24.974076], [121.339658, 24.974875], [121.340015, 24.974889], [121.339981, 24.975059], [121.34004, 24.975071], [121.339203, 24.975045], [121.339445, 24.975667], [121.341355, 24.97462], [121.341472, 24.974624], [121.341418, 24.974457], [121.341309, 24.974333], [121.341191, 24.974325], [121.341191, 24.974165], [121.34113, 24.974163], [121.341313, 24.97417], [121.340628, 24.972119], [121.340104, 24.972266], [121.33853, 24.971846], [121.340412, 24.968917], [121.340852, 24.968752], [121.341006, 24.968799], [121.340656, 24.967829], [121.341092, 24.967704], [121.34122, 24.967743], [121.339303, 24.967376], [121.338792, 24.965722], [121.33826, 24.965478], [121.338203, 24.965234], [121.338453, 24.965092], [121.338537, 24.964777], [121.338659, 24.963737], [121.338612, 24.963561], [121.3383, 24.964824], [121.33923, 24.965186], [121.339645, 24.965175], [121.339782, 24.964814], [121.342337, 24.96587], [121.347872, 24.965629], [121.343532, 24.960228], [121.343311, 24.960138], [121.340055, 24.959715], [121.339977, 24.959422], [121.339628, 24.959499], [121.339427, 24.960386], [121.339151, 24.960887], [121.339149, 24.961024], [121.33922, 24.961066], [121.339422, 24.961041], [121.339196, 24.961238], [121.339041, 24.961219], [121.339003, 24.961425], [121.339125, 24.96152], [121.339303, 24.96136], [121.338966, 24.961857], [121.340258, 24.96113], [121.339916, 24.958551], [121.340892, 24.957967], [121.340951, 24.958067], [121.341134, 24.958093], [121.341391, 24.958002], [121.34141, 24.957723], [121.341602, 24.957629], [121.341775, 24.957677], [121.341595, 24.957788], [121.3417, 24.957563]]}}, {"type": "Feature", "properties": {"district": "65000080", "segment": 2, "total_segments": 14, "km": 14.33, "villages": ["中湖里", "東湖里", "建德里"]}, "geometry": {"type": "LineString", "coordinates": [[121.341204, 24.956943], [121.341481, 24.956884], [121.34152, 24.956957], [121.341389, 24.95702], [121.34162, 24.95691], [121.341566, 24.956844], [121.341956, 24.956928], [121.340843, 24.95745], [121.35184, 24.969766], [121.351138, 24.970904], [121.351491, 24.971934], [121.351426, 24.972121], [121.35158, 24.97229], [121.351171, 24.972599], [121.351003, 24.972605], [121.351142, 24.972823], [121.350974, 24.973012], [121.351719, 24.972252], [121.35261, 24.972209], [121.352447, 24.97166], [121.35302, 24.971528], [121.353127, 24.971703], [121.354402, 24.972277], [121.354523, 24.972179], [121.354505, 24.972436], [121.355096, 24.972568], [121.355661, 24.971442], [121.357443, 24.972869], [121.357838, 24.97324], [121.357755, 24.973319], [121.357996, 24.97314], [121.358098, 24.973381], [121.35944, 24.974089], [121.358239, 24.974175], [121.357871, 24.976041], [121.357788, 24.976108], [121.358844, 24.976405], [121.355423, 24.973777], [121.351563, 24.975174], [121.363476, 24.975286], [121.363707, 24.976015], [121.364135, 24.976031], [121.372817, 24.968491], [121.373289, 24.967594], [121.376068, 24.963552], [121.376976, 24.962557], [121.376721, 24.962308], [121.375241, 24.96202], [121.373836, 24.960216], [121.372594, 24.959413], [121.371749, 24.958979], [121.369471, 24.95947], [121.369306, 24.959736], [121.36895, 24.959696], [121.368616, 24.959484], [121.368357, 24.959906], [121.370691, 24.961072], [121.370944, 24.961413], [121.369922, 24.962556], [121.362766, 24.961821], [121.362122, 24.961358], [121.364061, 24.958177], [121.364387, 24.956735], [121.364626, 24.956391], [121.364934, 24.95634], [121.365011, 24.956452], [121.365388, 24.956528], [121.365451, 24.956047], [121.363111, 24.956612], [121.362532, 24.956858], [121.362376, 24.9567], [121.361784, 24.956929], [121.361199, 24.956925], [121.361214, 24.956812], [121.360975, 24.956969], [121.361138, 24.957217], [121.361102, 24.957301], [121.360838, 24.957262], [121.361739, 24.957263], [121.362265, 24.956996], [121.362394, 24.957482], [121.362997, 24.95684], [121.362543, 24.956617], [121.37959, 24.964191]]}}, {"type": "Feature", "properties": {"district": "65000080", "segment": 3, "total_segments": 14, "km": 10.75, "villages": ["北鶯里", "東鶯里"]}, "geometry": {"type": "LineString", "coordinates": [[121.360331, 24.957096], [121.35951, 24.957106], [121.359483, 24.957236], [121.359591, 24.957322], [121.359661, 24.957233], [121.35933, 24.957243], [121.359327, 24.957324], [121.35902, 24.957331], [121.35904, 24.957447], [121.35912, 24.957446], [121.358957, 24.957449], [121.358803, 24.957335], [121.358776, 24.957122], [121.359329, 24.957112], [121.359548, 24.956609], [121.360112, 24.956671], [121.359505, 24.956387], [121.359117, 24.95604], [121.358439, 24.956245], [121.357832, 24.955883], [121.357833, 24.956932], [121.357448, 24.95694], [121.357435, 24.957154], [121.356576, 24.957157], [121.356683, 24.956951], [121.357213, 24.956944], [121.357305, 24.957343], [121.357162, 24.957627], [121.357193, 24.957775], [121.357527, 24.957759], [121.357491, 24.957901], [121.357101, 24.957919], [121.357096, 24.957781], [121.356807, 24.957741], [121.356788, 24.957872], [121.356732, 24.957481], [121.356187, 24.957173], [121.355766, 24.957179], [121.355752, 24.956952], [121.356452, 24.956899], [121.35608, 24.956662], [121.356082, 24.956262], [121.355893, 24.956283], [121.355878, 24.95671], [121.355366, 24.95656], [121.355772, 24.956116], [121.355883, 24.956153], [121.35588, 24.955995], [121.35604, 24.95599], [121.357601, 24.957152], [121.358412, 24.957127], [121.358451, 24.957339], [121.358559, 24.957339], [121.358584, 24.957121], [121.358676, 24.957121], [121.358642, 24.956904], [121.357879, 24.956933], [121.358322, 24.957802], [121.358021, 24.957803], [121.357996, 24.957654], [121.358443, 24.957618], [121.358443, 24.957566], [121.358937, 24.95779], [121.358692, 24.956902], [121.353917, 24.956938], [121.353962, 24.956361], [121.353881, 24.956342], [121.353646, 24.956607], [121.35365, 24.956858], [121.353347, 24.956789], [121.353318, 24.956647], [121.353182, 24.956565], [121.35314, 24.956654], [121.352389, 24.956116], [121.352398, 24.95595], [121.353069, 24.956015], [121.353058, 24.956088], [121.353002, 24.956071], [121.353364, 24.956047], [121.353458, 24.956126], [121.353429, 24.956235], [121.35436, 24.956483], [121.354283, 24.956657], [121.35414, 24.956667], [121.354686, 24.956732], [121.355105, 24.956603], [121.355131, 24.956717], [121.354958, 24.956114], [121.354626, 24.956083], [121.354633, 24.956231], [121.354733, 24.956223], [121.355074, 24.955958], [121.35546, 24.955845], [121.355631, 24.956006], [121.355546, 24.956106], [121.355301, 24.956367], [121.355071, 24.955788], [121.355316, 24.955537], [121.355103, 24.955356], [121.355393, 24.955237], [121.355026, 24.954727], [121.354416, 24.955276], [121.354363, 24.955933], [121.354163, 24.956186], [121.354616, 24.956597], [121.355959, 24.958208], [121.355632, 24.958639], [121.355491, 24.960084], [121.355809, 24.960104], [121.355693, 24.96057], [121.355823, 24.960674], [121.35606, 24.961401], [121.358583, 24.960884], [121.358718, 24.96065], [121.355747, 24.955892], [121.352551, 24.956119], [121.35227, 24.95597], [121.353709, 24.953181], [121.353443, 24.953012], [121.353491, 24.95281], [121.353439, 24.952772], [121.353307, 24.95292], [121.353351, 24.952949], [121.352267, 24.952206], [121.352122, 24.951984], [121.351977, 24.952029], [121.352186, 24.95229], [121.353217, 24.951481], [121.353788, 24.952739], [121.353648, 24.952906], [121.353847, 24.953234], [121.35442, 24.953339], [121.354366, 24.953249], [121.354657, 24.953499], [121.354631, 24.953658], [121.35513, 24.953995], [121.35514, 24.954114], [121.355305, 24.953893], [121.356153, 24.954461], [121.356082, 24.954612], [121.356185, 24.954764], [121.357015, 24.955542], [121.357519, 24.955594], [121.357633, 24.955483], [121.357702, 24.9556], [121.357436, 24.95529], [121.356801, 24.954947], [121.356815, 24.954738], [121.356643, 24.954829], [121.356333, 24.954615], [121.356084, 24.954835], [121.356126, 24.954869], [121.356666, 24.954261], [121.356798, 24.954326], [121.35704, 24.954289], [121.357245, 24.954529], [121.3578, 24.95492], [121.357617, 24.955203], [121.357759, 24.955346], [121.357825, 24.955406], [121.358124, 24.955339], [121.357322, 24.955729], [121.35704, 24.954683], [121.358042, 24.953429], [121.358261, 24.9535], [121.358374, 24.953106], [121.357402, 24.95258], [121.355264, 24.953869], [121.354848, 24.953592], [121.355341, 24.954349], [121.354232, 24.952713], [121.35756, 24.951394], [121.359913, 24.955089]]}}, {"type": "Feature", "properties": {"district": "65000080", "segment": 4, "total_segments": 14, "km": 10.53, "villages": ["南靖里"]}, "geometry": {"type": "LineString", "coordinates": [[121.363655, 24.949784], [121.363662, 24.949623], [121.363474, 24.949432], [121.363396, 24.949538], [121.362191, 24.947232], [121.362232, 24.947067], [121.362049, 24.947008], [121.361996, 24.947256], [121.360063, 24.94661], [121.361038, 24.945567], [121.35911, 24.943976], [121.359187, 24.943876], [121.359583, 24.94417], [121.35984, 24.944071], [121.359137, 24.943837], [121.358877, 24.943613], [121.358752, 24.943716], [121.358724, 24.943501], [121.35884, 24.943781], [121.358569, 24.943115], [121.358436, 24.943021], [121.358097, 24.942918], [121.358, 24.943081], [121.3581, 24.943145], [121.357717, 24.942914], [121.357827, 24.942742], [121.35773, 24.942643], [121.357888, 24.94278], [121.357818, 24.943114], [121.35746, 24.942777], [121.357189, 24.942432], [121.357374, 24.942358], [121.356394, 24.941586], [121.356364, 24.941454], [121.356665, 24.941156], [121.356622, 24.940951], [121.356026, 24.941586], [121.356087, 24.941746], [121.356255, 24.941674], [121.35675, 24.942076], [121.356649, 24.941439], [121.357133, 24.941139], [121.358009, 24.94184], [121.358081, 24.941759], [121.358299, 24.942316], [121.358781, 24.942608], [121.358604, 24.942806], [121.359031, 24.94237], [121.356102, 24.940814], [121.355924, 24.941008], [121.355291, 24.940714], [121.354938, 24.940442], [121.355134, 24.940193], [121.355145, 24.940052], [121.355481, 24.940232], [121.35418, 24.939771], [121.353855, 24.939433], [121.34948, 24.942362], [121.349092, 24.941913], [121.34878, 24.94171], [121.348594, 24.942174], [121.349947, 24.943303], [121.350364, 24.943425], [121.350488, 24.943658], [121.350328, 24.944124], [121.350801, 24.944335], [121.350852, 24.944023], [121.35155, 24.944988], [121.351469, 24.94528], [121.350439, 24.945118], [121.350358, 24.944987], [121.350107, 24.9451], [121.350185, 24.945246], [121.350078, 24.945242], [121.349983, 24.945068], [121.35009, 24.945074], [121.349884, 24.944691], [121.349794, 24.944735], [121.34994, 24.944985], [121.349695, 24.945069], [121.349541, 24.944793], [121.349465, 24.944866], [121.349503, 24.945001], [121.349767, 24.945179], [121.349908, 24.945406], [121.349964, 24.945511], [121.349855, 24.945574], [121.350018, 24.945623], [121.349734, 24.945388], [121.349565, 24.945468], [121.349482, 24.945812], [121.349568, 24.945892], [121.350196, 24.944755], [121.350087, 24.94457], [121.352469, 24.946845], [121.352697, 24.947356], [121.352751, 24.947833], [121.352663, 24.948027], [121.352737, 24.948165], [121.352677, 24.949147], [121.352907, 24.949295], [121.353001, 24.947572], [121.353106, 24.947436], [121.353061, 24.947304], [121.353147, 24.947045], [121.353035, 24.946544], [121.352832, 24.946642], [121.352179, 24.947879], [121.351961, 24.948666], [121.352214, 24.949328], [121.353124, 24.948835], [121.353163, 24.948745], [121.353086, 24.948747], [121.353303, 24.948751], [121.353392, 24.949085], [121.353515, 24.949093], [121.353513, 24.948955], [121.353716, 24.949119], [121.354046, 24.948848], [121.353845, 24.948845], [121.353751, 24.948761], [121.35375, 24.948573], [121.353991, 24.948342], [121.353894, 24.948268], [121.35398, 24.948185], [121.353473, 24.948739], [121.353233, 24.948844], [121.353293, 24.949236], [121.353437, 24.949383], [121.353519, 24.949406], [121.35368, 24.949154], [121.353861, 24.949219], [121.354028, 24.949615], [121.353813, 24.949802], [121.352564, 24.950346], [121.352135, 24.951198], [121.351999, 24.951712], [121.351244, 24.951358], [121.351104, 24.951517], [121.350898, 24.951427], [121.350902, 24.95128], [121.351145, 24.95154], [121.351562, 24.951716], [121.351848, 24.951492], [121.352237, 24.950427], [121.351358, 24.950719], [121.351163, 24.950675], [121.351239, 24.950342], [121.350372, 24.951773], [121.349975, 24.951904], [121.350111, 24.952139], [121.350467, 24.952012], [121.350434, 24.951846], [121.349876, 24.952462], [121.350356, 24.952649], [121.353237, 24.948291], [121.353375, 24.94822], [121.353602, 24.948269], [121.353693, 24.948174], [121.353448, 24.947979], [121.346658, 24.939873]]}}, {"type": "Feature", "properties": {"district": "65000080", "segment": 5, "total_segments": 14, "km": 10.07, "villages": ["二甲里"]}, "geometry": {"type": "LineString", "coordinates": [[121.345854, 24.939725], [121.346521, 24.93865], [121.34614, 24.937826], [121.345987, 24.937795], [121.346086, 24.937598], [121.345404, 24.938229], [121.34487, 24.937444], [121.344686, 24.937327], [121.344323, 24.937488], [121.344114, 24.937074], [121.344496, 24.93685], [121.344644, 24.93652], [121.345344, 24.935939], [121.3458, 24.935423], [121.342683, 24.934031], [121.341976, 24.933166], [121.341216, 24.931698], [121.340722, 24.931324], [121.340511, 24.931258], [121.340665, 24.931111], [121.340519, 24.930856], [121.340033, 24.9312], [121.339437, 24.931488], [121.339303, 24.931905], [121.339162, 24.931816], [121.338903, 24.932218], [121.339135, 24.932299], [121.339152, 24.932759], [121.339274, 24.932981], [121.339294, 24.933288], [121.338834, 24.93333], [121.338501, 24.933559], [121.337532, 24.933886], [121.337239, 24.934347], [121.337142, 24.934289], [121.33721, 24.934172], [121.337064, 24.933982], [121.336763, 24.934302], [121.337245, 24.934517], [121.337259, 24.934664], [121.337806, 24.935073], [121.337761, 24.935152], [121.338119, 24.93496], [121.338175, 24.935272], [121.33853, 24.935054], [121.339135, 24.935252], [121.339719, 24.935676], [121.338919, 24.936233], [121.338713, 24.936052], [121.338411, 24.935948], [121.33862, 24.936298], [121.337992, 24.936756], [121.337687, 24.935847], [121.337501, 24.93573], [121.337458, 24.935822], [121.337248, 24.935697], [121.337321, 24.935564], [121.33717, 24.935375], [121.336701, 24.935539], [121.336586, 24.9354], [121.336626, 24.935186], [121.336802, 24.934933], [121.336755, 24.934803], [121.336393, 24.934519], [121.336289, 24.934307], [121.335634, 24.934663], [121.335637, 24.934082], [121.335309, 24.933941], [121.335571, 24.933374], [121.335009, 24.933337], [121.336073, 24.933608], [121.33598, 24.933867], [121.336296, 24.933986], [121.33647, 24.933881], [121.336434, 24.934094], [121.336722, 24.934271], [121.3366, 24.934332], [121.336342, 24.934882], [121.337719, 24.934773], [121.337344, 24.933966], [121.3374, 24.933883], [121.337048, 24.933543], [121.336958, 24.933231], [121.336696, 24.933605], [121.337548, 24.933105], [121.337747, 24.932885], [121.337563, 24.932686], [121.337901, 24.932612], [121.337857, 24.93184], [121.338244, 24.930468], [121.338213, 24.930083], [121.338445, 24.930017], [121.337925, 24.929911], [121.337597, 24.930347], [121.335721, 24.931666], [121.334472, 24.931731], [121.334152, 24.931477], [121.334085, 24.931552], [121.333867, 24.931371], [121.333848, 24.931254], [121.334643, 24.93059], [121.333685, 24.93116], [121.333721, 24.931304], [121.333618, 24.931391], [121.333605, 24.931681], [121.334124, 24.931587], [121.334361, 24.931812], [121.332716, 24.931757], [121.332815, 24.931937], [121.332895, 24.931937], [121.332796, 24.932028], [121.332752, 24.932403], [121.332449, 24.93213], [121.33215, 24.932262], [121.332061, 24.932134], [121.331878, 24.932221], [121.331554, 24.93215], [121.332477, 24.932756], [121.333247, 24.933059], [121.331956, 24.933368], [121.336844, 24.936084], [121.337258, 24.936072], [121.338804, 24.937611], [121.340323, 24.937766], [121.340366, 24.937888], [121.340452, 24.937318], [121.340321, 24.937209], [121.340609, 24.93707], [121.340863, 24.936712], [121.340505, 24.936885], [121.340463, 24.936985], [121.340379, 24.936908], [121.340719, 24.937176], [121.340807, 24.937103], [121.340946, 24.937214], [121.340865, 24.937287], [121.341602, 24.936463], [121.342069, 24.935486], [121.340413, 24.936258], [121.340058, 24.935857], [121.339978, 24.936014], [121.340016, 24.936048], [121.339658, 24.932687], [121.339723, 24.932609], [121.339465, 24.932625], [121.339427, 24.932701], [121.340003, 24.932641], [121.340088, 24.932441], [121.339859, 24.932101], [121.34006, 24.931866], [121.340299, 24.932009], [121.340399, 24.931925], [121.34039, 24.932147], [121.344458, 24.938928]]}}, {"type": "Feature", "properties": {"district": "65000080", "segment": 6, "total_segments": 14, "km": 14.96, "villages": ["二橋里"]}, "geometry": {"type": "LineString", "coordinates": [[121.3396, 24.939799], [121.339525, 24.939836], [121.339584, 24.93986], [121.339415, 24.939731], [121.339288, 24.939956], [121.339088, 24.939851], [121.338725, 24.939848], [121.338623, 24.940009], [121.338393, 24.940089], [121.338315, 24.940043], [121.338238, 24.940176], [121.33833, 24.940236], [121.338265, 24.940333], [121.338167, 24.940285], [121.338171, 24.93994], [121.338276, 24.939777], [121.338126, 24.939542], [121.338218, 24.939511], [121.33825, 24.939354], [121.338754, 24.939712], [121.338852, 24.939486], [121.338789, 24.939444], [121.338967, 24.93936], [121.338456, 24.938929], [121.338325, 24.939064], [121.338392, 24.939123], [121.337729, 24.93866], [121.337271, 24.938256], [121.337409, 24.938054], [121.337136, 24.938012], [121.336936, 24.938157], [121.336845, 24.9381], [121.337031, 24.938375], [121.33639, 24.93925], [121.336569, 24.939282], [121.337051, 24.938607], [121.337592, 24.938799], [121.337507, 24.939353], [121.337282, 24.939687], [121.337178, 24.939541], [121.337217, 24.939476], [121.337104, 24.939606], [121.336987, 24.939518], [121.336626, 24.94002], [121.336772, 24.940093], [121.336672, 24.940236], [121.336369, 24.94009], [121.336562, 24.939989], [121.336492, 24.939847], [121.336135, 24.939697], [121.336056, 24.939877], [121.335948, 24.939828], [121.336173, 24.939953], [121.336134, 24.940486], [121.336259, 24.940584], [121.336138, 24.940674], [121.336409, 24.940617], [121.336706, 24.940256], [121.337012, 24.94016], [121.338623, 24.94105], [121.339229, 24.942277], [121.339578, 24.942132], [121.339633, 24.942205], [121.339758, 24.942148], [121.339398, 24.941381], [121.339061, 24.941145], [121.339235, 24.940716], [121.339497, 24.94088], [121.339433, 24.941065], [121.339358, 24.94104], [121.339478, 24.941255], [121.33869, 24.941022], [121.338529, 24.941219], [121.338226, 24.941039], [121.338125, 24.941119], [121.337981, 24.941015], [121.338386, 24.940722], [121.338309, 24.940563], [121.338605, 24.940389], [121.337945, 24.940407], [121.337762, 24.940172], [121.337586, 24.940088], [121.337663, 24.939947], [121.337834, 24.940035], [121.337947, 24.939819], [121.337442, 24.939565], [121.337597, 24.939406], [121.337785, 24.939539], [121.337543, 24.93984], [121.337147, 24.939926], [121.337061, 24.940075], [121.336482, 24.939411], [121.335914, 24.93952], [121.334556, 24.938872], [121.334852, 24.938813], [121.334933, 24.938867], [121.335003, 24.939285], [121.333815, 24.938513], [121.333603, 24.938598], [121.331127, 24.937449], [121.331017, 24.937462], [121.331003, 24.937144], [121.330593, 24.936912], [121.330507, 24.937054], [121.330596, 24.93713], [121.330686, 24.937168], [121.328521, 24.935807], [121.327373, 24.934758], [121.327504, 24.934701], [121.32712, 24.934422], [121.326771, 24.934367], [121.326808, 24.934565], [121.327122, 24.934612], [121.326773, 24.93464], [121.326819, 24.934799], [121.326621, 24.934982], [121.326604, 24.93459], [121.32632, 24.934632], [121.326122, 24.934798], [121.326128, 24.934901], [121.325986, 24.934908], [121.325991, 24.93481], [121.325968, 24.935034], [121.326194, 24.935505], [121.327367, 24.935267], [121.327779, 24.934937], [121.328606, 24.935656], [121.330429, 24.936806], [121.330878, 24.937957], [121.330485, 24.938573], [121.331234, 24.938473], [121.332106, 24.938875], [121.332453, 24.93872], [121.332526, 24.938768], [121.333041, 24.938164], [121.331785, 24.937568], [121.332972, 24.937063], [121.332983, 24.936924], [121.333366, 24.93691], [121.333362, 24.93711], [121.333209, 24.937261], [121.333521, 24.936761], [121.333017, 24.936457], [121.333206, 24.934038], [121.332482, 24.934085], [121.3326, 24.933884], [121.332504, 24.933802], [121.332384, 24.934012], [121.332149, 24.934099], [121.332064, 24.93428], [121.330725, 24.933306], [121.331134, 24.932864], [121.334136, 24.934204], [121.334903, 24.934803], [121.336353, 24.938759], [121.335787, 24.941048], [121.335883, 24.941065], [121.335897, 24.940989], [121.335839, 24.941389], [121.335736, 24.9415], [121.336701, 24.941932], [121.336739, 24.941838], [121.336452, 24.941716], [121.336268, 24.942058], [121.336979, 24.942347], [121.336924, 24.942458], [121.335988, 24.94205], [121.335939, 24.94215], [121.335622, 24.942025], [121.335744, 24.941821], [121.335828, 24.941859], [121.335792, 24.941924], [121.336035, 24.941985], [121.336817, 24.941975], [121.337113, 24.942095], [121.337162, 24.941994], [121.336866, 24.941874], [121.337164, 24.942401], [121.33733, 24.942466], [121.337226, 24.942552], [121.337132, 24.94251], [121.337491, 24.942656], [121.337648, 24.942507], [121.337931, 24.942653], [121.338266, 24.942588], [121.338147, 24.942503], [121.337983, 24.942534], [121.3378, 24.942328], [121.3377, 24.942317], [121.337844, 24.942193], [121.338034, 24.942177], [121.338034, 24.942072], [121.3382, 24.941953], [121.337982, 24.941723], [121.33827, 24.941616], [121.338333, 24.941801], [121.338691, 24.941545], [121.338583, 24.941295], [121.338611, 24.942073], [121.338527, 24.942303], [121.338402, 24.942351], [121.338465, 24.942387], [121.338271, 24.942404], [121.338174, 24.942257], [121.338111, 24.942288], [121.338323, 24.942191], [121.338279, 24.942056], [121.337842, 24.94209], [121.337622, 24.941952], [121.337074, 24.943102], [121.333451, 24.940936], [121.333344, 24.941104], [121.333619, 24.941268], [121.333047, 24.940925], [121.333142, 24.9408], [121.332762, 24.940805], [121.332599, 24.941023], [121.332416, 24.940879], [121.332736, 24.940469], [121.33319, 24.940285], [121.333415, 24.940031], [121.33323, 24.939954], [121.333529, 24.939564], [121.331856, 24.941624], [121.331127, 24.941304], [121.331385, 24.941155], [121.331236, 24.940748], [121.330732, 24.941315], [121.330493, 24.941378], [121.330368, 24.941642], [121.330707, 24.941734], [121.330578, 24.941969], [121.33082, 24.942066], [121.330542, 24.942575], [121.330949, 24.942779], [121.329826, 24.942801], [121.331055, 24.941439], [121.328845, 24.941034], [121.328716, 24.941229], [121.328219, 24.94089], [121.327916, 24.941477], [121.328438, 24.940582], [121.329402, 24.939205], [121.329305, 24.939147], [121.329374, 24.939073], [121.329722, 24.939235], [121.329812, 24.939108], [121.32995, 24.939176], [121.329958, 24.939066], [121.32952, 24.938827], [121.329477, 24.938887], [121.329772, 24.939087], [121.328974, 24.936431], [121.328312, 24.936141], [121.328177, 24.936604], [121.329334, 24.93548], [121.329614, 24.934985], [121.329341, 24.934765], [121.329374, 24.934711], [121.329809, 24.934908], [121.330095, 24.93455], [121.330219, 24.93469], [121.329986, 24.934981], [121.329317, 24.934503], [121.329135, 24.934628], [121.32933, 24.934684], [121.329022, 24.934597], [121.329031, 24.934416], [121.328911, 24.934331], [121.328966, 24.934256], [121.328839, 24.934502], [121.32931, 24.934113], [121.330302, 24.934567], [121.327725, 24.934881], [121.327515, 24.934483], [121.327367, 24.93377], [121.326588, 24.934224], [121.325177, 24.934569], [121.325146, 24.934799], [121.324654, 24.934712]]}}, {"type": "Feature", "properties": {"district": "65000080", "segment": 7, "total_segments": 14, "km": 14.42, "villages": ["二橋里", "尖山里"]}, "geometry": {"type": "LineString", "coordinates": [[121.324078, 24.934796], [121.323934, 24.934647], [121.323338, 24.934594], [121.323378, 24.93445], [121.324004, 24.934498], [121.323523, 24.934766], [121.323464, 24.934882], [121.323936, 24.935098], [121.323038, 24.934629], [121.321771, 24.934586], [121.321881, 24.934427], [121.321662, 24.934347], [121.321457, 24.934459], [121.321189, 24.934334], [121.320913, 24.934413], [121.320875, 24.93452], [121.320032, 24.934771], [121.321602, 24.93361], [121.323669, 24.933156], [121.324583, 24.93379], [121.324607, 24.934347], [121.323034, 24.93213], [121.319468, 24.937725], [121.320749, 24.938619], [121.339331, 24.939983], [121.339681, 24.940168], [121.339868, 24.940272], [121.340326, 24.94056], [121.340238, 24.940674], [121.339776, 24.940389], [121.339839, 24.940736], [121.340036, 24.940832], [121.339967, 24.941341], [121.339834, 24.941433], [121.340296, 24.941487], [121.340633, 24.941249], [121.340885, 24.941431], [121.340843, 24.941507], [121.340708, 24.941462], [121.340711, 24.941646], [121.341057, 24.941799], [121.34149, 24.941511], [121.341617, 24.941622], [121.341709, 24.94153], [121.342007, 24.941764], [121.34214, 24.941604], [121.341969, 24.941381], [121.342056, 24.94135], [121.341977, 24.941277], [121.341902, 24.941313], [121.34186, 24.941123], [121.341525, 24.940742], [121.341428, 24.940823], [121.341514, 24.940907], [121.341384, 24.94107], [121.341639, 24.941284], [121.341668, 24.941497], [121.341376, 24.941416], [121.341036, 24.940828], [121.34117, 24.940704], [121.341213, 24.94075], [121.340982, 24.940575], [121.341068, 24.940492], [121.341121, 24.940548], [121.340859, 24.940386], [121.340934, 24.94031], [121.340993, 24.940359], [121.340674, 24.940269], [121.340605, 24.940451], [121.340537, 24.940395], [121.340804, 24.940733], [121.339986, 24.939809], [121.340573, 24.942124], [121.340162, 24.942281], [121.34011, 24.942374], [121.340147, 24.942485], [121.340385, 24.942534], [121.340506, 24.942499], [121.340472, 24.942356], [121.340578, 24.942319], [121.340173, 24.942705], [121.339577, 24.942372], [121.33945, 24.943276], [121.339526, 24.943468], [121.339823, 24.943289], [121.340212, 24.943458], [121.340765, 24.943459], [121.341495, 24.94377], [121.341926, 24.943817], [121.341949, 24.943487], [121.34219, 24.94366], [121.342329, 24.943129], [121.342157, 24.943114], [121.342197, 24.942882], [121.342021, 24.942889], [121.341993, 24.94308], [121.341541, 24.943056], [121.342492, 24.94313], [121.342481, 24.942283], [121.342591, 24.942285], [121.342589, 24.942193], [121.342396, 24.942118], [121.342396, 24.942193], [121.342443, 24.941879], [121.342553, 24.941793], [121.342456, 24.941736], [121.34236, 24.941806], [121.342172, 24.94163], [121.341967, 24.942005], [121.341809, 24.942013], [121.341616, 24.942187], [121.341559, 24.942067], [121.34137, 24.942148], [121.341757, 24.941906], [121.340919, 24.94366], [121.341468, 24.943913], [121.341927, 24.943979], [121.341905, 24.944388], [121.341727, 24.94472], [121.341563, 24.944664], [121.341509, 24.944727], [121.341421, 24.944954], [121.341528, 24.945075], [121.341724, 24.945057], [121.341759, 24.944988], [121.341697, 24.944959], [121.341805, 24.944751], [121.341878, 24.944787], [121.341636, 24.945203], [121.341445, 24.945355], [121.341103, 24.945017], [121.340965, 24.945145], [121.340862, 24.944921], [121.340943, 24.944785], [121.340472, 24.944231], [121.340925, 24.944405], [121.341047, 24.944551], [121.340919, 24.945472], [121.341227, 24.945518], [121.340932, 24.945795], [121.340688, 24.945525], [121.340768, 24.945867], [121.34069, 24.946058], [121.340881, 24.946107], [121.340883, 24.946001], [121.340881, 24.946547], [121.341383, 24.946167], [121.341461, 24.946233], [121.341388, 24.946301], [121.341585, 24.946489], [121.34165, 24.946436], [121.341844, 24.946618], [121.341786, 24.946679], [121.34194, 24.946748], [121.342298, 24.946256], [121.342248, 24.946205], [121.342073, 24.946309], [121.341819, 24.945926], [121.341555, 24.945923], [121.341499, 24.94586], [121.341426, 24.945919], [121.341482, 24.945991], [121.341852, 24.945335], [121.342784, 24.945416], [121.342831, 24.945358], [121.342874, 24.945456], [121.342958, 24.945261], [121.342739, 24.945145], [121.343147, 24.945334], [121.343221, 24.945716], [121.343171, 24.945945], [121.343055, 24.946037], [121.343145, 24.946225], [121.343457, 24.946216], [121.343462, 24.946273], [121.34354, 24.945949], [121.343656, 24.945815], [121.343738, 24.94594], [121.343884, 24.945891], [121.343872, 24.945648], [121.344233, 24.945865], [121.343687, 24.946096], [121.343694, 24.946281], [121.343357, 24.945898], [121.342726, 24.945667], [121.34263, 24.945747], [121.342724, 24.945836], [121.342709, 24.946066], [121.342556, 24.946152], [121.34232, 24.945827], [121.342618, 24.946675], [121.343838, 24.947169], [121.343938, 24.947016], [121.343628, 24.946848], [121.344163, 24.947102], [121.3441, 24.947225], [121.344257, 24.947375], [121.344797, 24.947637], [121.344739, 24.94741], [121.344357, 24.947213], [121.344494, 24.946883], [121.343853, 24.947351], [121.343919, 24.947581], [121.343353, 24.948509], [121.343435, 24.948645], [121.343568, 24.948497], [121.343684, 24.948549], [121.343601, 24.948644], [121.343729, 24.948713], [121.343791, 24.948591], [121.343147, 24.948268], [121.343415, 24.947848], [121.342468, 24.947841], [121.341903, 24.948082], [121.34163, 24.94796], [121.340849, 24.947868], [121.340995, 24.947644], [121.341097, 24.947697], [121.340738, 24.947529], [121.340405, 24.947255], [121.339868, 24.945863], [121.340194, 24.943712], [121.340135, 24.943631], [121.340779, 24.943619], [121.338987, 24.943323], [121.336671, 24.94646], [121.336864, 24.946606], [121.336924, 24.94712], [121.33681, 24.947262], [121.336848, 24.947387], [121.337264, 24.94779], [121.337029, 24.948058], [121.337435, 24.948535], [121.33807, 24.948519], [121.338009, 24.948016], [121.33854, 24.948208], [121.34031, 24.947814], [121.336774, 24.947749], [121.336225, 24.947271], [121.336524, 24.947042], [121.336086, 24.946368], [121.336934, 24.94934], [121.336429, 24.94984], [121.334176, 24.951162]]}}, {"type": "Feature", "properties": {"district": "65000080", "segment": 8, "total_segments": 14, "km": 11.71, "villages": ["尖山里", "同慶里"]}, "geometry": {"type": "LineString", "coordinates": [[121.329893, 24.955806], [121.328819, 24.956199], [121.328351, 24.955644], [121.33294, 24.943925], [121.344422, 24.947961], [121.344819, 24.948457], [121.345515, 24.948295], [121.345856, 24.94804], [121.346666, 24.94848], [121.34659, 24.948638], [121.347156, 24.948927], [121.347231, 24.948998], [121.347177, 24.949124], [121.347408, 24.948849], [121.347803, 24.949029], [121.347671, 24.949146], [121.347999, 24.94926], [121.348379, 24.949355], [121.34841, 24.949202], [121.350036, 24.949622], [121.349872, 24.949394], [121.349678, 24.949688], [121.349426, 24.949624], [121.348805, 24.949728], [121.348192, 24.949665], [121.348358, 24.949189], [121.348261, 24.949168], [121.348204, 24.948984], [121.348845, 24.948991], [121.348896, 24.948878], [121.347583, 24.948345], [121.34747, 24.948544], [121.347319, 24.948499], [121.347572, 24.947999], [121.347478, 24.947788], [121.347218, 24.948034], [121.347262, 24.948131], [121.347021, 24.948657], [121.347285, 24.948773], [121.346409, 24.948572], [121.346255, 24.949322], [121.346212, 24.949387], [121.346057, 24.949376], [121.346024, 24.949506], [121.346182, 24.949603], [121.346136, 24.949782], [121.346447, 24.949729], [121.346848, 24.94952], [121.346918, 24.949528], [121.346983, 24.949738], [121.347549, 24.949792], [121.347369, 24.949635], [121.346275, 24.949552], [121.345948, 24.949593], [121.345794, 24.94989], [121.345932, 24.949938], [121.345965, 24.949867], [121.345794, 24.949686], [121.34556, 24.949792], [121.345212, 24.949661], [121.345271, 24.949315], [121.345123, 24.949377], [121.345297, 24.94908], [121.345355, 24.949163], [121.345418, 24.948957], [121.34579, 24.948983], [121.344617, 24.94929], [121.344569, 24.949074], [121.345389, 24.947758], [121.347895, 24.947572], [121.348076, 24.947374], [121.348022, 24.947261], [121.348144, 24.946605], [121.347509, 24.945666], [121.346954, 24.945755], [121.345777, 24.944575], [121.345503, 24.944776], [121.345275, 24.944819], [121.350922, 24.949667], [121.350729, 24.950724], [121.350706, 24.950859], [121.350466, 24.951022], [121.35064, 24.951068], [121.350687, 24.950992], [121.350422, 24.950996], [121.350313, 24.950906], [121.350291, 24.951063], [121.350453, 24.950773], [121.350113, 24.95069], [121.350149, 24.950603], [121.34989, 24.950689], [121.349767, 24.950585], [121.349785, 24.950313], [121.349196, 24.950288], [121.34914, 24.950392], [121.349218, 24.950161], [121.349042, 24.950125], [121.348573, 24.950159], [121.348455, 24.950232], [121.348258, 24.950205], [121.348243, 24.950081], [121.347712, 24.950114], [121.347548, 24.950235], [121.347062, 24.950081], [121.346596, 24.950471], [121.346902, 24.950797], [121.346931, 24.951074], [121.347488, 24.950912], [121.34811, 24.950942], [121.348084, 24.951066], [121.347416, 24.951132], [121.347452, 24.951323], [121.347572, 24.951306], [121.347484, 24.951435], [121.34752, 24.951501], [121.347685, 24.951458], [121.347694, 24.951647], [121.34749, 24.951803], [121.34743, 24.95176], [121.347437, 24.951863], [121.34795, 24.951773], [121.348109, 24.951874], [121.348176, 24.95172], [121.347866, 24.951665], [121.34797, 24.951424], [121.348147, 24.951535], [121.348283, 24.951519], [121.34827, 24.951096], [121.348143, 24.951079], [121.348263, 24.950954], [121.349382, 24.951027], [121.349689, 24.95098], [121.349658, 24.951192], [121.350086, 24.951364], [121.349645, 24.951623], [121.349641, 24.951735], [121.349315, 24.951954], [121.348851, 24.951977], [121.348682, 24.951895], [121.348506, 24.95196], [121.348486, 24.952026], [121.348617, 24.952101], [121.348298, 24.952376], [121.347815, 24.952425], [121.347289, 24.952358], [121.347181, 24.952619], [121.34741, 24.952662], [121.347439, 24.952558], [121.347558, 24.952602], [121.347527, 24.952722], [121.347715, 24.952714], [121.347786, 24.952546], [121.347886, 24.952578], [121.347863, 24.952663], [121.348079, 24.952597], [121.348074, 24.952235], [121.347351, 24.952177], [121.347443, 24.95163], [121.347237, 24.951253], [121.345972, 24.95074], [121.345544, 24.950481], [121.345288, 24.950446], [121.344863, 24.95024], [121.344847, 24.950127], [121.344725, 24.950188], [121.344605, 24.950145], [121.344773, 24.949865], [121.344874, 24.949898], [121.344826, 24.95041], [121.346012, 24.950403], [121.346247, 24.949985], [121.346419, 24.950004], [121.347215, 24.950822], [121.347317, 24.950826], [121.348048, 24.950241], [121.347839, 24.949939], [121.348191, 24.949898], [121.348382, 24.950055], [121.348672, 24.949866], [121.348804, 24.950027], [121.349042, 24.949925], [121.348911, 24.951143], [121.349577, 24.951181], [121.349432, 24.951656], [121.348988, 24.951776], [121.348511, 24.95177], [121.34844, 24.95157], [121.348507, 24.951549], [121.348367, 24.951802], [121.348455, 24.951108], [121.348872, 24.95114], [121.346737, 24.952206], [121.346693, 24.952805], [121.345764, 24.951181]]}}, {"type": "Feature", "properties": {"district": "65000080", "segment": 9, "total_segments": 14, "km": 14.9, "villages": ["中鶯里", "西鶯里", "南鶯里"]}, "geometry": {"type": "LineString", "coordinates": [[121.352573, 24.952837], [121.35257, 24.953399], [121.352445, 24.953962], [121.353047, 24.954031], [121.353189, 24.9539], [121.353354, 24.954065], [121.353662, 24.954174], [121.353515, 24.954331], [121.353799, 24.954474], [121.353854, 24.954592], [121.353707, 24.954687], [121.353483, 24.95465], [121.3535, 24.954475], [121.353377, 24.954625], [121.353357, 24.954799], [121.353473, 24.954812], [121.353479, 24.954757], [121.353353, 24.955879], [121.353251, 24.955808], [121.353277, 24.955462], [121.353218, 24.955401], [121.353316, 24.955133], [121.353006, 24.955382], [121.352965, 24.955238], [121.353031, 24.955242], [121.353045, 24.955154], [121.352915, 24.955127], [121.352891, 24.95505], [121.352953, 24.95467], [121.352845, 24.954664], [121.352765, 24.954778], [121.352854, 24.954575], [121.35296, 24.954571], [121.353044, 24.954583], [121.353103, 24.954877], [121.353238, 24.954823], [121.352797, 24.955014], [121.352718, 24.95517], [121.352724, 24.955687], [121.352794, 24.955729], [121.352876, 24.95542], [121.352914, 24.955839], [121.353223, 24.955887], [121.352233, 24.955795], [121.352424, 24.954134], [121.352819, 24.954282], [121.352872, 24.954193], [121.352784, 24.954424], [121.35281, 24.953669], [121.353046, 24.953488], [121.353281, 24.953425], [121.353047, 24.953339], [121.35294, 24.953085], [121.35281, 24.952997], [121.353313, 24.953686], [121.353407, 24.953629], [121.353444, 24.953934], [121.35336, 24.954299], [121.353983, 24.954727], [121.353952, 24.955373], [121.354465, 24.954657], [121.354255, 24.954481], [121.355128, 24.954921], [121.355091, 24.955116], [121.355158, 24.957149], [121.354375, 24.957159], [121.354567, 24.957322], [121.355251, 24.95715], [121.354191, 24.95735], [121.353979, 24.957149], [121.353823, 24.957147], [121.353727, 24.957349], [121.353554, 24.957222], [121.353523, 24.95744], [121.353677, 24.957665], [121.353936, 24.957505], [121.354074, 24.957676], [121.353953, 24.95796], [121.354415, 24.95807], [121.353305, 24.958551], [121.353071, 24.958275], [121.353165, 24.958244], [121.35313, 24.95807], [121.353013, 24.95806], [121.35298, 24.957936], [121.353161, 24.957425], [121.353141, 24.957171], [121.353227, 24.957168], [121.353212, 24.956865], [121.352907, 24.956662], [121.352876, 24.956713], [121.35281, 24.956591], [121.352314, 24.956235], [121.352216, 24.956331], [121.352192, 24.956128], [121.352073, 24.955973], [121.351455, 24.955722], [121.35109, 24.956558], [121.351205, 24.956553], [121.351092, 24.956729], [121.351117, 24.956933], [121.351208, 24.956933], [121.351202, 24.957123], [121.349949, 24.957128], [121.350026, 24.957504], [121.350107, 24.957538], [121.349816, 24.957604], [121.349916, 24.957782], [121.349224, 24.957118], [121.348315, 24.95713], [121.348271, 24.95752], [121.348658, 24.957639], [121.348722, 24.957528], [121.348584, 24.957987], [121.347815, 24.957436], [121.347773, 24.957121], [121.346995, 24.957111], [121.346608, 24.957262], [121.346393, 24.957159], [121.3462, 24.957328], [121.345902, 24.95739], [121.345968, 24.957098], [121.343817, 24.95708], [121.343786, 24.95742], [121.344491, 24.957219], [121.345031, 24.957213], [121.343038, 24.957133], [121.351294, 24.957124], [121.351423, 24.956937], [121.351902, 24.956932], [121.352027, 24.956803], [121.351579, 24.956655], [121.351363, 24.956226], [121.351434, 24.956056], [121.351653, 24.956129], [121.351884, 24.955749], [121.352077, 24.955782], [121.352167, 24.955015], [121.351915, 24.954915], [121.351815, 24.95497], [121.351649, 24.955301], [121.351701, 24.955389], [121.351595, 24.955411], [121.351527, 24.955532], [121.351676, 24.955498], [121.351726, 24.955691], [121.351808, 24.955718], [121.352268, 24.957157], [121.352518, 24.957541], [121.352656, 24.957508], [121.35292, 24.9576], [121.352915, 24.957905], [121.353106, 24.957954], [121.353054, 24.958154], [121.352674, 24.958428], [121.352587, 24.958419], [121.352486, 24.958176], [121.352475, 24.957837], [121.35261, 24.958768], [121.351216, 24.959673], [121.351606, 24.960264], [121.351664, 24.960233], [121.35176, 24.960326], [121.351617, 24.960413], [121.351786, 24.960543], [121.35192, 24.96046], [121.352368, 24.960783], [121.35095, 24.956923], [121.35066, 24.956919], [121.350612, 24.956785], [121.350297, 24.956915], [121.349782, 24.956917], [121.349954, 24.956773], [121.349944, 24.956674], [121.349912, 24.956605], [121.349717, 24.956586], [121.349669, 24.95631], [121.349736, 24.956701], [121.349618, 24.955835], [121.350084, 24.955047], [121.349937, 24.95498], [121.350163, 24.954597], [121.349569, 24.954285], [121.349179, 24.954195], [121.3492, 24.954051], [121.349593, 24.954115], [121.349741, 24.953876], [121.349884, 24.953904], [121.349747, 24.954131], [121.34981, 24.954251], [121.350241, 24.954437], [121.350625, 24.953779], [121.350762, 24.953864], [121.350391, 24.954504], [121.350232, 24.95407], [121.350043, 24.953991], [121.350111, 24.953884], [121.350283, 24.953944], [121.350423, 24.953688], [121.350136, 24.953589], [121.349959, 24.953802], [121.349815, 24.953738], [121.349858, 24.953581], [121.349613, 24.953573], [121.349651, 24.953783], [121.349543, 24.953662], [121.349433, 24.95366], [121.349424, 24.953572], [121.34927, 24.953603], [121.349317, 24.953769], [121.349026, 24.953578], [121.347042, 24.953489], [121.347, 24.953611], [121.347031, 24.953989], [121.348998, 24.954048], [121.348961, 24.954197], [121.348145, 24.954184], [121.348025, 24.954401], [121.347882, 24.954396], [121.347838, 24.954594], [121.348097, 24.9546], [121.348377, 24.954946], [121.348914, 24.954957], [121.348737, 24.955082], [121.347797, 24.955001], [121.347735, 24.954746], [121.34709, 24.954716], [121.346974, 24.954775], [121.346968, 24.954957], [121.347061, 24.955051], [121.346973, 24.955121], [121.347007, 24.954584], [121.34775, 24.954589], [121.347746, 24.954171], [121.347908, 24.954174], [121.347029, 24.95414], [121.346992, 24.954433], [121.347654, 24.953729], [121.34818, 24.953769], [121.348181, 24.953833], [121.348184, 24.953404], [121.347796, 24.95337], [121.347551, 24.953232], [121.348237, 24.953404], [121.350035, 24.953395], [121.350726, 24.953587], [121.351303, 24.952616], [121.351216, 24.952596], [121.351246, 24.95251], [121.351422, 24.952761], [121.350845, 24.953844], [121.351165, 24.953989], [121.351163, 24.954089], [121.3513, 24.954137], [121.351332, 24.953856], [121.351463, 24.953867], [121.35151, 24.953637], [121.351393, 24.953549], [121.351255, 24.953589], [121.351276, 24.953846], [121.350999, 24.954035], [121.35094, 24.954163], [121.351278, 24.954265], [121.351248, 24.95448], [121.351047, 24.954571], [121.351738, 24.954747], [121.351699, 24.954404], [121.351598, 24.954328], [121.351665, 24.954087], [121.351966, 24.954083], [121.352004, 24.954221], [121.351918, 24.954274], [121.352255, 24.954315], [121.352261, 24.95426], [121.352186, 24.954832], [121.351531, 24.955239], [121.351343, 24.955458], [121.351408, 24.95553], [121.35103, 24.956286], [121.350969, 24.956717], [121.350787, 24.956491], [121.350983, 24.955447], [121.350926, 24.955412], [121.350968, 24.95528], [121.351146, 24.95526], [121.35125, 24.955406], [121.351204, 24.955155], [121.350536, 24.955199], [121.350266, 24.955036], [121.350348, 24.955229], [121.34992, 24.955022], [121.349242, 24.954885], [121.349218, 24.95501], [121.34967, 24.955081], [121.349828, 24.955178], [121.349469, 24.9558], [121.348837, 24.955691], [121.348872, 24.955376], [121.349035, 24.955341], [121.348601, 24.955359], [121.348614, 24.955813], [121.348791, 24.955819], [121.347854, 24.955811], [121.348245, 24.955695], [121.348493, 24.955364], [121.34813, 24.95492], [121.348047, 24.954916], [121.348588, 24.954465], [121.349251, 24.954464], [121.349282, 24.954334], [121.349415, 24.954535], [121.349845, 24.954716], [121.350146, 24.953184], [121.350314, 24.953118], [121.351475, 24.953095], [121.351547, 24.953032], [121.351629, 24.953071], [121.351595, 24.953267], [121.351463, 24.953437], [121.351678, 24.953642], [121.351644, 24.953866], [121.351983, 24.953908], [121.352106, 24.953747], [121.352102, 24.953611], [121.351909, 24.953676], [121.351743, 24.953596], [121.351779, 24.952921], [121.351721, 24.952983], [121.351686, 24.952923], [121.351705, 24.952859], [121.351912, 24.952902], [121.351903, 24.952978], [121.351797, 24.952974], [121.351906, 24.953064], [121.351985, 24.953015], [121.351995, 24.952769], [121.352072, 24.952682], [121.352176, 24.952661], [121.352235, 24.952753]]}}, {"type": "Feature", "properties": {"district": "65000080", "segment": 10, "total_segments": 14, "km": 14.96, "villages": ["建國里", "永昌里"]}, "geometry": {"type": "LineString", "coordinates": [[121.348891, 24.95601], [121.347681, 24.955946], [121.346925, 24.956008], [121.346784, 24.956065], [121.346784, 24.956149], [121.346651, 24.955907], [121.345286, 24.955931], [121.345331, 24.955728], [121.345436, 24.955732], [121.3451, 24.955719], [121.345096, 24.955495], [121.345235, 24.955573], [121.34524, 24.955411], [121.344957, 24.955292], [121.34499, 24.955867], [121.344848, 24.955864], [121.34484, 24.955751], [121.344563, 24.955747], [121.344677, 24.955858], [121.343922, 24.955836], [121.343955, 24.955703], [121.343615, 24.955694], [121.343442, 24.95548], [121.343332, 24.955507], [121.343373, 24.955244], [121.343702, 24.955223], [121.343718, 24.955102], [121.343994, 24.955052], [121.344003, 24.954948], [121.344088, 24.954946], [121.343952, 24.95488], [121.343955, 24.954705], [121.344036, 24.954695], [121.344104, 24.954516], [121.3442, 24.954536], [121.344223, 24.954402], [121.344669, 24.954482], [121.344649, 24.954607], [121.345015, 24.95469], [121.34495, 24.954803], [121.345007, 24.95485], [121.344824, 24.95513], [121.345136, 24.955112], [121.345183, 24.954152], [121.34527, 24.954084], [121.346802, 24.95413], [121.346167, 24.953949], [121.345894, 24.953178], [121.346497, 24.953184], [121.345161, 24.953491], [121.344728, 24.95327], [121.344465, 24.952812], [121.344008, 24.952522], [121.343615, 24.953232], [121.343828, 24.953309], [121.344117, 24.953622], [121.344605, 24.953733], [121.34462, 24.954261], [121.345027, 24.954382], [121.345026, 24.954483], [121.344865, 24.954502], [121.344663, 24.954791], [121.344442, 24.954782], [121.344494, 24.954587], [121.34444, 24.954869], [121.344499, 24.955084], [121.344381, 24.955082], [121.344394, 24.955242], [121.344001, 24.955247], [121.343741, 24.95536], [121.343919, 24.955388], [121.344091, 24.955724], [121.344332, 24.955727], [121.344447, 24.955243], [121.344749, 24.955248], [121.344715, 24.955114], [121.344286, 24.954945], [121.344168, 24.954384], [121.34395, 24.954323], [121.343869, 24.954445], [121.34353, 24.954344], [121.343485, 24.954205], [121.343645, 24.954182], [121.343149, 24.953996], [121.34298, 24.954795], [121.342962, 24.955595], [121.342968, 24.955651], [121.343285, 24.955689], [121.3432, 24.955822], [121.342789, 24.955888], [121.342804, 24.95649], [121.34299, 24.956257], [121.342975, 24.956033], [121.343269, 24.956213], [121.343272, 24.956634], [121.34339, 24.956666], [121.343382, 24.956773], [121.343519, 24.956778], [121.343533, 24.95666], [121.343617, 24.956878], [121.344162, 24.956863], [121.344004, 24.95675], [121.34312, 24.956613], [121.343132, 24.956316], [121.34276, 24.95581], [121.342265, 24.95582], [121.342413, 24.954741], [121.343202, 24.95464], [121.343466, 24.954685], [121.343412, 24.955005], [121.343575, 24.954909], [121.343478, 24.954639], [121.343501, 24.954473], [121.343159, 24.953952], [121.343347, 24.953723], [121.343616, 24.953839], [121.34372, 24.953978], [121.343642, 24.955101], [121.34358, 24.9551], [121.345326, 24.955085], [121.345249, 24.956802], [121.345494, 24.956804], [121.345491, 24.956871], [121.344691, 24.956868], [121.344804, 24.956797], [121.345688, 24.95688], [121.349575, 24.956888], [121.349555, 24.956518], [121.349284, 24.956475], [121.349072, 24.95647], [121.349075, 24.956582], [121.349281, 24.956585], [121.348643, 24.956619], [121.348635, 24.956514], [121.348737, 24.956507], [121.348836, 24.956507], [121.34778, 24.956633], [121.347006, 24.95663], [121.346452, 24.956433], [121.341909, 24.95628], [121.341871, 24.956216], [121.3417, 24.95634], [121.341626, 24.956314], [121.341631, 24.95594], [121.341761, 24.955919], [121.341294, 24.956175], [121.340556, 24.956365], [121.340683, 24.956439], [121.341325, 24.956281], [121.341367, 24.956435], [121.340947, 24.956569], [121.340902, 24.956713], [121.340149, 24.956879], [121.340192, 24.957037], [121.340308, 24.956984], [121.339989, 24.957217], [121.339397, 24.956757], [121.339162, 24.955644], [121.33856, 24.955582], [121.338317, 24.955381], [121.338206, 24.955477], [121.338068, 24.955401], [121.338266, 24.955236], [121.338085, 24.955033], [121.338245, 24.954962], [121.338122, 24.954795], [121.338951, 24.954222], [121.338871, 24.954074], [121.338938, 24.954037], [121.338814, 24.953852], [121.338725, 24.954107], [121.339134, 24.953732], [121.339093, 24.953665], [121.339303, 24.953639], [121.339265, 24.953572], [121.33938, 24.953325], [121.340011, 24.953604], [121.339626, 24.95382], [121.339341, 24.954508], [121.339386, 24.954556], [121.339199, 24.954756], [121.338472, 24.955211], [121.338276, 24.954994], [121.337907, 24.954909], [121.337051, 24.955482], [121.336937, 24.955337], [121.337062, 24.955254], [121.33675, 24.954724], [121.33689, 24.954702], [121.337177, 24.955142], [121.337837, 24.954759], [121.337989, 24.955485], [121.337671, 24.955727], [121.338176, 24.956358], [121.338516, 24.956056], [121.338426, 24.955952], [121.338275, 24.956071], [121.338067, 24.956466], [121.337671, 24.956004], [121.337999, 24.955655], [121.338118, 24.956522], [121.337604, 24.957294], [121.33868, 24.95788], [121.341121, 24.957086], [121.341192, 24.957206], [121.341102, 24.957244], [121.340987, 24.956737], [121.341091, 24.956693], [121.341104, 24.956764], [121.341185, 24.956672], [121.341318, 24.956726], [121.341636, 24.956406], [121.341644, 24.95667], [121.34181, 24.956622], [121.341906, 24.956406], [121.341806, 24.956671], [121.341223, 24.956012], [121.340516, 24.956177], [121.340679, 24.955989], [121.340655, 24.955929], [121.340752, 24.95598], [121.341222, 24.955856], [121.340889, 24.955746], [121.340483, 24.955752], [121.340606, 24.954969], [121.340422, 24.955082], [121.340269, 24.955065], [121.340194, 24.955536], [121.340674, 24.955342], [121.341255, 24.954907], [121.341775, 24.954764], [121.341788, 24.954691], [121.341643, 24.954669], [121.341837, 24.954695], [121.341863, 24.954785], [121.34087, 24.954399], [121.340862, 24.953808], [121.340525, 24.953371], [121.340376, 24.953448], [121.341027, 24.95311], [121.340927, 24.952948], [121.340856, 24.952992], [121.340377, 24.952853], [121.340023, 24.952679], [121.340274, 24.95246], [121.340266, 24.951998], [121.340475, 24.951796], [121.341006, 24.951759], [121.341138, 24.951481], [121.341173, 24.951368], [121.341041, 24.951392], [121.340972, 24.951305], [121.341209, 24.95104], [121.340758, 24.950785], [121.340756, 24.951136], [121.340883, 24.951389], [121.341216, 24.95124], [121.341317, 24.951114], [121.341697, 24.951381], [121.342163, 24.951375], [121.342345, 24.951055], [121.342426, 24.951067], [121.342735, 24.950749], [121.343762, 24.950333], [121.343433, 24.95013], [121.343472, 24.949897], [121.343667, 24.949885], [121.344169, 24.950107], [121.344229, 24.949979], [121.344527, 24.950073], [121.344645, 24.94978], [121.343838, 24.949506], [121.343685, 24.949714], [121.343451, 24.949581], [121.343516, 24.949765], [121.343727, 24.949739], [121.344189, 24.949962], [121.344105, 24.949718], [121.343323, 24.949875], [121.342559, 24.949827], [121.342603, 24.949721], [121.343015, 24.949742], [121.342256, 24.949673], [121.342203, 24.949781], [121.34235, 24.949799], [121.342441, 24.950056], [121.342545, 24.950116], [121.342658, 24.950088], [121.342007, 24.949762], [121.341798, 24.949775], [121.341696, 24.949608], [121.341536, 24.949654], [121.341369, 24.949568], [121.341277, 24.949716], [121.341398, 24.949783], [121.341174, 24.950239], [121.3415, 24.950129], [121.340959, 24.949808], [121.340684, 24.949884], [121.340793, 24.950022], [121.340404, 24.950134], [121.34028, 24.949903], [121.339728, 24.949802], [121.339456, 24.949665], [121.3395, 24.950042], [121.33929, 24.950066], [121.339012, 24.949829], [121.338851, 24.950011], [121.338643, 24.949905], [121.338938, 24.949528], [121.338808, 24.949472], [121.338637, 24.948991], [121.338457, 24.948841], [121.337779, 24.949497], [121.337893, 24.949993], [121.33825, 24.950534], [121.338101, 24.950775], [121.33811, 24.951023], [121.338784, 24.951578], [121.338886, 24.951873], [121.339597, 24.952352], [121.339823, 24.952245], [121.339058, 24.951763], [121.33933, 24.951281], [121.339796, 24.951244], [121.339776, 24.951113], [121.339448, 24.951134], [121.339873, 24.95107], [121.340072, 24.951162], [121.339823, 24.950549], [121.339769, 24.950499], [121.339553, 24.950602], [121.339497, 24.950527], [121.338498, 24.950563], [121.338465, 24.950398], [121.338818, 24.950413], [121.338582, 24.950221], [121.337867, 24.950652], [121.337653, 24.951181], [121.337338, 24.951542], [121.337471, 24.951649], [121.337612, 24.951497], [121.33802, 24.951403], [121.338302, 24.951596]]}}, {"type": "Feature", "properties": {"district": "65000080", "segment": 11, "total_segments": 14, "km": 12.87, "villages": ["永昌里", "永吉里"]}, "geometry": {"type": "LineString", "coordinates": [[121.337934, 24.951784], [121.337786, 24.95178], [121.337687, 24.95195], [121.337809, 24.951994], [121.337849, 24.951915], [121.337444, 24.951829], [121.337362, 24.951914], [121.337452, 24.951958], [121.337098, 24.952576], [121.336983, 24.952539], [121.337091, 24.952244], [121.336785, 24.951819], [121.336278, 24.952731], [121.336517, 24.952904], [121.33689, 24.952902], [121.336806, 24.953269], [121.336978, 24.953246], [121.336728, 24.953561], [121.336805, 24.953664], [121.337078, 24.953489], [121.33747, 24.953696], [121.337308, 24.953837], [121.337184, 24.953694], [121.336761, 24.953688], [121.336536, 24.953826], [121.336475, 24.953903], [121.336782, 24.954488], [121.33663, 24.954525], [121.336516, 24.954289], [121.336875, 24.954625], [121.337933, 24.953534], [121.337854, 24.953174], [121.338054, 24.952783], [121.338716, 24.952957], [121.337017, 24.953015], [121.336987, 24.953139], [121.336114, 24.953123], [121.3372, 24.950181], [121.339725, 24.950607], [121.340128, 24.950538], [121.340535, 24.950368], [121.340653, 24.949249], [121.340735, 24.949046], [121.340474, 24.949024], [121.340543, 24.949112], [121.340399, 24.948855], [121.339515, 24.948992], [121.341667, 24.948892], [121.34182, 24.949123], [121.341969, 24.948969], [121.341743, 24.948798], [121.341856, 24.948768], [121.342048, 24.94891], [121.342222, 24.948739], [121.342717, 24.949045], [121.342699, 24.948893], [121.342238, 24.949139], [121.342455, 24.949304], [121.342361, 24.9494], [121.342278, 24.949329], [121.342159, 24.94938], [121.342039, 24.949286], [121.342052, 24.949175], [121.341845, 24.949436], [121.341892, 24.949477], [121.341798, 24.94948], [121.34173, 24.949338], [121.342145, 24.948687], [121.341794, 24.948451], [121.342073, 24.951662], [121.34169, 24.952398], [121.34146, 24.952351], [121.341365, 24.95243], [121.341403, 24.952682], [121.341094, 24.952854], [121.340982, 24.952573], [121.341507, 24.952824], [121.342038, 24.953617], [121.341828, 24.953726], [121.341669, 24.953383], [121.341508, 24.953471], [121.342028, 24.953365], [121.342835, 24.951895], [121.340161, 24.954473], [121.34019, 24.956041], [121.337101, 24.957478], [121.337211, 24.957742], [121.337102, 24.957808], [121.337212, 24.957906], [121.337282, 24.95786], [121.337037, 24.95802], [121.337117, 24.958165], [121.336683, 24.958443], [121.336893, 24.958431], [121.337149, 24.958278], [121.337215, 24.958227], [121.337159, 24.958141], [121.337263, 24.958071], [121.33725, 24.958481], [121.337345, 24.958633], [121.336889, 24.958965], [121.337039, 24.959124], [121.336748, 24.959374], [121.336453, 24.959472], [121.335576, 24.960002], [121.335498, 24.960132], [121.335548, 24.960201], [121.335392, 24.960114], [121.335116, 24.960267], [121.335042, 24.960055], [121.336583, 24.959097], [121.336533, 24.958999], [121.336886, 24.958722], [121.336814, 24.958631], [121.33739, 24.958604], [121.337703, 24.958422], [121.337715, 24.958838], [121.337085, 24.959101], [121.337428, 24.959126], [121.337463, 24.959187], [121.337652, 24.959069], [121.337609, 24.959015], [121.338055, 24.959011], [121.338162, 24.959111], [121.3382, 24.958965], [121.338408, 24.959176], [121.338371, 24.959367], [121.337803, 24.9597], [121.33789, 24.959832], [121.337761, 24.959858], [121.338204, 24.960468], [121.338233, 24.960338], [121.337961, 24.959927], [121.337317, 24.959577], [121.337044, 24.959725], [121.336925, 24.95964], [121.337249, 24.959468], [121.33657, 24.959984], [121.336069, 24.961112], [121.335818, 24.961233], [121.335709, 24.961203], [121.33624, 24.961356], [121.336539, 24.961872], [121.336796, 24.962105], [121.336879, 24.962035], [121.336535, 24.961613], [121.337058, 24.9622], [121.33697, 24.962274], [121.336877, 24.962183], [121.337139, 24.962457], [121.33749, 24.962283], [121.337393, 24.962171], [121.337563, 24.962142], [121.337181, 24.962327], [121.334515, 24.960728], [121.334306, 24.960459], [121.333954, 24.960707], [121.333394, 24.959825], [121.333591, 24.959708], [121.333731, 24.960028], [121.333824, 24.959879], [121.333694, 24.959676], [121.333867, 24.959608], [121.33398, 24.959882], [121.333899, 24.959946], [121.33418, 24.959601], [121.333648, 24.959383], [121.333645, 24.959309], [121.333299, 24.959282], [121.333463, 24.958124], [121.333913, 24.957786], [121.334326, 24.957609], [121.334571, 24.957269], [121.335321, 24.956918], [121.335404, 24.957059], [121.335575, 24.957064], [121.335625, 24.95715], [121.335152, 24.956654], [121.33511, 24.956578], [121.335224, 24.956546], [121.335275, 24.956625], [121.335197, 24.95641], [121.333204, 24.95682], [121.333183, 24.956728], [121.332996, 24.95677], [121.333299, 24.957273], [121.333065, 24.957202], [121.333402, 24.957569], [121.33343, 24.957719], [121.333192, 24.957744], [121.334226, 24.958202], [121.334094, 24.9586], [121.33382, 24.958952], [121.333504, 24.958904], [121.333711, 24.959182], [121.332913, 24.958766], [121.332207, 24.959423], [121.332261, 24.959519], [121.332012, 24.959814], [121.332244, 24.960188], [121.331679, 24.96049], [121.331391, 24.960545], [121.330973, 24.960497], [121.331459, 24.960404], [121.3316, 24.960248], [121.331712, 24.960039], [121.331745, 24.959801], [121.331659, 24.959769], [121.33173, 24.959564], [121.331522, 24.960196], [121.332368, 24.960126], [121.332601, 24.960016], [121.331536, 24.958922], [121.331416, 24.958984], [121.331597, 24.959213], [121.331346, 24.959118], [121.331675, 24.95883], [121.331927, 24.95908], [121.331545, 24.958501], [121.331597, 24.95847], [121.331179, 24.958566], [121.330768, 24.958874], [121.330633, 24.958823], [121.330061, 24.957988], [121.330195, 24.957789], [121.329702, 24.957522], [121.330068, 24.957145], [121.329747, 24.957106], [121.329737, 24.957158], [121.329814, 24.956909], [121.331726, 24.957619], [121.331907, 24.957539], [121.331939, 24.957624], [121.331713, 24.957726], [121.332804, 24.955897], [121.331427, 24.955362], [121.335222, 24.95963], [121.334876, 24.960145]]}}, {"type": "Feature", "properties": {"district": "65000080", "segment": 12, "total_segments": 14, "km": 14.9, "villages": ["鳳祥里", "鳳鳴里"]}, "geometry": {"type": "LineString", "coordinates": [[121.333605, 24.960542], [121.333283, 24.960698], [121.333331, 24.960789], [121.333703, 24.960844], [121.333913, 24.961377], [121.333655, 24.96309], [121.333491, 24.963498], [121.331245, 24.966857], [121.330457, 24.967415], [121.329761, 24.966891], [121.32993, 24.966814], [121.32968, 24.967128], [121.330299, 24.96759], [121.330234, 24.967657], [121.329537, 24.967141], [121.329596, 24.967065], [121.329402, 24.967284], [121.3301, 24.967805], [121.330173, 24.967972], [121.329793, 24.968447], [121.328716, 24.969334], [121.328824, 24.96895], [121.329191, 24.968673], [121.329563, 24.968253], [121.328941, 24.967786], [121.329022, 24.967716], [121.329222, 24.96786], [121.32971, 24.968231], [121.329635, 24.968306], [121.329824, 24.968097], [121.329148, 24.967593], [121.329213, 24.967506], [121.329638, 24.967824], [121.329781, 24.967682], [121.329349, 24.967358], [121.330277, 24.967902], [121.330596, 24.967553], [121.328703, 24.964044], [121.3295, 24.963709], [121.329841, 24.962155], [121.329631, 24.96211], [121.329401, 24.962207], [121.329126, 24.96213], [121.329809, 24.960662], [121.330862, 24.960598], [121.331579, 24.960687], [121.332692, 24.960127], [121.333036, 24.960497], [121.333113, 24.960472], [121.332912, 24.960016], [121.333328, 24.960063], [121.332898, 24.961007], [121.33271, 24.961091], [121.332811, 24.960935], [121.33166, 24.96084], [121.331214, 24.962313], [121.331808, 24.962443], [121.333201, 24.96248], [121.333335, 24.963011], [121.333872, 24.963175], [121.333842, 24.963354], [121.333338, 24.964174], [121.333893, 24.963994], [121.334017, 24.963722], [121.333886, 24.96313], [121.334137, 24.961486], [121.334207, 24.962914], [121.335329, 24.963415], [121.334857, 24.964827], [121.334376, 24.965136], [121.334433, 24.964995], [121.334179, 24.965363], [121.334417, 24.965661], [121.334514, 24.965584], [121.334608, 24.965675], [121.334811, 24.966028], [121.334924, 24.965972], [121.335344, 24.967221], [121.33444, 24.967422], [121.334066, 24.967995], [121.333826, 24.967879], [121.333787, 24.967956], [121.334021, 24.968067], [121.33406, 24.968196], [121.334337, 24.968293], [121.334232, 24.968371], [121.33405, 24.968288], [121.333956, 24.968453], [121.334087, 24.968554], [121.334035, 24.968585], [121.332721, 24.967425], [121.33245, 24.967237], [121.332355, 24.967339], [121.332883, 24.967798], [121.333104, 24.96758], [121.333247, 24.967566], [121.333759, 24.967064], [121.333224, 24.967145], [121.332876, 24.967081], [121.332998, 24.966965], [121.333096, 24.967001], [121.332332, 24.967156], [121.332307, 24.967294], [121.332161, 24.966893], [121.332587, 24.966814], [121.332761, 24.966539], [121.332313, 24.966234], [121.332507, 24.965899], [121.33261, 24.965945], [121.332484, 24.966117], [121.33262, 24.966363], [121.332792, 24.966464], [121.331946, 24.966205], [121.332274, 24.965813], [121.332919, 24.964768], [121.333609, 24.965243], [121.3332, 24.965318], [121.333176, 24.965183], [121.333795, 24.96517], [121.333767, 24.965467], [121.333928, 24.965833], [121.333832, 24.965955], [121.333954, 24.966052], [121.333872, 24.966095], [121.333958, 24.966273], [121.334176, 24.966317], [121.334189, 24.966138], [121.334099, 24.965999], [121.334627, 24.96546], [121.335181, 24.965185], [121.335496, 24.965317], [121.336693, 24.964936], [121.333005, 24.964638], [121.331598, 24.966745], [121.331769, 24.967073], [121.330984, 24.967518], [121.330241, 24.968423], [121.329047, 24.969312], [121.328818, 24.969575], [121.329461, 24.969932], [121.329597, 24.969595], [121.328987, 24.970123], [121.330025, 24.970838], [121.330062, 24.970738], [121.329771, 24.970541], [121.329914, 24.970429], [121.330373, 24.970773], [121.329793, 24.971491], [121.330076, 24.971629], [121.330163, 24.97153], [121.330285, 24.971582], [121.330241, 24.971428], [121.330704, 24.970753], [121.330961, 24.970946], [121.330903, 24.971021], [121.330812, 24.970964], [121.331116, 24.971142], [121.331223, 24.971013], [121.33132, 24.97107], [121.331223, 24.971216], [121.331477, 24.970767], [121.331339, 24.970712], [121.331278, 24.970811], [121.330966, 24.970552], [121.330517, 24.970589], [121.330316, 24.970023], [121.32956, 24.971029], [121.329857, 24.971886], [121.329555, 24.972232], [121.330024, 24.972014], [121.330023, 24.971949], [121.330318, 24.972138], [121.330333, 24.97222], [121.330375, 24.972185], [121.330272, 24.972418], [121.330202, 24.972362], [121.330485, 24.972536], [121.330451, 24.97258], [121.330558, 24.972572], [121.330571, 24.972432], [121.330757, 24.972476], [121.330972, 24.972621], [121.330888, 24.972685], [121.331218, 24.972874], [121.330967, 24.97316], [121.330857, 24.973088], [121.331005, 24.972843], [121.33078, 24.9726], [121.330428, 24.97274], [121.330408, 24.97266], [121.33021, 24.973066], [121.33015, 24.973031], [121.330188, 24.972973], [121.330043, 24.973172], [121.330272, 24.973304], [121.330314, 24.973243], [121.330379, 24.973284], [121.330338, 24.973343], [121.330607, 24.973394], [121.330765, 24.973203], [121.330871, 24.973282], [121.330722, 24.973467], [121.329966, 24.972923], [121.329423, 24.973091], [121.330224, 24.971789], [121.33017, 24.971753], [121.330499, 24.971812], [121.330764, 24.971608], [121.331402, 24.971415], [121.33147, 24.971317], [121.331442, 24.971441], [121.331733, 24.97088], [121.332741, 24.971432], [121.332808, 24.971259], [121.332744, 24.971227], [121.333007, 24.971575], [121.333211, 24.971454], [121.333307, 24.971224], [121.333286, 24.971511], [121.33377, 24.971922], [121.333897, 24.971869], [121.334041, 24.971971], [121.333905, 24.972029], [121.334068, 24.971809], [121.334144, 24.971865], [121.334459, 24.971794], [121.334528, 24.971689], [121.334431, 24.971623], [121.3346, 24.971781], [121.334482, 24.971989], [121.334692, 24.972019], [121.334861, 24.971889], [121.335539, 24.97245], [121.335439, 24.972557], [121.335387, 24.972522], [121.335259, 24.972775], [121.335642, 24.973053], [121.335498, 24.973138], [121.335159, 24.972898], [121.335108, 24.972779], [121.334873, 24.972732], [121.33462, 24.97253], [121.33473, 24.972392], [121.335002, 24.972588], [121.33547, 24.9721], [121.335611, 24.972211], [121.335693, 24.972127], [121.335472, 24.971956], [121.335397, 24.972034], [121.334988, 24.971768], [121.335221, 24.971201], [121.334891, 24.971063], [121.334873, 24.970917], [121.334723, 24.970937], [121.334563, 24.970824], [121.334502, 24.970908], [121.3349, 24.971185], [121.335171, 24.970735], [121.335069, 24.97067], [121.335108, 24.970617], [121.334903, 24.970574], [121.334941, 24.970517], [121.334586, 24.970295], [121.334702, 24.970097], [121.33478, 24.970134], [121.334427, 24.970229], [121.334787, 24.969857], [121.334856, 24.969918], [121.334869, 24.969762], [121.334759, 24.969675], [121.334684, 24.969776], [121.334588, 24.969712], [121.334575, 24.969538], [121.334656, 24.969437], [121.334729, 24.969511], [121.334963, 24.96942], [121.3351, 24.96954], [121.33503, 24.969875], [121.335142, 24.969967], [121.33521, 24.969889], [121.33535, 24.969986], [121.335252, 24.970032], [121.335313, 24.970082], [121.335252, 24.970159], [121.335371, 24.970236], [121.335429, 24.970154], [121.335079, 24.970051], [121.335526, 24.969907], [121.33605, 24.970335], [121.336312, 24.970455], [121.336384, 24.970709], [121.336542, 24.970871], [121.336698, 24.970883], [121.336567, 24.971078], [121.336352, 24.970937], [121.336799, 24.970481], [121.335923, 24.97053], [121.335796, 24.970465], [121.33575, 24.970541], [121.33581, 24.970357], [121.335825, 24.971245], [121.335966, 24.971357], [121.336334, 24.97145], [121.336483, 24.971727], [121.336965, 24.972116], [121.337157, 24.971826], [121.337174, 24.97166], [121.335476, 24.971288]]}}, {"type": "Feature", "properties": {"district": "65000080", "segment": 13, "total_segments": 14, "km": 12.1, "villages": ["鳳鳴里", "大湖里"]}, "geometry": {"type": "LineString", "coordinates": [[121.334042, 24.970648], [121.333727, 24.969746], [121.333601, 24.96968], [121.333663, 24.969582], [121.334021, 24.969664], [121.334131, 24.969382], [121.334189, 24.969411], [121.334088, 24.969224], [121.333871, 24.969102], [121.333667, 24.969129], [121.333545, 24.969368], [121.333323, 24.969322], [121.333042, 24.969759], [121.332879, 24.969664], [121.333143, 24.969816], [121.332504, 24.969932], [121.332321, 24.970062], [121.331928, 24.969739], [121.331991, 24.969651], [121.332157, 24.96975], [121.332158, 24.969438], [121.332245, 24.969363], [121.332022, 24.969244], [121.332419, 24.968649], [121.332498, 24.968551], [121.332582, 24.968612], [121.33251, 24.968698], [121.332783, 24.968408], [121.332705, 24.968331], [121.332604, 24.968422], [121.333181, 24.968255], [121.333276, 24.968345], [121.333196, 24.968362], [121.333126, 24.968205], [121.333487, 24.968466], [121.333427, 24.968542], [121.333369, 24.968486], [121.333633, 24.96848], [121.333829, 24.968624], [121.333928, 24.968433], [121.334385, 24.968458], [121.334554, 24.968621], [121.334463, 24.968705], [121.334353, 24.968656], [121.334233, 24.968785], [121.334582, 24.969044], [121.334462, 24.969175], [121.334084, 24.968843], [121.334145, 24.968711], [121.334482, 24.968395], [121.334975, 24.968371], [121.335053, 24.96914], [121.333746, 24.967771], [121.332284, 24.971021], [121.331906, 24.97135], [121.331722, 24.971627], [121.331454, 24.972453], [121.33159, 24.972428], [121.331667, 24.972242], [121.331791, 24.972329], [121.331562, 24.972548], [121.331345, 24.972359], [121.332596, 24.973879], [121.334218, 24.972204], [121.336178, 24.973621], [121.336724, 24.973149], [121.337161, 24.973003], [121.337171, 24.972845], [121.337491, 24.972753], [121.337672, 24.972495], [121.33759, 24.973137], [121.338065, 24.97348], [121.338535, 24.973324], [121.338649, 24.973133], [121.338969, 24.973048], [121.33932, 24.973213], [121.339115, 24.973596], [121.339035, 24.973555], [121.339556, 24.973415], [121.339595, 24.973113], [121.339085, 24.97287], [121.33887, 24.974316], [121.338686, 24.974288], [121.338571, 24.974478], [121.338433, 24.974395], [121.338409, 24.974502], [121.338666, 24.974892], [121.338128, 24.975446], [121.338322, 24.975628], [121.338229, 24.975788], [121.337979, 24.975574], [121.338138, 24.975872], [121.338364, 24.976073], [121.338202, 24.976225], [121.338065, 24.976101], [121.338002, 24.976148], [121.338235, 24.976359], [121.33824, 24.97626], [121.338508, 24.976323], [121.337962, 24.976112], [121.337766, 24.975936], [121.337983, 24.976027], [121.337524, 24.976555], [121.337418, 24.976461], [121.337294, 24.976529], [121.337214, 24.976459], [121.337068, 24.976585], [121.33714, 24.976686], [121.337357, 24.976298], [121.337495, 24.976332], [121.337267, 24.976105], [121.336937, 24.976392], [121.33679, 24.976275], [121.337147, 24.975983], [121.336967, 24.975809], [121.335764, 24.976783], [121.336331, 24.977221], [121.336335, 24.977314], [121.33669, 24.977633], [121.336488, 24.977664], [121.336291, 24.977826], [121.336228, 24.977775], [121.336406, 24.977586], [121.33623, 24.977434], [121.336043, 24.977578], [121.335915, 24.977479], [121.336103, 24.97731], [121.335962, 24.977153], [121.335722, 24.977299], [121.33564, 24.977205], [121.335849, 24.977051], [121.335648, 24.976849], [121.335041, 24.977398], [121.335335, 24.97749], [121.335509, 24.97736], [121.335627, 24.977469], [121.335352, 24.977746], [121.335664, 24.97804], [121.335467, 24.978147], [121.335205, 24.97783], [121.335242, 24.977659], [121.335612, 24.977751], [121.335776, 24.977624], [121.335871, 24.977714], [121.335741, 24.977806], [121.335878, 24.977956], [121.336033, 24.977862], [121.336125, 24.977944], [121.335538, 24.978312], [121.335506, 24.978516], [121.335703, 24.978753], [121.336082, 24.978533], [121.336365, 24.978168], [121.336278, 24.978096], [121.335806, 24.978341], [121.335651, 24.978796], [121.335434, 24.978979], [121.335439, 24.979084], [121.335637, 24.978915], [121.335638, 24.9792], [121.335517, 24.979489], [121.335307, 24.979341], [121.335186, 24.979359], [121.335188, 24.979444], [121.334954, 24.979386], [121.334954, 24.979458], [121.334809, 24.979461], [121.334771, 24.97957], [121.335321, 24.979726], [121.335494, 24.979661], [121.3364, 24.979695], [121.337383, 24.979193], [121.337448, 24.979318], [121.337079, 24.979498], [121.336519, 24.978541], [121.336584, 24.978408], [121.33653, 24.978334], [121.336416, 24.978465], [121.336743, 24.978282], [121.336885, 24.978091], [121.336776, 24.977934], [121.336602, 24.978114], [121.336491, 24.978009], [121.336708, 24.977872], [121.336655, 24.977104], [121.336407, 24.97684], [121.336753, 24.976831], [121.336919, 24.976923], [121.336837, 24.976991], [121.337211, 24.977196], [121.337334, 24.977076], [121.337254, 24.977059], [121.337691, 24.976717], [121.337884, 24.976941], [121.338037, 24.976867], [121.33851, 24.97729], [121.338121, 24.977131], [121.337961, 24.976776], [121.337754, 24.976575], [121.337611, 24.97664], [121.336786, 24.97657], [121.337213, 24.975727], [121.336215, 24.974616], [121.336219, 24.974347], [121.335784, 24.97427], [121.335146, 24.97464], [121.335014, 24.974567], [121.334792, 24.97476], [121.334775, 24.975144], [121.3346, 24.975291], [121.334196, 24.975432], [121.334423, 24.97566], [121.334297, 24.976172], [121.3351, 24.976249], [121.335141, 24.976198], [121.335164, 24.976712], [121.335024, 24.976895], [121.335185, 24.977052], [121.334942, 24.976978], [121.334622, 24.977111], [121.334477, 24.97739], [121.334134, 24.977334], [121.334038, 24.97744], [121.334487, 24.977517], [121.334545, 24.977456], [121.333583, 24.978204], [121.333891, 24.978405], [121.333827, 24.978641], [121.334602, 24.97905], [121.334584, 24.97928], [121.334311, 24.979196], [121.333971, 24.97928], [121.33421, 24.979509], [121.334353, 24.979585], [121.334846, 24.979351], [121.333479, 24.97888], [121.333522, 24.978103], [121.333092, 24.977565], [121.333528, 24.976863], [121.332588, 24.976749], [121.332519, 24.976912], [121.331829, 24.977469], [121.331645, 24.977781], [121.330911, 24.978256], [121.330879, 24.978993], [121.330652, 24.97887], [121.33066, 24.978528], [121.330573, 24.978873], [121.330197, 24.97904], [121.330886, 24.979141], [121.330869, 24.979339], [121.337684, 24.977483], [121.337788, 24.977476], [121.338198, 24.977873], [121.338341, 24.977748], [121.338556, 24.977714], [121.338803, 24.977875], [121.338956, 24.977744], [121.338763, 24.97791], [121.338184, 24.978262], [121.338077, 24.978177], [121.337135, 24.973164]]}}, {"type": "Feature", "properties": {"district": "65000080", "segment": 14, "total_segments": 14, "km": 8.33, "villages": ["鳳福里"]}, "geometry": {"type": "LineString", "coordinates": [[121.333129, 24.975415], [121.332209, 24.975946], [121.331318, 24.975872], [121.331277, 24.975781], [121.331103, 24.975997], [121.331185, 24.976061], [121.331393, 24.975946], [121.331029, 24.976256], [121.330943, 24.976191], [121.330839, 24.976416], [121.33092, 24.97648], [121.331004, 24.976387], [121.331492, 24.97668], [121.331427, 24.976773], [121.331129, 24.976599], [121.330994, 24.97678], [121.33136, 24.977006], [121.330804, 24.977751], [121.330682, 24.977655], [121.330584, 24.977795], [121.330652, 24.977876], [121.330505, 24.978065], [121.330439, 24.977992], [121.330518, 24.977889], [121.330407, 24.978021], [121.330353, 24.97811], [121.330499, 24.978193], [121.330736, 24.977571], [121.331118, 24.977113], [121.33067, 24.9769], [121.330638, 24.976976], [121.330822, 24.977095], [121.330949, 24.976756], [121.33019, 24.976335], [121.330306, 24.976189], [121.330446, 24.976137], [121.330549, 24.976214], [121.330675, 24.976075], [121.330061, 24.975783], [121.330128, 24.975697], [121.330359, 24.97583], [121.330574, 24.975515], [121.330638, 24.975551], [121.330709, 24.975474], [121.330477, 24.975326], [121.330413, 24.975411], [121.330475, 24.975452], [121.330264, 24.975323], [121.330324, 24.975263], [121.33014, 24.97513], [121.33007, 24.975209], [121.330143, 24.975255], [121.329872, 24.975732], [121.329568, 24.97556], [121.329624, 24.975477], [121.329795, 24.975583], [121.329452, 24.97588], [121.329381, 24.975858], [121.329613, 24.976248], [121.329832, 24.976107], [121.329966, 24.976327], [121.33047, 24.976266], [121.330113, 24.977274], [121.330249, 24.977364], [121.330139, 24.977524], [121.329993, 24.977432], [121.329716, 24.977713], [121.329816, 24.977776], [121.331327, 24.977333], [121.331392, 24.977377], [121.331353, 24.977427], [121.328818, 24.975791], [121.328754, 24.97568], [121.328794, 24.975494], [121.325917, 24.973733], [121.325971, 24.973645], [121.328948, 24.975437], [121.328878, 24.975547], [121.329064, 24.975242], [121.3286, 24.975041], [121.328649, 24.974976], [121.325347, 24.973003], [121.325465, 24.972941], [121.32616, 24.973357], [121.326323, 24.973144], [121.326584, 24.973306], [121.326337, 24.973273], [121.325606, 24.972736], [121.325562, 24.972634], [121.326297, 24.971929], [121.32642, 24.972096], [121.32776, 24.97291], [121.327694, 24.973037], [121.326339, 24.972213], [121.32622, 24.972376], [121.327624, 24.973243], [121.327555, 24.973362], [121.326069, 24.972465], [121.326223, 24.972751], [121.326153, 24.972856], [121.326203, 24.972888], [121.326277, 24.972789], [121.326545, 24.972944], [121.326951, 24.973327], [121.327447, 24.973622], [121.327402, 24.973715], [121.327182, 24.973584], [121.326996, 24.973759], [121.327052, 24.973802], [121.326678, 24.97363], [121.326721, 24.973563], [121.3259, 24.973581], [121.325167, 24.973152], [121.325089, 24.973243], [121.324953, 24.973195], [121.324846, 24.9733], [121.325162, 24.973276], [121.325789, 24.973647], [121.325552, 24.972807], [121.325427, 24.972751], [121.325077, 24.973061], [121.325516, 24.972667], [121.325372, 24.972483], [121.326116, 24.9718], [121.32579, 24.971824], [121.325033, 24.971369], [121.324993, 24.971431], [121.325679, 24.971838], [121.325518, 24.972062], [121.324015, 24.971212], [121.32393, 24.971274], [121.325433, 24.972097], [121.324888, 24.971363], [121.324247, 24.971056], [121.324066, 24.971067], [121.323883, 24.971251], [121.324279, 24.971616], [121.324238, 24.97176], [121.324321, 24.971786], [121.324378, 24.971688], [121.324322, 24.971898], [121.324016, 24.971812], [121.324394, 24.971026], [121.324965, 24.971328], [121.327831, 24.973686], [121.327754, 24.973831], [121.327622, 24.973758], [121.327928, 24.973967], [121.327984, 24.973781], [121.328081, 24.973831], [121.328478, 24.973634], [121.32901, 24.973939], [121.329064, 24.973869], [121.328527, 24.973566], [121.328955, 24.973082], [121.329079, 24.973172], [121.328926, 24.973381], [121.32965, 24.973793], [121.329751, 24.973643], [121.32991, 24.97374], [121.329749, 24.973968], [121.329599, 24.973873], [121.329813, 24.974418], [121.328905, 24.975228], [121.328774, 24.975145]]}}]}