{"type": "FeatureCollection", "features": [{"type": "Feature", "properties": {"district": "1000408", "segment": 1, "total_segments": 20, "km": 12.57, "villages": ["內灣村"]}, "geometry": {"type": "LineString", "coordinates": [[121.175728, 24.705483], [121.175659, 24.705975], [121.174145, 24.703859], [121.173548, 24.702863], [121.173689, 24.702648], [121.173838, 24.702727], [121.17391, 24.702246], [121.176679, 24.703], [121.176755, 24.702911], [121.178515, 24.703043], [121.179184, 24.703221], [121.180128, 24.703032], [121.180363, 24.70196], [121.181051, 24.701456], [121.181367, 24.701571], [121.181622, 24.701501], [121.181716, 24.701633], [121.180968, 24.702011], [121.180469, 24.701091], [121.181024, 24.700931], [121.181984, 24.701306], [121.18261, 24.701021], [121.183052, 24.700715], [121.183595, 24.6999], [121.184016, 24.700019], [121.184073, 24.699885], [121.183935, 24.69983], [121.184136, 24.700193], [121.183224, 24.701766], [121.184139, 24.702824], [121.184072, 24.702881], [121.184109, 24.702964], [121.184242, 24.702947], [121.184045, 24.703241], [121.184038, 24.703121], [121.183963, 24.703145], [121.184094, 24.7034], [121.184222, 24.70334], [121.184291, 24.703495], [121.184068, 24.703611], [121.184062, 24.703755], [121.183951, 24.703726], [121.183962, 24.703582], [121.183766, 24.703456], [121.18376, 24.703569], [121.183828, 24.70358], [121.183635, 24.704013], [121.183912, 24.704548], [121.183852, 24.705066], [121.18398, 24.705089], [121.183906, 24.705261], [121.18373, 24.705196], [121.183611, 24.705359], [121.183635, 24.70557], [121.183929, 24.705585], [121.183958, 24.705487], [121.18382, 24.705841], [121.183167, 24.705899], [121.183167, 24.705646], [121.183062, 24.705622], [121.183168, 24.705381], [121.183127, 24.705037], [121.183599, 24.704984], [121.182706, 24.70475], [121.182547, 24.70496], [121.181626, 24.705549], [121.181734, 24.705326], [121.181584, 24.705387], [121.181503, 24.705594], [121.181312, 24.705732], [121.181421, 24.705812], [121.181677, 24.705786], [121.181848, 24.705552], [121.182108, 24.70542], [121.18214, 24.705467], [121.182277, 24.705332], [121.182117, 24.70561], [121.181787, 24.705874], [121.181643, 24.705853], [121.181545, 24.706094], [121.181484, 24.706348], [121.181649, 24.706274], [121.181662, 24.706158], [121.181637, 24.706373], [121.181782, 24.706459], [121.181573, 24.70689], [121.181644, 24.706925], [121.181398, 24.707077], [121.181394, 24.706901], [121.1815, 24.706813], [121.181307, 24.70679], [121.18132, 24.70653], [121.180959, 24.706435], [121.180659, 24.707447], [121.180565, 24.707523], [121.180412, 24.707355], [121.180588, 24.706982], [121.180429, 24.707034], [121.18047, 24.706837], [121.179999, 24.706652], [121.180136, 24.706563], [121.180553, 24.70675], [121.180679, 24.706654], [121.180731, 24.706411], [121.180161, 24.706316], [121.1802, 24.706229], [121.180781, 24.706339], [121.180836, 24.705948], [121.181061, 24.705834], [121.181042, 24.705737], [121.181325, 24.705418], [121.181367, 24.705503], [121.181395, 24.705314], [121.181103, 24.705224], [121.181185, 24.705073], [121.181511, 24.705238], [121.181576, 24.705119], [121.181512, 24.705037], [121.181632, 24.705083], [121.181616, 24.70514], [121.181855, 24.705089], [121.182131, 24.704884], [121.182412, 24.704804], [121.182517, 24.704659], [121.182715, 24.704697], [121.183139, 24.703711], [121.183261, 24.703773], [121.18345, 24.703593], [121.183619, 24.70367], [121.182867, 24.703953], [121.1828, 24.704137], [121.181444, 24.704175], [121.180796, 24.704533], [121.180822, 24.705386], [121.180702, 24.705897], [121.180574, 24.706007], [121.180999, 24.706345], [121.18109, 24.706319], [121.181081, 24.70639], [121.181363, 24.706345], [121.181334, 24.706431], [121.181458, 24.706452], [121.181096, 24.706725], [121.181076, 24.706914], [121.180917, 24.707094], [121.180944, 24.707266], [121.18087, 24.707319], [121.181035, 24.707359], [121.181239, 24.706962], [121.181483, 24.705896], [121.181381, 24.705915], [121.181382, 24.705851], [121.181236, 24.705901], [121.180359, 24.707224], [121.179993, 24.707128], [121.17994, 24.706942], [121.180035, 24.706965], [121.179897, 24.706779], [121.179784, 24.706782], [121.17968, 24.706905], [121.179753, 24.706973], [121.179626, 24.707131], [121.179627, 24.707715], [121.179802, 24.707789], [121.179521, 24.707934], [121.179179, 24.707723], [121.180191, 24.707854], [121.180264, 24.707461], [121.180821, 24.707458], [121.180965, 24.707536], [121.180943, 24.707599], [121.181003, 24.707499], [121.181862, 24.707286], [121.182018, 24.70692], [121.182185, 24.706829], [121.182314, 24.706951], [121.182149, 24.707219], [121.182258, 24.706468], [121.182378, 24.706437], [121.182453, 24.706254], [121.182742, 24.706492], [121.183006, 24.70621], [121.183225, 24.706291], [121.183283, 24.706246], [121.183301, 24.706419], [121.183203, 24.706451], [121.183554, 24.706313], [121.182814, 24.705794], [121.180002, 24.705916], [121.179891, 24.706158], [121.180013, 24.706203], [121.179905, 24.706533], [121.179393, 24.705318], [121.180928, 24.708488], [121.184209, 24.702771], [121.188065, 24.70131], [121.188129, 24.701068], [121.187916, 24.70093], [121.187672, 24.700861], [121.187564, 24.701089], [121.188108, 24.700741], [121.188288, 24.700745], [121.188394, 24.700654], [121.188097, 24.700513], [121.188673, 24.700429], [121.188322, 24.700043], [121.188448, 24.699764], [121.188608, 24.699881], [121.188612, 24.699277], [121.188405, 24.699012], [121.18853, 24.6984], [121.188695, 24.698957], [121.188445, 24.701033], [121.186806, 24.712536], [121.186884, 24.712873], [121.187787, 24.713565], [121.187541, 24.714037], [121.189313, 24.713571], [121.189234, 24.715779]]}}, {"type": "Feature", "properties": {"district": "1000408", "segment": 2, "total_segments": 20, "km": 0.23, "villages": ["內灣村"]}, "geometry": {"type": "LineString", "coordinates": [[121.176153, 24.788659], [121.176429, 24.790756]]}}, {"type": "Feature", "properties": {"district": "1000408", "segment": 3, "total_segments": 20, "km": 1.2, "villages": ["內灣村", "豐田村"]}, "geometry": {"type": "LineString", "coordinates": [[121.029468, 24.872597], [121.020881, 24.86519]]}}, {"type": "Feature", "properties": {"district": "1000408", "segment": 4, "total_segments": 20, "km": 14.3, "villages": ["豐田村"]}, "geometry": {"type": "LineString", "coordinates": [[121.132597, 24.714013], [121.139772, 24.708483], [121.140068, 24.707881], [121.139876, 24.707726], [121.140299, 24.707409], [121.140467, 24.707394], [121.140404, 24.707854], [121.142968, 24.706133], [121.146743, 24.704473], [121.147576, 24.70484], [121.147879, 24.704536], [121.147918, 24.704312], [121.148337, 24.704307], [121.147867, 24.703326], [121.152674, 24.704667], [121.152811, 24.704757], [121.153359, 24.705771], [121.154075, 24.706114], [121.15473, 24.705633], [121.154489, 24.705236], [121.155246, 24.704883], [121.155505, 24.704565], [121.155463, 24.704388], [121.155808, 24.705191], [121.155953, 24.704485], [121.156073, 24.704277], [121.157133, 24.704235], [121.158036, 24.704098], [121.157977, 24.704381], [121.158639, 24.704614], [121.159054, 24.704947], [121.157786, 24.705484], [121.157742, 24.706576], [121.158035, 24.706685], [121.157832, 24.70717], [121.157495, 24.707507], [121.157215, 24.708062], [121.157726, 24.708804], [121.158749, 24.709565], [121.160404, 24.709693], [121.161107, 24.709554], [121.160733, 24.710326], [121.162767, 24.710345], [121.163342, 24.710612], [121.163439, 24.709368], [121.164355, 24.708655], [121.164512, 24.708691], [121.165284, 24.70964], [121.165201, 24.709766], [121.166456, 24.710522], [121.167046, 24.710082], [121.167593, 24.70896], [121.168399, 24.707681], [121.168614, 24.707811], [121.16909, 24.707491], [121.169167, 24.707541], [121.168864, 24.707321], [121.169194, 24.706696], [121.169889, 24.706619], [121.169927, 24.707306], [121.170118, 24.707523], [121.168499, 24.706328], [121.16895, 24.704308], [121.166382, 24.707511], [121.165527, 24.707831], [121.162313, 24.708064], [121.16217, 24.707991], [121.16234, 24.707915], [121.161615, 24.707192], [121.161859, 24.706943], [121.160937, 24.707318], [121.160187, 24.707888], [121.160563, 24.708497], [121.158909, 24.707164], [121.158282, 24.707509], [121.157126, 24.706688], [121.157123, 24.706528], [121.15627, 24.706453], [121.159916, 24.706397], [121.157243, 24.70337], [121.157565, 24.70273], [121.157992, 24.702361], [121.157977, 24.702225], [121.157329, 24.701717], [121.156848, 24.70155], [121.15683, 24.70139], [121.156406, 24.701749], [121.155791, 24.702484], [121.155779, 24.702889], [121.154658, 24.700899], [121.154903, 24.700579], [121.154541, 24.700357], [121.154577, 24.700028], [121.154654, 24.699961], [121.154028, 24.698729], [121.153501, 24.696797], [121.154557, 24.695665], [121.155362, 24.695899], [121.155573, 24.696081], [121.155675, 24.696035], [121.155809, 24.694824], [121.152412, 24.693117], [121.151388, 24.693155], [121.149902, 24.694103], [121.148746, 24.694108], [121.14895, 24.694929], [121.149759, 24.695532], [121.149887, 24.696234], [121.150207, 24.696692], [121.151855, 24.696498], [121.151861, 24.697266], [121.151602, 24.698173], [121.148515, 24.697188], [121.148052, 24.695636], [121.146784, 24.694851], [121.149055, 24.692869], [121.148828, 24.691105], [121.15199, 24.691209], [121.152229, 24.69109]]}}, {"type": "Feature", "properties": {"district": "1000408", "segment": 5, "total_segments": 20, "km": 14.99, "villages": ["豐田村", "豐鄉村"]}, "geometry": {"type": "LineString", "coordinates": [[121.162017, 24.700541], [121.162132, 24.700744], [121.161891, 24.701193], [121.163214, 24.699526], [121.165051, 24.698883], [121.165111, 24.698236], [121.162783, 24.68756], [121.151211, 24.682962], [121.151263, 24.682691], [121.150825, 24.682754], [121.150688, 24.682458], [121.150594, 24.68251], [121.150981, 24.682264], [121.150513, 24.681952], [121.150391, 24.682998], [121.149467, 24.683579], [121.148606, 24.683783], [121.148533, 24.683676], [121.147654, 24.683986], [121.147741, 24.684346], [121.147328, 24.684316], [121.14717, 24.684002], [121.147217, 24.683961], [121.146426, 24.684451], [121.146125, 24.68499], [121.146719, 24.685268], [121.144715, 24.684666], [121.144616, 24.684813], [121.144556, 24.683964], [121.144888, 24.683919], [121.144775, 24.686737], [121.143631, 24.68713], [121.143133, 24.68676], [121.143154, 24.686626], [121.142994, 24.686778], [121.142746, 24.68677], [121.142668, 24.686971], [121.14409, 24.688195], [121.144338, 24.688679], [121.144619, 24.688985], [121.144486, 24.689208], [121.144673, 24.688245], [121.145727, 24.687903], [121.145682, 24.687769], [121.145899, 24.687743], [121.146432, 24.689211], [121.14466, 24.690885], [121.144384, 24.690805], [121.14417, 24.690496], [121.143596, 24.69068], [121.143203, 24.691013], [121.143384, 24.693956], [121.143326, 24.694059], [121.143494, 24.694216], [121.143902, 24.694067], [121.144038, 24.694489], [121.144446, 24.694208], [121.145199, 24.695452], [121.145382, 24.695581], [121.145494, 24.695521], [121.145696, 24.695607], [121.145019, 24.69555], [121.144932, 24.696517], [121.144844, 24.696529], [121.144995, 24.696586], [121.142475, 24.695135], [121.142172, 24.694849], [121.142168, 24.694678], [121.141729, 24.694744], [121.141721, 24.69467], [121.141548, 24.696409], [121.13954, 24.696052], [121.139155, 24.695178], [121.139422, 24.694793], [121.138521, 24.695064], [121.137921, 24.695741], [121.137796, 24.6959], [121.137982, 24.696145], [121.138081, 24.696075], [121.137854, 24.69625], [121.137885, 24.69636], [121.13809, 24.696479], [121.136683, 24.6968], [121.136903, 24.697321], [121.135432, 24.696513], [121.134529, 24.695261], [121.134951, 24.693844], [121.134837, 24.693776], [121.135416, 24.693791], [121.13651, 24.694224], [121.136841, 24.693922], [121.136449, 24.692737], [121.136547, 24.692542], [121.136656, 24.692539], [121.136791, 24.692405], [121.136506, 24.692328], [121.135775, 24.692723], [121.135682, 24.69213], [121.135123, 24.690141], [121.135821, 24.690024], [121.135802, 24.689202], [121.136118, 24.689106], [121.134305, 24.688276], [121.133384, 24.688189], [121.133292, 24.688351], [121.132142, 24.68657], [121.132027, 24.686563], [121.132325, 24.686456], [121.132273, 24.686265], [121.127773, 24.685819], [121.126897, 24.686123], [121.12846, 24.690489], [121.128361, 24.69062], [121.129253, 24.691267], [121.129429, 24.690976], [121.129137, 24.692019], [121.12926, 24.692283], [121.128772, 24.693419], [121.130549, 24.694195], [121.129794, 24.695018], [121.131965, 24.6938], [121.132768, 24.69548], [121.137441, 24.699087], [121.139447, 24.699327], [121.139562, 24.699409], [121.140313, 24.698946], [121.139401, 24.697873], [121.139643, 24.692332], [121.139181, 24.691356], [121.139421, 24.691255], [121.139455, 24.691135]]}}, {"type": "Feature", "properties": {"district": "1000408", "segment": 6, "total_segments": 20, "km": 14.86, "villages": ["豐鄉村", "南昌村"]}, "geometry": {"type": "LineString", "coordinates": [[121.139306, 24.69111], [121.141268, 24.688035], [121.141974, 24.684897], [121.140711, 24.684704], [121.140312, 24.681495], [121.137387, 24.682503], [121.13665, 24.682021], [121.136238, 24.682501], [121.134244, 24.680232], [121.134234, 24.679731], [121.134435, 24.679699], [121.134465, 24.679548], [121.134857, 24.679123], [121.135429, 24.679173], [121.135069, 24.679771], [121.133716, 24.679258], [121.133969, 24.678099], [121.135298, 24.676704], [121.135752, 24.676652], [121.136533, 24.677748], [121.137838, 24.678933], [121.137184, 24.675065], [121.136528, 24.675024], [121.136626, 24.674383], [121.140002, 24.672163], [121.140251, 24.672327], [121.1407, 24.672332], [121.141087, 24.672432], [121.141037, 24.671935], [121.140731, 24.671785], [121.140592, 24.671608], [121.140325, 24.671537], [121.140796, 24.671522], [121.141107, 24.671345], [121.141293, 24.671703], [121.142174, 24.671391], [121.141979, 24.672371], [121.131852, 24.671423], [121.13163, 24.671501], [121.131094, 24.671459], [121.1311, 24.671603], [121.130806, 24.671627], [121.129345, 24.674166], [121.128397, 24.674676], [121.127526, 24.673801], [121.127396, 24.673475], [121.127298, 24.673505], [121.127292, 24.673804], [121.128461, 24.6732], [121.128396, 24.673122], [121.130299, 24.674848], [121.127323, 24.675942], [121.126539, 24.676389], [121.12673, 24.676633], [121.128005, 24.677367], [121.130049, 24.677875], [121.132913, 24.681052], [121.128281, 24.6828], [121.127007, 24.68345], [121.126462, 24.683161], [121.125881, 24.682977], [121.12542, 24.683183], [121.125198, 24.68272], [121.124937, 24.682923], [121.124781, 24.682258], [121.12512, 24.681861], [121.125386, 24.68206], [121.125533, 24.682028], [121.125839, 24.681662], [121.126029, 24.681945], [121.125963, 24.681083], [121.125108, 24.68145], [121.125354, 24.680231], [121.123205, 24.682933], [121.122991, 24.683558], [121.122074, 24.684117], [121.122693, 24.684179], [121.125143, 24.683946], [121.125556, 24.684014], [121.119812, 24.680743], [121.119759, 24.680431], [121.119558, 24.680326], [121.11894, 24.680854], [121.118913, 24.682501], [121.116153, 24.680323], [121.11614, 24.680116], [121.115679, 24.67961], [121.113385, 24.679553], [121.111315, 24.676631], [121.109102, 24.676852], [121.112432, 24.672209], [121.113262, 24.671945], [121.114373, 24.672336], [121.114723, 24.672556], [121.114785, 24.673236], [121.116876, 24.673126], [121.117405, 24.673002], [121.117342, 24.67353], [121.120354, 24.674384], [121.120687, 24.672145]]}}, {"type": "Feature", "properties": {"district": "1000408", "segment": 7, "total_segments": 20, "km": 14.98, "villages": ["南昌村", "田寮村"]}, "geometry": {"type": "LineString", "coordinates": [[121.119169, 24.671002], [121.122042, 24.66756], [121.122708, 24.667213], [121.123846, 24.667404], [121.127765, 24.663127], [121.129248, 24.662006], [121.130065, 24.661987], [121.126075, 24.658384], [121.126094, 24.658051], [121.125733, 24.65783], [121.12548, 24.657876], [121.128081, 24.656384], [121.122966, 24.676207], [121.119894, 24.678194], [121.123521, 24.684991], [121.124091, 24.686326], [121.124509, 24.6863], [121.123839, 24.691606], [121.123582, 24.692007], [121.123533, 24.692381], [121.124464, 24.692624], [121.125703, 24.694637], [121.125028, 24.695329], [121.124354, 24.697541], [121.123551, 24.698234], [121.121801, 24.697121], [121.120801, 24.696608], [121.120108, 24.696844], [121.119875, 24.697148], [121.119732, 24.698293], [121.119083, 24.698972], [121.118947, 24.70049], [121.118996, 24.700603], [121.115844, 24.701706], [121.115427, 24.702039], [121.115515, 24.702146], [121.114492, 24.702326], [121.115087, 24.703451], [121.11549, 24.703733], [121.115934, 24.703852], [121.115757, 24.703318], [121.113132, 24.703246], [121.112997, 24.703799], [121.112856, 24.702499], [121.111829, 24.703043], [121.110648, 24.704083], [121.111056, 24.705452], [121.108987, 24.705939], [121.107546, 24.705676], [121.107279, 24.706538], [121.107063, 24.706708], [121.106333, 24.706725], [121.106164, 24.706549], [121.106253, 24.706457], [121.106159, 24.706124], [121.106354, 24.706038], [121.106195, 24.705958], [121.106182, 24.705621], [121.105938, 24.705471], [121.105923, 24.705207], [121.106114, 24.705123], [121.106158, 24.705344], [121.105932, 24.705764], [121.105986, 24.706087], [121.105802, 24.706115], [121.105795, 24.706036], [121.105642, 24.706192], [121.105501, 24.705908], [121.105699, 24.705833], [121.105764, 24.706306], [121.105954, 24.706309], [121.106061, 24.706798], [121.107197, 24.708441], [121.106671, 24.709015], [121.106801, 24.709791], [121.107382, 24.709639], [121.107478, 24.710037], [121.10784, 24.709583], [121.108296, 24.709673], [121.108111, 24.70998], [121.108666, 24.710021], [121.1088, 24.710234], [121.108997, 24.71025], [121.109224, 24.711068], [121.109473, 24.711302], [121.109583, 24.71118], [121.110624, 24.712302], [121.109566, 24.713385], [121.109577, 24.71346], [121.110007, 24.713705], [121.109474, 24.713995], [121.109125, 24.713818], [121.108681, 24.713263], [121.10512, 24.712882], [121.104532, 24.712522], [121.104953, 24.711776], [121.105039, 24.71105], [121.10483, 24.710804], [121.108626, 24.709262], [121.109297, 24.709062], [121.108945, 24.707902], [121.109087, 24.707714], [121.108911, 24.707574], [121.108556, 24.70777], [121.108773, 24.704589], [121.107691, 24.704237], [121.10762, 24.704285], [121.106838, 24.70361], [121.106492, 24.703505], [121.10645, 24.703382], [121.106656, 24.70328]]}}, {"type": "Feature", "properties": {"district": "1000408", "segment": 8, "total_segments": 20, "km": 13.4, "villages": ["田寮村"]}, "geometry": {"type": "LineString", "coordinates": [[121.106277, 24.703288], [121.10631, 24.703519], [121.106579, 24.703976], [121.106175, 24.704399], [121.106184, 24.704801], [121.105325, 24.704159], [121.105093, 24.704309], [121.105647, 24.703741], [121.105312, 24.703174], [121.106213, 24.702783], [121.106144, 24.702495], [121.106292, 24.702302], [121.106033, 24.701927], [121.106097, 24.701766], [121.106043, 24.701492], [121.1059, 24.701448], [121.10586, 24.701542], [121.105781, 24.701516], [121.105816, 24.701266], [121.106223, 24.701367], [121.106237, 24.701495], [121.106142, 24.700865], [121.10579, 24.700676], [121.105869, 24.700532], [121.105799, 24.700447], [121.10564, 24.700744], [121.105707, 24.700995], [121.105321, 24.700668], [121.104872, 24.700738], [121.105558, 24.700025], [121.106388, 24.699474], [121.106662, 24.699659], [121.106989, 24.699474], [121.106956, 24.699351], [121.10718, 24.69939], [121.107348, 24.699243], [121.10742, 24.699319], [121.107494, 24.699281], [121.107545, 24.699188], [121.107394, 24.698976], [121.107549, 24.698809], [121.107656, 24.698858], [121.107586, 24.699043], [121.107356, 24.69885], [121.107096, 24.698985], [121.107677, 24.699389], [121.107506, 24.699746], [121.107374, 24.699629], [121.108006, 24.69973], [121.108146, 24.699543], [121.108042, 24.699299], [121.108234, 24.699081], [121.107877, 24.698815], [121.108124, 24.69869], [121.108334, 24.698778], [121.108564, 24.698679], [121.108636, 24.698822], [121.109087, 24.698482], [121.109316, 24.698413], [121.10937, 24.698498], [121.108499, 24.698997], [121.108623, 24.699295], [121.107911, 24.700024], [121.108172, 24.700822], [121.108336, 24.700854], [121.109101, 24.700262], [121.110741, 24.699873], [121.111263, 24.699627], [121.111392, 24.69926], [121.111494, 24.699205], [121.1115, 24.698072], [121.111513, 24.701551], [121.107814, 24.702133], [121.107571, 24.702403], [121.107547, 24.701846], [121.104572, 24.70305], [121.104283, 24.703753], [121.09953, 24.702478], [121.098264, 24.700345], [121.097844, 24.699932], [121.097415, 24.700184], [121.101134, 24.698314], [121.104794, 24.69837], [121.104817, 24.698462], [121.106498, 24.698505], [121.106948, 24.698051], [121.106947, 24.697874], [121.106603, 24.697756], [121.10723, 24.695996], [121.106883, 24.695749], [121.106627, 24.693778], [121.106503, 24.69174], [121.105583, 24.690694], [121.105144, 24.689484], [121.106259, 24.689544], [121.108007, 24.690614], [121.111949, 24.69213], [121.11209, 24.692485], [121.112324, 24.692613], [121.112307, 24.693109], [121.111649, 24.69286], [121.111316, 24.693158], [121.111825, 24.693672], [121.112291, 24.69483], [121.113341, 24.691705], [121.118757, 24.695814], [121.120909, 24.695153], [121.121024, 24.695502], [121.122372, 24.694218], [121.114958, 24.697798], [121.114495, 24.698133], [121.115045, 24.699443], [121.114718, 24.699622], [121.114757, 24.699821], [121.113658, 24.705183], [121.105318, 24.717012]]}}, {"type": "Feature", "properties": {"district": "1000408", "segment": 9, "total_segments": 20, "km": 14.98, "villages": ["田寮村", "橫山村"]}, "geometry": {"type": "LineString", "coordinates": [[121.104263, 24.682275], [121.10454, 24.67894], [121.104161, 24.6786], [121.103974, 24.678848], [121.105287, 24.678622], [121.105721, 24.678284], [121.106055, 24.677822], [121.10512, 24.67805], [121.102274, 24.676517], [121.124035, 24.69996], [121.126131, 24.700351], [121.126525, 24.700206], [121.126547, 24.700572], [121.12671, 24.700584], [121.126289, 24.702435], [121.126536, 24.702797], [121.12569, 24.702294], [121.126157, 24.704869], [121.128095, 24.704992], [121.128724, 24.705204], [121.128218, 24.706297], [121.12851, 24.706252], [121.128577, 24.706563], [121.128889, 24.706446], [121.128993, 24.706258], [121.129374, 24.70744], [121.129181, 24.707843], [121.13008, 24.708271], [121.130188, 24.707576], [121.130364, 24.7074], [121.130779, 24.707192], [121.130893, 24.707209], [121.132427, 24.708625], [121.133705, 24.708292], [121.13332, 24.707805], [121.13335, 24.707741], [121.133233, 24.707759], [121.133017, 24.707873], [121.133071, 24.709025], [121.132398, 24.708989], [121.131654, 24.709416], [121.130991, 24.709338], [121.130631, 24.709405], [121.130154, 24.709831], [121.130078, 24.710074], [121.130356, 24.710023], [121.130398, 24.710341], [121.130273, 24.710462], [121.130372, 24.710614], [121.130614, 24.710579], [121.130778, 24.710664], [121.130678, 24.7108], [121.131005, 24.710583], [121.131048, 24.710683], [121.131012, 24.710161], [121.131342, 24.709994], [121.131663, 24.710634], [121.131702, 24.710768], [121.131116, 24.711113], [121.130742, 24.711165], [121.130714, 24.711388], [121.130988, 24.711535], [121.13103, 24.711742], [121.129624, 24.71134], [121.129476, 24.71162], [121.129469, 24.71112], [121.129576, 24.710899], [121.129751, 24.710799], [121.129848, 24.710631], [121.130007, 24.710595], [121.130032, 24.710488], [121.12983, 24.710323], [121.129705, 24.710554], [121.130663, 24.710371], [121.132312, 24.70983], [121.135356, 24.708389], [121.137042, 24.706931], [121.137137, 24.706902], [121.137132, 24.706999], [121.137305, 24.706462], [121.135825, 24.705993], [121.135737, 24.703257], [121.1317, 24.702343], [121.130789, 24.704142], [121.130401, 24.704252], [121.129619, 24.703821], [121.12817, 24.709936], [121.128904, 24.711202], [121.128931, 24.712991], [121.128233, 24.713503], [121.127321, 24.714318], [121.127338, 24.714407], [121.12683, 24.714773], [121.127033, 24.714835], [121.126688, 24.714426], [121.127415, 24.714442], [121.127892, 24.714931], [121.127763, 24.715528], [121.12763, 24.715688], [121.127501, 24.715457], [121.127529, 24.715947], [121.127321, 24.716556], [121.126052, 24.716655], [121.125708, 24.716933], [121.125907, 24.71687], [121.125868, 24.71659], [121.125515, 24.71706], [121.12462, 24.716109], [121.124555, 24.71614], [121.124702, 24.715852], [121.124947, 24.715714], [121.125159, 24.71575], [121.125257, 24.715661], [121.124634, 24.715634], [121.124106, 24.714684], [121.122854, 24.715086], [121.12265, 24.715029], [121.122626, 24.714903], [121.122673, 24.715328], [121.12216, 24.715384], [121.122282, 24.715567], [121.122095, 24.715659], [121.121945, 24.715578], [121.122009, 24.715505], [121.122142, 24.715861], [121.121951, 24.71594], [121.121292, 24.715815], [121.121597, 24.715034], [121.120289, 24.714777], [121.120689, 24.71412], [121.12035, 24.713598], [121.121307, 24.713627], [121.121286, 24.713129], [121.121487, 24.713002], [121.121669, 24.712998], [121.122256, 24.713483], [121.12243, 24.71398], [121.123359, 24.715493], [121.123433, 24.715943], [121.123667, 24.716281], [121.123357, 24.716394], [121.123328, 24.716653], [121.122756, 24.716572], [121.12259, 24.71666], [121.122825, 24.717015], [121.122028, 24.717309], [121.122072, 24.717415], [121.122359, 24.71756], [121.122142, 24.71775], [121.122203, 24.717837]]}}, {"type": "Feature", "properties": {"district": "1000408", "segment": 10, "total_segments": 20, "km": 14.96, "villages": ["橫山村"]}, "geometry": {"type": "LineString", "coordinates": [[121.121925, 24.717517], [121.121783, 24.717573], [121.121643, 24.717452], [121.121441, 24.717678], [121.12146, 24.717224], [121.12191, 24.717381], [121.122136, 24.718077], [121.120805, 24.718221], [121.120702, 24.7184], [121.120087, 24.718325], [121.119723, 24.718507], [121.119348, 24.71858], [121.119193, 24.718746], [121.119133, 24.718653], [121.119332, 24.718869], [121.118903, 24.719386], [121.118606, 24.719558], [121.118436, 24.719471], [121.118553, 24.719899], [121.119057, 24.719802], [121.11937, 24.71958], [121.118967, 24.719891], [121.119107, 24.720661], [121.119255, 24.720639], [121.119337, 24.720375], [121.118908, 24.720635], [121.118741, 24.720579], [121.118681, 24.720676], [121.118822, 24.720758], [121.118826, 24.720954], [121.11897, 24.720908], [121.118811, 24.721226], [121.118477, 24.721177], [121.118523, 24.720935], [121.118211, 24.720868], [121.117801, 24.720943], [121.11793, 24.721033], [121.118126, 24.721007], [121.117917, 24.720706], [121.117714, 24.720742], [121.118336, 24.720598], [121.117986, 24.719913], [121.118096, 24.71986], [121.117689, 24.719964], [121.117622, 24.720087], [121.116339, 24.72032], [121.116194, 24.719989], [121.116325, 24.72004], [121.116401, 24.719987], [121.116479, 24.720104], [121.117051, 24.719686], [121.117152, 24.719875], [121.117295, 24.719959], [121.117217, 24.720044], [121.116911, 24.720014], [121.116878, 24.720111], [121.116921, 24.719885], [121.11639, 24.719897], [121.116369, 24.719781], [121.11599, 24.719812], [121.116054, 24.720288], [121.115884, 24.720381], [121.115694, 24.720206], [121.115314, 24.720378], [121.115249, 24.72048], [121.115024, 24.720339], [121.114964, 24.720496], [121.114689, 24.720386], [121.114433, 24.720442], [121.114351, 24.72023], [121.114657, 24.720175], [121.114659, 24.720497], [121.114143, 24.720571], [121.113763, 24.720716], [121.113708, 24.720709], [121.113722, 24.720585], [121.113628, 24.720549], [121.113759, 24.720461], [121.113443, 24.720591], [121.113389, 24.720812], [121.113561, 24.720838], [121.113414, 24.721407], [121.113762, 24.721419], [121.112648, 24.720859], [121.112637, 24.720947], [121.111632, 24.721054], [121.111625, 24.720828], [121.111865, 24.720471], [121.111331, 24.72025], [121.111304, 24.719504], [121.111998, 24.719479], [121.112032, 24.719639], [121.112149, 24.719711], [121.112213, 24.719437], [121.112663, 24.719207], [121.113539, 24.71945], [121.113769, 24.719325], [121.11443, 24.719591], [121.114893, 24.719485], [121.115092, 24.719341], [121.115876, 24.719188], [121.116239, 24.719327], [121.116203, 24.719587], [121.116341, 24.719563], [121.116267, 24.719209], [121.116162, 24.719116], [121.116498, 24.719152], [121.116993, 24.719066], [121.116787, 24.718767], [121.116639, 24.718777], [121.116565, 24.718659], [121.11667, 24.718579], [121.116668, 24.718399], [121.116552, 24.71828], [121.116449, 24.718298], [121.116359, 24.718162], [121.116367, 24.71801], [121.116441, 24.718013], [121.116671, 24.717652], [121.11681, 24.71776], [121.116849, 24.717949], [121.116698, 24.718016], [121.116678, 24.718302], [121.116472, 24.718421], [121.116517, 24.718515], [121.116354, 24.718651], [121.115873, 24.718644], [121.115817, 24.718566], [121.115806, 24.718367], [121.116089, 24.718267], [121.11599, 24.718012], [121.116143, 24.718022], [121.116173, 24.717892], [121.116085, 24.717692], [121.115837, 24.717714], [121.115748, 24.717618], [121.11585, 24.717587], [121.116036, 24.717867], [121.11573, 24.717924], [121.115642, 24.717756], [121.115442, 24.718162], [121.115611, 24.718205], [121.115515, 24.718377], [121.115448, 24.718315], [121.115505, 24.718478], [121.115743, 24.718616], [121.115688, 24.718465], [121.116014, 24.718546], [121.116276, 24.718473], [121.116213, 24.718257], [121.116301, 24.718327], [121.11631, 24.717911], [121.116403, 24.717781], [121.116093, 24.717397], [121.115834, 24.718053], [121.115807, 24.71887], [121.115482, 24.719043], [121.115682, 24.7193], [121.115752, 24.719613], [121.11593, 24.719785], [121.115712, 24.720081], [121.11613, 24.720257], [121.116166, 24.720864], [121.116586, 24.720787], [121.116491, 24.721201], [121.116075, 24.721099], [121.1152, 24.719636], [121.115434, 24.719393], [121.114626, 24.719175], [121.115068, 24.718601], [121.114884, 24.71773], [121.115218, 24.717513], [121.114891, 24.716643], [121.113664, 24.717575], [121.113617, 24.717523], [121.113523, 24.717673], [121.112961, 24.715905], [121.112776, 24.715073], [121.112577, 24.71508], [121.113953, 24.713879], [121.113156, 24.713109], [121.113415, 24.712347], [121.115068, 24.709648], [121.115969, 24.708431], [121.115795, 24.708201], [121.116531, 24.708491], [121.1167, 24.708428], [121.11736, 24.707515], [121.117491, 24.706707], [121.117949, 24.70644], [121.117589, 24.705886], [121.119015, 24.705498], [121.119605, 24.704722], [121.120296, 24.70476], [121.121196, 24.702496], [121.120496, 24.710265], [121.120607, 24.711209], [121.120489, 24.71138], [121.119473, 24.711795], [121.119052, 24.7127], [121.118971, 24.714109], [121.119083, 24.714186], [121.118809, 24.714235], [121.119335, 24.714428], [121.117602, 24.714506], [121.117276, 24.714594], [121.117273, 24.714745], [121.117018, 24.714381], [121.117565, 24.714263], [121.116631, 24.715165], [121.116575, 24.715338], [121.116231, 24.715481], [121.114665, 24.715103], [121.116753, 24.713097], [121.117933, 24.715966], [121.117693, 24.716283], [121.117808, 24.717653], [121.117472, 24.717603], [121.117541, 24.717323], [121.11717, 24.717489], [121.117039, 24.717909], [121.116956, 24.717922], [121.116835, 24.718243], [121.117276, 24.718234], [121.116844, 24.718496], [121.117663, 24.718976], [121.118204, 24.718847], [121.119081, 24.718373], [121.119473, 24.7182], [121.119665, 24.718232], [121.119762, 24.718123], [121.119676, 24.718001], [121.119583, 24.718077], [121.119313, 24.718062], [121.120072, 24.71802], [121.119402, 24.718819], [121.120485, 24.719404], [121.120237, 24.720353], [121.120555, 24.720702], [121.120544, 24.720844], [121.120752, 24.720663], [121.120612, 24.720441], [121.121104, 24.720498], [121.121655, 24.720437], [121.121998, 24.720904], [121.12135, 24.721445], [121.120889, 24.72164], [121.119449, 24.721718], [121.122735, 24.719867], [121.122714, 24.719773], [121.122912, 24.71998], [121.123463, 24.720001], [121.123621, 24.720622], [121.123165, 24.720628], [121.122891, 24.719322], [121.123023, 24.719194], [121.123022, 24.719086], [121.123356, 24.719236], [121.124287, 24.718189], [121.124441, 24.718115], [121.124332, 24.717983], [121.126154, 24.71875], [121.12626, 24.718845], [121.126116, 24.718998], [121.126258, 24.719119], [121.127099, 24.718728], [121.127245, 24.71851]]}}, {"type": "Feature", "properties": {"district": "1000408", "segment": 11, "total_segments": 20, "km": 14.82, "villages": ["橫山村"]}, "geometry": {"type": "LineString", "coordinates": [[121.126003, 24.7155], [121.125861, 24.713608], [121.125714, 24.71351], [121.125712, 24.713345], [121.125814, 24.713319], [121.125936, 24.713429], [121.125827, 24.713121], [121.125915, 24.713037], [121.125837, 24.712942], [121.125436, 24.71299], [121.125653, 24.713252], [121.125732, 24.71315], [121.125565, 24.713398], [121.12557, 24.712003], [121.128714, 24.714805], [121.12033, 24.716206], [121.1203, 24.716372], [121.119415, 24.716645], [121.119438, 24.716742], [121.11925, 24.717101], [121.119056, 24.716428], [121.11864, 24.716454], [121.118515, 24.716647], [121.118602, 24.716803], [121.111661, 24.718388], [121.111352, 24.718321], [121.110908, 24.718493], [121.110612, 24.71804], [121.110182, 24.717855], [121.110071, 24.717428], [121.110296, 24.718208], [121.109259, 24.718278], [121.108683, 24.71817], [121.108182, 24.7191], [121.108036, 24.719136], [121.107882, 24.718746], [121.107727, 24.718907], [121.107754, 24.719101], [121.107275, 24.718861], [121.107229, 24.718734], [121.107002, 24.718855], [121.106876, 24.718515], [121.107504, 24.71864], [121.107635, 24.718575], [121.107589, 24.718485], [121.10766, 24.718622], [121.107731, 24.719297], [121.108087, 24.719838], [121.108173, 24.720055], [121.108113, 24.720187], [121.108204, 24.720197], [121.107843, 24.720262], [121.10801, 24.720696], [121.107937, 24.720828], [121.108004, 24.720915], [121.108421, 24.72077], [121.108245, 24.720956], [121.1084, 24.721149], [121.108231, 24.721259], [121.107985, 24.721195], [121.107951, 24.721008], [121.107759, 24.720846], [121.108114, 24.721505], [121.10823, 24.72146], [121.108327, 24.721577], [121.108252, 24.721769], [121.108524, 24.72165], [121.108564, 24.721721], [121.108658, 24.721707], [121.108667, 24.721623], [121.108807, 24.721638], [121.10852, 24.721448], [121.108475, 24.721573], [121.108414, 24.721432], [121.108766, 24.720792], [121.10869, 24.72033], [121.108299, 24.719583], [121.108671, 24.719914], [121.109344, 24.719547], [121.109087, 24.720462], [121.109434, 24.720932], [121.109395, 24.720976], [121.109218, 24.720839], [121.109602, 24.721122], [121.109474, 24.720993], [121.109688, 24.720799], [121.110089, 24.721126], [121.110436, 24.721062], [121.110462, 24.721126], [121.110052, 24.721196], [121.110073, 24.721267], [121.110497, 24.721193], [121.110468, 24.72132], [121.11013, 24.721315], [121.11011, 24.721376], [121.110872, 24.721278], [121.110518, 24.720794], [121.110227, 24.721683], [121.110047, 24.721782], [121.10877, 24.722114], [121.108812, 24.722229], [121.108927, 24.722202], [121.108817, 24.722396], [121.108595, 24.722118], [121.10861, 24.722019], [121.10906, 24.721999], [121.107688, 24.722209], [121.107739, 24.721451], [121.108251, 24.720402], [121.107527, 24.71949], [121.107314, 24.71944], [121.106005, 24.719952], [121.106411, 24.720568], [121.106368, 24.721278], [121.106627, 24.717854], [121.106426, 24.717402], [121.107144, 24.716982], [121.107383, 24.716956], [121.107447, 24.717266], [121.107578, 24.717119], [121.107452, 24.716625], [121.107274, 24.716689], [121.107324, 24.716904], [121.107032, 24.716695], [121.107022, 24.716446], [121.106844, 24.715968], [121.106781, 24.716344], [121.107182, 24.716278], [121.107414, 24.716133], [121.107529, 24.716253], [121.107733, 24.71617], [121.107911, 24.716277], [121.107891, 24.715993], [121.108051, 24.716011], [121.108057, 24.716176], [121.108183, 24.716189], [121.108175, 24.715715], [121.107802, 24.715698], [121.107604, 24.715825], [121.1076, 24.715957], [121.10767, 24.715921], [121.107526, 24.715852], [121.10766, 24.716073], [121.107716, 24.716469], [121.107665, 24.71649], [121.108082, 24.716898], [121.107919, 24.716942], [121.107692, 24.716693], [121.107761, 24.717121], [121.107826, 24.717154], [121.107878, 24.716466], [121.108388, 24.716411], [121.108746, 24.716721], [121.10883, 24.716971], [121.109088, 24.717277], [121.108943, 24.717608], [121.108828, 24.717519], [121.108879, 24.717456], [121.108747, 24.717448], [121.107342, 24.71788], [121.107327, 24.71645], [121.10868, 24.715967], [121.108465, 24.715429], [121.110408, 24.719741], [121.110481, 24.719764], [121.138256, 24.707885], [121.138936, 24.707812], [121.138833, 24.708625], [121.138964, 24.708643], [121.139118, 24.709028], [121.139074, 24.709078], [121.139368, 24.709], [121.140222, 24.709411], [121.140446, 24.709338], [121.140085, 24.709699], [121.139753, 24.706384], [121.139251, 24.706335], [121.138512, 24.699872], [121.136676, 24.699827], [121.135866, 24.699277], [121.135598, 24.698997]]}}, {"type": "Feature", "properties": {"district": "1000408", "segment": 12, "total_segments": 20, "km": 10.13, "villages": ["橫山村", "大肚村"]}, "geometry": {"type": "LineString", "coordinates": [[121.14211, 24.715929], [121.177935, 24.78612], [121.18136, 24.794769], [121.184353, 24.798469]]}}, {"type": "Feature", "properties": {"district": "1000408", "segment": 13, "total_segments": 20, "km": 14.34, "villages": ["大肚村"]}, "geometry": {"type": "LineString", "coordinates": [[121.140503, 24.728511], [121.140875, 24.727929], [121.141035, 24.72795], [121.141175, 24.727848], [121.138823, 24.72826], [121.137864, 24.728089], [121.137609, 24.728477], [121.137245, 24.727991], [121.136728, 24.728088], [121.1366, 24.728362], [121.134831, 24.727936], [121.134335, 24.728086], [121.13463, 24.72848], [121.134536, 24.728546], [121.134466, 24.728817], [121.13468, 24.728904], [121.132977, 24.728182], [121.132902, 24.727988], [121.132731, 24.728036], [121.132542, 24.727888], [121.13234, 24.727846], [121.13219, 24.728208], [121.13163, 24.727823], [121.130637, 24.727582], [121.130731, 24.727199], [121.130285, 24.727065], [121.129768, 24.726327], [121.129587, 24.72636], [121.129535, 24.726477], [121.129361, 24.726453], [121.129145, 24.7268], [121.128876, 24.727046], [121.128709, 24.727437], [121.128584, 24.727511], [121.128271, 24.727994], [121.129215, 24.727443], [121.128347, 24.726456], [121.12812, 24.726576], [121.128339, 24.726236], [121.128308, 24.726073], [121.128437, 24.726005], [121.128206, 24.725905], [121.128983, 24.726049], [121.129281, 24.725889], [121.129393, 24.726034], [121.129562, 24.72587], [121.129708, 24.725928], [121.129843, 24.72621], [121.129936, 24.726183], [121.130339, 24.725968], [121.130238, 24.72558], [121.130352, 24.725152], [121.130813, 24.724968], [121.130805, 24.724521], [121.130272, 24.723467], [121.130199, 24.72336], [121.130122, 24.723398], [121.130458, 24.724055], [121.1308, 24.723918], [121.130526, 24.723397], [121.13062, 24.723339], [121.130878, 24.723835], [121.131086, 24.723734], [121.13089, 24.723378], [121.130798, 24.723248], [121.13039, 24.723311], [121.129998, 24.723111], [121.129828, 24.723226], [121.129781, 24.723122], [121.131406, 24.723173], [121.131618, 24.723552], [121.131487, 24.723505], [121.131801, 24.723376], [121.13178, 24.72333], [121.131832, 24.723418], [121.131976, 24.723353], [121.131877, 24.723119], [121.132095, 24.723034], [121.131691, 24.723156], [121.131725, 24.723237], [121.131633, 24.723077], [121.132378, 24.723385], [121.132634, 24.723246], [121.13265, 24.723097], [121.133193, 24.723148], [121.133088, 24.723349], [121.132889, 24.723321], [121.132653, 24.723465], [121.132671, 24.723554], [121.133249, 24.723431], [121.133216, 24.723313], [121.133566, 24.723207], [121.133588, 24.723066], [121.133297, 24.723079], [121.133616, 24.722816], [121.133671, 24.72266], [121.133587, 24.722658], [121.133722, 24.72247], [121.133822, 24.722562], [121.133923, 24.722422], [121.134182, 24.722541], [121.134442, 24.722538], [121.134398, 24.722738], [121.134469, 24.722807], [121.134356, 24.722776], [121.134345, 24.722907], [121.133971, 24.723361], [121.133993, 24.723085], [121.133894, 24.72308], [121.133945, 24.722991], [121.133847, 24.722926], [121.134132, 24.722818], [121.13416, 24.722636], [121.134537, 24.722678], [121.134576, 24.722617], [121.134702, 24.722707], [121.13483, 24.722632], [121.134839, 24.722526], [121.134954, 24.722599], [121.135053, 24.722455], [121.135244, 24.722419], [121.135264, 24.722181], [121.13542, 24.722171], [121.135534, 24.72196], [121.135569, 24.721694], [121.135457, 24.721602], [121.135875, 24.721511], [121.136321, 24.721173], [121.136466, 24.721264], [121.1364, 24.721126], [121.136153, 24.720978], [121.136237, 24.720629], [121.13701, 24.720546], [121.137233, 24.720367], [121.137192, 24.720226], [121.137, 24.720414], [121.137261, 24.720484], [121.138344, 24.71932], [121.138558, 24.719762], [121.139094, 24.719326], [121.138547, 24.719827], [121.138438, 24.720075], [121.137289, 24.719261], [121.13928, 24.717563], [121.139767, 24.718002], [121.139856, 24.71797], [121.14044, 24.719015], [121.141821, 24.716765], [121.141714, 24.716721], [121.141942, 24.716587], [121.136105, 24.72312], [121.135222, 24.722179], [121.133833, 24.722214], [121.133256, 24.722481], [121.133759, 24.723228], [121.133828, 24.723217], [121.133779, 24.723356], [121.133869, 24.723682], [121.133931, 24.723556], [121.133727, 24.723755], [121.133763, 24.72381], [121.133441, 24.723849], [121.133284, 24.724151], [121.132829, 24.724401], [121.132626, 24.724106], [121.13281, 24.723996], [121.132558, 24.724268], [121.131972, 24.724588], [121.131924, 24.724742], [121.131663, 24.72495], [121.131385, 24.725054], [121.131459, 24.724937], [121.131234, 24.724899], [121.13126, 24.724656], [121.131449, 24.724637], [121.131606, 24.724884], [121.131253, 24.725033], [121.13125, 24.725105], [121.131008, 24.724581], [121.131411, 24.724288], [121.131196, 24.72391], [121.13139, 24.723834], [121.131353, 24.723925], [121.13149, 24.724237], [121.131811, 24.724151], [121.131681, 24.724393], [121.132331, 24.724042], [121.131967, 24.724053], [121.131931, 24.724191], [121.131794, 24.724056], [121.131149, 24.723934], [121.132542, 24.724629], [121.132696, 24.724555], [121.132639, 24.724462], [121.133307, 24.724757], [121.133772, 24.725787], [121.133468, 24.726671], [121.134206, 24.727001], [121.132655, 24.726501], [121.13263, 24.726285], [121.132372, 24.726142], [121.131397, 24.726621], [121.131331, 24.726736], [121.131425, 24.726749], [121.130896, 24.725732], [121.130082, 24.725161], [121.129024, 24.725818], [121.128646, 24.725126], [121.128266, 24.725063], [121.127763, 24.725273], [121.127465, 24.724625], [121.126711, 24.724441], [121.126371, 24.724202], [121.126135, 24.724376], [121.126031, 24.724735], [121.126454, 24.725109], [121.126482, 24.725501], [121.12679, 24.725601], [121.126931, 24.726393], [121.127429, 24.726221], [121.127515, 24.726996], [121.126692, 24.727405], [121.126227, 24.727876], [121.126939, 24.728327], [121.127147, 24.728377], [121.126929, 24.728726], [121.127063, 24.72883], [121.126905, 24.72896], [121.126741, 24.729302], [121.124347, 24.730452], [121.12453, 24.730825], [121.124427, 24.729311], [121.124141, 24.729228], [121.123891, 24.729391], [121.12407, 24.728904], [121.124529, 24.729057], [121.124588, 24.729017], [121.124523, 24.729151], [121.123137, 24.72942], [121.12307, 24.729304], [121.123172, 24.729935], [121.122853, 24.72847], [121.123344, 24.728384], [121.124052, 24.727481], [121.124702, 24.727267], [121.121991, 24.728796], [121.125182, 24.724012], [121.126769, 24.723353], [121.126819, 24.723429], [121.127443, 24.723132], [121.127317, 24.723462], [121.126827, 24.723522]]}}, {"type": "Feature", "properties": {"district": "1000408", "segment": 14, "total_segments": 20, "km": 14.79, "villages": ["大肚村", "新興村"]}, "geometry": {"type": "LineString", "coordinates": [[121.134344, 24.723235], [121.134676, 24.722742], [121.134753, 24.722396], [121.134701, 24.721943], [121.134594, 24.721895], [121.134662, 24.723699], [121.135026, 24.724784], [121.13539, 24.724913], [121.135502, 24.725121], [121.136445, 24.725119], [121.139768, 24.724823], [121.142683, 24.726503], [121.143606, 24.726464], [121.143715, 24.726599], [121.143862, 24.72658], [121.143888, 24.726232], [121.143549, 24.726768], [121.142645, 24.727299], [121.141143, 24.728945], [121.145864, 24.727853], [121.146213, 24.726694], [121.146727, 24.72551], [121.144461, 24.725486], [121.143928, 24.723851], [121.143776, 24.723819], [121.143815, 24.723596], [121.144963, 24.723157], [121.145683, 24.723474], [121.145551, 24.721797], [121.143322, 24.721901], [121.142373, 24.719855], [121.142574, 24.719554], [121.142424, 24.719282], [121.142622, 24.719119], [121.142583, 24.718818], [121.14234, 24.718854], [121.142275, 24.718775], [121.142102, 24.718261], [121.142193, 24.718222], [121.141856, 24.718346], [121.142041, 24.718632], [121.142098, 24.719042], [121.142423, 24.71908], [121.142773, 24.718979], [121.142833, 24.719189], [121.142687, 24.718631], [121.142567, 24.718655], [121.142525, 24.718561], [121.142465, 24.718091], [121.142036, 24.717964], [121.141759, 24.718018], [121.141781, 24.718104], [121.141683, 24.717941], [121.141303, 24.7181], [121.141508, 24.71822], [121.141395, 24.718302], [121.141482, 24.718567], [121.141333, 24.718586], [121.14132, 24.718703], [121.141535, 24.718854], [121.141397, 24.719025], [121.140928, 24.718694], [121.141066, 24.718537], [121.140867, 24.718535], [121.14071, 24.718403], [121.140956, 24.718326], [121.141079, 24.718132], [121.140618, 24.718435], [121.140357, 24.71796], [121.141196, 24.717432], [121.140833, 24.717088], [121.140911, 24.716903], [121.140725, 24.716963], [121.140588, 24.716822], [121.1405, 24.717152], [121.140262, 24.717366], [121.140159, 24.717594], [121.139979, 24.717533], [121.139909, 24.717601], [121.141069, 24.716507], [121.141151, 24.716595], [121.141245, 24.716524], [121.141119, 24.716623], [121.141194, 24.716746], [121.141405, 24.716568], [121.141843, 24.716824], [121.141789, 24.716887], [121.141847, 24.716917], [121.142015, 24.716598], [121.141789, 24.716696], [121.141717, 24.716665], [121.141753, 24.716501], [121.141973, 24.716403], [121.142102, 24.716191], [121.142298, 24.716116], [121.142659, 24.716304], [121.142797, 24.716441], [121.142738, 24.71655], [121.14255, 24.716634], [121.142535, 24.7164], [121.142325, 24.716579], [121.142087, 24.716474], [121.142096, 24.716404], [121.142479, 24.716291], [121.142682, 24.716031], [121.142848, 24.716114], [121.143229, 24.715999], [121.143404, 24.715662], [121.143323, 24.715603], [121.143174, 24.715838], [121.143024, 24.715739], [121.143073, 24.715668], [121.142991, 24.715655], [121.143168, 24.715398], [121.143275, 24.715296], [121.143389, 24.71544], [121.143292, 24.715502], [121.143472, 24.715392], [121.143599, 24.71551], [121.143562, 24.715564], [121.144026, 24.714746], [121.144293, 24.714644], [121.144074, 24.714485], [121.144404, 24.71437], [121.144425, 24.714264], [121.144759, 24.714417], [121.144785, 24.714245], [121.145056, 24.714499], [121.145188, 24.714699], [121.145149, 24.714982], [121.144603, 24.714667], [121.144447, 24.714915], [121.14424, 24.714803], [121.144178, 24.715144], [121.14395, 24.715571], [121.144163, 24.71577], [121.144047, 24.715804], [121.143994, 24.71589], [121.144049, 24.715917], [121.143739, 24.715773], [121.143636, 24.715925], [121.143553, 24.71583], [121.143336, 24.71606], [121.143277, 24.716414], [121.143462, 24.716387], [121.143038, 24.716409], [121.142633, 24.716004], [121.142626, 24.715864], [121.142277, 24.715778], [121.141753, 24.716048], [121.141535, 24.716285], [121.14143, 24.716208], [121.141482, 24.716146], [121.142049, 24.716784], [121.142382, 24.716762], [121.142505, 24.716834], [121.143058, 24.716518], [121.14294, 24.715865], [121.142668, 24.715845], [121.142784, 24.715648], [121.142681, 24.71559], [121.142281, 24.715731], [121.142903, 24.715562], [121.142928, 24.715417], [121.143954, 24.715189], [121.144461, 24.715763], [121.144285, 24.715888], [121.144128, 24.716154], [121.143997, 24.716074], [121.143863, 24.716199], [121.143722, 24.716134], [121.143784, 24.715927], [121.144775, 24.715621], [121.145499, 24.714398], [121.144431, 24.713615], [121.144896, 24.712411], [121.144712, 24.712403], [121.145804, 24.711026], [121.146251, 24.710933], [121.146207, 24.710703], [121.146006, 24.710645], [121.146255, 24.710043], [121.146242, 24.709632], [121.14619, 24.709635], [121.146425, 24.709639], [121.146828, 24.710059], [121.146633, 24.709052], [121.146996, 24.708505], [121.146604, 24.708426], [121.14664, 24.708091], [121.146549, 24.708502], [121.146437, 24.708661], [121.146245, 24.708718], [121.146061, 24.708896], [121.145924, 24.708861], [121.145889, 24.708255], [121.145449, 24.708372], [121.14754, 24.707827], [121.147885, 24.707964], [121.149461, 24.707396], [121.150077, 24.707423], [121.150128, 24.707476], [121.149791, 24.707859], [121.150908, 24.707968], [121.149592, 24.711844], [121.149571, 24.713541], [121.148873, 24.713723], [121.148273, 24.7134], [121.150517, 24.713898], [121.150616, 24.714026], [121.150538, 24.715467], [121.149299, 24.715561], [121.149034, 24.715365], [121.14822, 24.71582], [121.147987, 24.717288], [121.148275, 24.717425], [121.148387, 24.7174], [121.148047, 24.718011], [121.147778, 24.717946], [121.147569, 24.718571], [121.14761, 24.718646], [121.148005, 24.718737], [121.147495, 24.719197], [121.147225, 24.719311], [121.146328, 24.718073], [121.146713, 24.717387], [121.149712, 24.718438], [121.150487, 24.717596], [121.150926, 24.717704], [121.151753, 24.717666], [121.151848, 24.717638], [121.151933, 24.717448], [121.151794, 24.717318], [121.151384, 24.717323], [121.151533, 24.71815], [121.151672, 24.718465], [121.151634, 24.718519], [121.151464, 24.718405], [121.151704, 24.718569], [121.151796, 24.718529], [121.15193, 24.718904], [121.152061, 24.718899], [121.15238, 24.718699], [121.152382, 24.718488], [121.152626, 24.718316], [121.152054, 24.718213], [121.152147, 24.718656], [121.152731, 24.717775], [121.152552, 24.717636], [121.152861, 24.71778], [121.152949, 24.717409], [121.153022, 24.71742], [121.152239, 24.715628], [121.15244, 24.715354], [121.152889, 24.713306], [121.153211, 24.713233]]}}, {"type": "Feature", "properties": {"district": "1000408", "segment": 15, "total_segments": 20, "km": 14.96, "villages": ["新興村", "力行村"]}, "geometry": {"type": "LineString", "coordinates": [[121.15021, 24.716965], [121.14964, 24.716927], [121.149643, 24.716853], [121.149527, 24.717031], [121.150746, 24.718339], [121.142878, 24.717558], [121.142744, 24.717383], [121.142307, 24.717444], [121.141993, 24.717674], [121.141487, 24.716997], [121.141726, 24.718719], [121.141424, 24.719072], [121.141648, 24.719323], [121.141803, 24.719382], [121.143521, 24.714483], [121.139261, 24.714511], [121.138894, 24.712382], [121.138568, 24.711521], [121.13996, 24.711322], [121.13991, 24.711096], [121.140955, 24.710481], [121.141352, 24.710153], [121.141321, 24.710931], [121.135876, 24.710877], [121.134074, 24.711868], [121.13333, 24.713782], [121.132551, 24.71403], [121.127402, 24.712672], [121.13236, 24.724056], [121.149358, 24.726234], [121.149443, 24.725821], [121.151145, 24.726562], [121.152991, 24.727094], [121.153602, 24.727057], [121.155011, 24.729794], [121.156783, 24.729278], [121.157681, 24.72798], [121.157817, 24.727939], [121.158155, 24.728309], [121.15832, 24.728275], [121.158215, 24.728096], [121.158364, 24.728369], [121.15725, 24.726604], [121.157698, 24.72511], [121.157881, 24.724007], [121.159316, 24.723549], [121.159342, 24.723453], [121.15949, 24.724083], [121.159928, 24.724052], [121.160098, 24.723962], [121.160471, 24.724243], [121.160034, 24.724443], [121.159869, 24.724303], [121.159431, 24.724554], [121.159758, 24.724848], [121.159795, 24.725017], [121.160092, 24.725003], [121.160145, 24.724775], [121.162201, 24.722581], [121.162162, 24.722431], [121.162351, 24.722413], [121.162155, 24.722079], [121.162031, 24.722085], [121.161452, 24.720368], [121.161704, 24.720306], [121.161921, 24.719124], [121.16148, 24.719005], [121.161552, 24.718136], [121.161427, 24.718096], [121.162404, 24.717316], [121.162805, 24.716862], [121.163128, 24.716916], [121.163401, 24.716731], [121.163203, 24.716547], [121.163242, 24.716406], [121.163065, 24.715869], [121.162869, 24.715581], [121.163078, 24.715568], [121.1632, 24.715763], [121.163371, 24.71561], [121.163941, 24.715351], [121.163887, 24.71525], [121.163736, 24.715203], [121.163189, 24.715498], [121.162951, 24.715302], [121.162875, 24.715344], [121.162839, 24.715235], [121.162308, 24.715445], [121.16212, 24.716176], [121.161898, 24.716421], [121.161629, 24.71618], [121.162361, 24.716467], [121.163485, 24.715767], [121.16439, 24.71561], [121.164412, 24.715507], [121.165769, 24.716152], [121.166219, 24.715931], [121.166445, 24.715982], [121.166608, 24.7155], [121.166472, 24.715325], [121.166627, 24.715082], [121.167026, 24.714903], [121.166751, 24.714391], [121.167279, 24.713494], [121.168755, 24.713554], [121.169028, 24.715027], [121.169245, 24.715251], [121.168501, 24.715225], [121.168146, 24.71576], [121.167793, 24.715734], [121.168243, 24.71601], [121.168332, 24.715922], [121.168345, 24.716101], [121.16901, 24.717489], [121.169034, 24.717744], [121.169219, 24.717814], [121.169172, 24.7179], [121.169562, 24.718081], [121.169397, 24.71772], [121.169481, 24.717625], [121.169402, 24.717501], [121.168865, 24.717776], [121.170134, 24.718517], [121.170316, 24.718444], [121.170432, 24.71888], [121.17013, 24.720324], [121.172269, 24.719084], [121.172622, 24.718629]]}}, {"type": "Feature", "properties": {"district": "1000408", "segment": 16, "total_segments": 20, "km": 14.74, "villages": ["力行村"]}, "geometry": {"type": "LineString", "coordinates": [[121.173284, 24.72086], [121.173486, 24.720878], [121.173, 24.721025], [121.173076, 24.721924], [121.172834, 24.722157], [121.173063, 24.722348], [121.172992, 24.722557], [121.173318, 24.722353], [121.173611, 24.721812], [121.174064, 24.721968], [121.174124, 24.721898], [121.174035, 24.721827], [121.174446, 24.721688], [121.17448, 24.721587], [121.174362, 24.721523], [121.174349, 24.721855], [121.174258, 24.721922], [121.174551, 24.721881], [121.174767, 24.722206], [121.174796, 24.722429], [121.175105, 24.722201], [121.175306, 24.722686], [121.176742, 24.722378], [121.175403, 24.723557], [121.175613, 24.723837], [121.174022, 24.722459], [121.174, 24.721666], [121.173931, 24.721511], [121.172369, 24.722091], [121.17275, 24.722892], [121.175257, 24.71833], [121.176099, 24.718195], [121.176264, 24.718582], [121.177031, 24.717984], [121.178091, 24.718618], [121.175853, 24.717434], [121.180366, 24.721347], [121.181011, 24.721757], [121.181833, 24.721734], [121.181847, 24.721076], [121.182032, 24.72098], [121.182158, 24.721715], [121.181902, 24.721966], [121.182821, 24.724054], [121.18163, 24.724945], [121.182617, 24.725572], [121.183614, 24.725403], [121.184065, 24.725627], [121.184759, 24.724695], [121.185795, 24.724922], [121.185292, 24.723202], [121.179974, 24.725054], [121.179389, 24.725109], [121.179395, 24.725229], [121.179169, 24.725232], [121.179007, 24.725542], [121.178914, 24.725542], [121.165669, 24.721431], [121.164419, 24.720323], [121.163757, 24.719405], [121.162852, 24.719408], [121.163123, 24.717424], [121.166508, 24.717066], [121.167025, 24.717334], [121.166867, 24.716737], [121.166715, 24.716723], [121.167393, 24.715517], [121.169217, 24.711801], [121.172316, 24.7101], [121.172493, 24.709717], [121.172349, 24.709706], [121.172805, 24.709845], [121.172779, 24.709934], [121.172946, 24.709541], [121.17308, 24.709486], [121.172979, 24.709407], [121.173076, 24.709111], [121.173168, 24.709118], [121.172985, 24.70893], [121.173014, 24.70874], [121.17322, 24.70875], [121.17335, 24.708566], [121.173092, 24.708526], [121.173382, 24.709312], [121.173246, 24.709406], [121.173633, 24.709446], [121.174349, 24.71], [121.174634, 24.709959], [121.174542, 24.709661], [121.173795, 24.710367], [121.17382, 24.710593], [121.17299, 24.710069], [121.172698, 24.709667], [121.172946, 24.709028], [121.172799, 24.709061], [121.172646, 24.709442], [121.172218, 24.708713], [121.172029, 24.708885], [121.173752, 24.706765], [121.15974, 24.720344], [121.159365, 24.720277], [121.157485, 24.719432], [121.156957, 24.719754], [121.156786, 24.719407], [121.156207, 24.719468], [121.1541, 24.719343], [121.154499, 24.717577], [121.15504, 24.717744], [121.154488, 24.717302], [121.154399, 24.717135], [121.154287, 24.717422], [121.153625, 24.71718], [121.153701, 24.716982], [121.15353, 24.716795], [121.153306, 24.717123], [121.153477, 24.717223], [121.153442, 24.717307], [121.153489, 24.717185], [121.153653, 24.717316], [121.153946, 24.717128], [121.153674, 24.716565], [121.153897, 24.716479], [121.1527, 24.715982], [121.155106, 24.715959], [121.155552, 24.716648], [121.156201, 24.717148]]}}, {"type": "Feature", "properties": {"district": "1000408", "segment": 17, "total_segments": 20, "km": 14.92, "villages": ["力行村", "沙坑村"]}, "geometry": {"type": "LineString", "coordinates": [[121.155469, 24.721747], [121.151536, 24.729959], [121.151586, 24.73055], [121.151671, 24.730633], [121.152191, 24.730486], [121.150592, 24.731376], [121.149567, 24.730878], [121.14898, 24.728648], [121.15865, 24.729896], [121.158707, 24.730053], [121.159543, 24.730432], [121.159375, 24.731146], [121.159048, 24.731425], [121.158896, 24.731317], [121.16006, 24.733664], [121.159769, 24.734501], [121.15979, 24.734612], [121.159917, 24.73457], [121.159561, 24.734531], [121.160437, 24.735381], [121.162562, 24.736077], [121.162812, 24.736723], [121.163374, 24.73695], [121.163028, 24.73731], [121.162901, 24.738032], [121.162752, 24.738095], [121.162757, 24.738408], [121.162822, 24.738422], [121.162677, 24.738812], [121.162983, 24.73904], [121.162992, 24.739251], [121.162715, 24.739098], [121.162274, 24.739101], [121.162245, 24.739021], [121.162265, 24.738362], [121.162374, 24.738299], [121.162353, 24.737663], [121.162418, 24.737405], [121.161797, 24.737476], [121.161617, 24.737643], [121.161392, 24.737674], [121.161335, 24.738185], [121.161398, 24.738252], [121.161576, 24.738118], [121.161595, 24.737961], [121.161819, 24.737883], [121.161996, 24.737935], [121.162017, 24.738303], [121.161835, 24.738258], [121.161823, 24.738428], [121.161738, 24.738439], [121.161653, 24.738178], [121.161404, 24.738325], [121.161306, 24.738487], [121.161417, 24.738611], [121.161179, 24.738611], [121.161192, 24.738244], [121.161019, 24.738253], [121.161151, 24.737898], [121.161249, 24.737941], [121.160939, 24.738068], [121.160923, 24.737958], [121.16079, 24.738267], [121.160906, 24.738397], [121.160846, 24.738567], [121.160942, 24.738749], [121.160562, 24.738676], [121.16056, 24.739413], [121.160154, 24.739394], [121.160964, 24.739833], [121.161996, 24.739203], [121.161601, 24.738758], [121.162235, 24.7394], [121.162258, 24.739927], [121.162648, 24.740042], [121.16275, 24.740266], [121.162255, 24.740474], [121.162286, 24.740697], [121.163047, 24.741514], [121.162641, 24.741739], [121.162967, 24.742005], [121.162752, 24.742501], [121.161931, 24.742927], [121.16027, 24.743099], [121.160105, 24.743552], [121.15981, 24.743329], [121.159474, 24.743419], [121.159132, 24.744272], [121.158602, 24.743973], [121.158665, 24.744717], [121.159595, 24.745828], [121.157635, 24.746602], [121.156856, 24.746823], [121.156837, 24.746221], [121.155, 24.74552], [121.154724, 24.746432], [121.152831, 24.744679], [121.151923, 24.741988], [121.149063, 24.742047], [121.148265, 24.740943], [121.156185, 24.740728], [121.156683, 24.743731], [121.156352, 24.74393], [121.156217, 24.743823], [121.157644, 24.743665], [121.158776, 24.738747], [121.160499, 24.737544], [121.161076, 24.737685], [121.161688, 24.737154], [121.162235, 24.738197], [121.162243, 24.739148], [121.164173, 24.739469], [121.164207, 24.740573], [121.164408, 24.740665], [121.164464, 24.740417], [121.164668, 24.74048], [121.164609, 24.740258], [121.164145, 24.741828], [121.163857, 24.741954], [121.165292, 24.744227], [121.166645, 24.745164], [121.166963, 24.745817], [121.167586, 24.745679], [121.167664, 24.746343], [121.167811, 24.746486], [121.167995, 24.747152], [121.167807, 24.748124], [121.167939, 24.748146], [121.168116, 24.748012], [121.168085, 24.74796], [121.168179, 24.74809], [121.168027, 24.747845], [121.167682, 24.747753], [121.167394, 24.747532], [121.167435, 24.747437], [121.167306, 24.747611], [121.167093, 24.747556], [121.166849, 24.747661], [121.167057, 24.747862], [121.16695, 24.748062], [121.166812, 24.747978], [121.167145, 24.748081], [121.167204, 24.74797], [121.167256, 24.748114], [121.167127, 24.748127], [121.167394, 24.748222], [121.16751, 24.748101], [121.166508, 24.748187], [121.166277, 24.748533], [121.166198, 24.747742], [121.166321, 24.747632], [121.165979, 24.747726], [121.166154, 24.746543], [121.165222, 24.746096], [121.163719, 24.745542], [121.162801, 24.748382], [121.163709, 24.74923], [121.163425, 24.751133], [121.163599, 24.751225], [121.162464, 24.751482], [121.16093, 24.751137], [121.160514, 24.750368]]}}, {"type": "Feature", "properties": {"district": "1000408", "segment": 18, "total_segments": 20, "km": 12.95, "villages": ["沙坑村"]}, "geometry": {"type": "LineString", "coordinates": [[121.161381, 24.748253], [121.157799, 24.748962], [121.153195, 24.749192], [121.156229, 24.756064], [121.159679, 24.754324], [121.160374, 24.754691], [121.16019, 24.753008], [121.165923, 24.750587], [121.169431, 24.748765], [121.16954, 24.748883], [121.170558, 24.749085], [121.16909, 24.748129], [121.169374, 24.747619], [121.172396, 24.748608], [121.173597, 24.745227], [121.173568, 24.744309], [121.173981, 24.744105], [121.173149, 24.743456], [121.173088, 24.742811], [121.173313, 24.742426], [121.171698, 24.743066], [121.171503, 24.743249], [121.170771, 24.742765], [121.170514, 24.74296], [121.169883, 24.74439], [121.169268, 24.744513], [121.171818, 24.739023], [121.167035, 24.738132], [121.166344, 24.737716], [121.167213, 24.736976], [121.166676, 24.735974], [121.16633, 24.735927], [121.166104, 24.735593], [121.165411, 24.736343], [121.164889, 24.736566], [121.164111, 24.736665], [121.163605, 24.737136], [121.16409, 24.735967], [121.164033, 24.735896], [121.164287, 24.735457], [121.164058, 24.735348], [121.163571, 24.734909], [121.162987, 24.735235], [121.163862, 24.733286], [121.163992, 24.733078], [121.164299, 24.732969], [121.162813, 24.731545], [121.162607, 24.731448], [121.16503, 24.738384], [121.15571, 24.736304], [121.160443, 24.709832]]}}, {"type": "Feature", "properties": {"district": "1000408", "segment": 19, "total_segments": 20, "km": 14.55, "villages": ["福興村"]}, "geometry": {"type": "LineString", "coordinates": [[121.163874, 24.725519], [121.163749, 24.725561], [121.164244, 24.726206], [121.163506, 24.725835], [121.162135, 24.726327], [121.162041, 24.727073], [121.161696, 24.726977], [121.160814, 24.726172], [121.163756, 24.727714], [121.163909, 24.727675], [121.165213, 24.729358], [121.165601, 24.729635], [121.166411, 24.729179], [121.166213, 24.728314], [121.166845, 24.727851], [121.166924, 24.727959], [121.166107, 24.727104], [121.166074, 24.72693], [121.166143, 24.730356], [121.166554, 24.730594], [121.169085, 24.73124], [121.16857, 24.732797], [121.168067, 24.732838], [121.168344, 24.733211], [121.168071, 24.733383], [121.168525, 24.733892], [121.16831, 24.734093], [121.168321, 24.734191], [121.168225, 24.734198], [121.168448, 24.734451], [121.168475, 24.734747], [121.168719, 24.734444], [121.169574, 24.735051], [121.169372, 24.735068], [121.169241, 24.735199], [121.169337, 24.735324], [121.16972, 24.735335], [121.169967, 24.735521], [121.170098, 24.735425], [121.170006, 24.73579], [121.169752, 24.735646], [121.170216, 24.735915], [121.170367, 24.735825], [121.170498, 24.736004], [121.170474, 24.736104], [121.170079, 24.736034], [121.170298, 24.736616], [121.170621, 24.735353], [121.171135, 24.734923], [121.171406, 24.734576], [121.171969, 24.735343], [121.171891, 24.735898], [121.172647, 24.736096], [121.173505, 24.735408], [121.174324, 24.736035], [121.17449, 24.736938], [121.174564, 24.738325], [121.177656, 24.735916], [121.176211, 24.734667], [121.174968, 24.73398], [121.173208, 24.733233], [121.172924, 24.732265], [121.171578, 24.731253], [121.174, 24.729443], [121.177647, 24.72912], [121.178823, 24.729521], [121.178369, 24.730337], [121.178105, 24.730287], [121.179937, 24.730673], [121.181885, 24.731207], [121.181955, 24.731461], [121.183503, 24.731034], [121.183524, 24.730783], [121.183418, 24.730733], [121.183969, 24.730627], [121.18394, 24.729833], [121.183868, 24.729743], [121.185364, 24.730138], [121.185541, 24.72959], [121.185665, 24.729542], [121.186668, 24.730255], [121.185771, 24.731033], [121.185852, 24.731354], [121.187852, 24.732751], [121.187677, 24.733968], [121.188141, 24.73723], [121.188403, 24.737241], [121.188528, 24.737659], [121.188184, 24.737937], [121.186191, 24.737294], [121.186047, 24.737324], [121.185923, 24.73748], [121.185379, 24.737606], [121.185173, 24.737395], [121.185157, 24.736704], [121.184909, 24.736564], [121.184765, 24.736651], [121.184739, 24.736536], [121.184817, 24.737009], [121.184591, 24.737092], [121.184458, 24.736962], [121.18587, 24.736888], [121.184032, 24.735406], [121.184187, 24.735123], [121.183866, 24.735075], [121.183847, 24.73526], [121.184004, 24.735236], [121.184062, 24.734782], [121.18338, 24.734953], [121.183119, 24.736012], [121.182127, 24.734773], [121.179922, 24.733963], [121.180072, 24.733605], [121.187645, 24.728659], [121.187622, 24.728085], [121.187977, 24.727885], [121.190605, 24.727356], [121.191372, 24.72829], [121.191362, 24.731759], [121.191465, 24.73231], [121.190869, 24.736635], [121.190468, 24.736606], [121.192278, 24.736669], [121.189396, 24.738164], [121.189065, 24.739159], [121.189425, 24.739463], [121.189892, 24.739285], [121.19109, 24.739528], [121.191723, 24.741658], [121.192705, 24.742164], [121.193615, 24.740228], [121.194647, 24.740003]]}}, {"type": "Feature", "properties": {"district": "1000408", "segment": 20, "total_segments": 20, "km": 2.51, "villages": ["福興村"]}, "geometry": {"type": "LineString", "coordinates": [[121.188123, 24.738982], [121.170668, 24.733933], [121.169731, 24.734179], [121.169654, 24.734109], [121.169457, 24.734702], [121.168956, 24.735064], [121.169154, 24.735389], [121.168811, 24.734976], [121.168685, 24.734985], [121.168639, 24.734901], [121.168821, 24.734814], [121.168781, 24.734158], [121.167376, 24.732935]]}}]}