{"type": "FeatureCollection", "features": [{"type": "Feature", "properties": {"district": "1001415", "segment": 1, "total_segments": 8, "km": 10.62, "villages": ["南田村"]}, "geometry": {"type": "LineString", "coordinates": [[120.88896, 22.288366], [120.889039, 22.288848], [120.888985, 22.289036], [120.888816, 22.288756], [120.888619, 22.288731], [120.88842, 22.288233], [120.888696, 22.288096], [120.888756, 22.288274], [120.888984, 22.288166], [120.888723, 22.287925], [120.888653, 22.288039], [120.888546, 22.287957], [120.888692, 22.287764], [120.888862, 22.287863], [120.888959, 22.287763], [120.889291, 22.287774], [120.889313, 22.287945], [120.889417, 22.287769], [120.888801, 22.287389], [120.888616, 22.287508], [120.888837, 22.286818], [120.889036, 22.286721], [120.889121, 22.286763], [120.889144, 22.287019], [120.888794, 22.286581], [120.886617, 22.28803], [120.885236, 22.28631], [120.88953, 22.283728], [120.88919, 22.283198], [120.889629, 22.282549], [120.889345, 22.279218], [120.889774, 22.278892], [120.889613, 22.278731], [120.889855, 22.278635], [120.889882, 22.278505], [120.889995, 22.278556], [120.88992, 22.278656], [120.890061, 22.278707], [120.890168, 22.278881], [120.890504, 22.278811], [120.890345, 22.278528], [120.890213, 22.278531], [120.890033, 22.278261], [120.889803, 22.278409], [120.889659, 22.278344], [120.889639, 22.278486], [120.88984, 22.27742], [120.890093, 22.277253], [120.89022, 22.277046], [120.890353, 22.27653], [120.890281, 22.276489], [120.890344, 22.276313], [120.890071, 22.276242], [120.890215, 22.275674], [120.890201, 22.275172], [120.889728, 22.276391], [120.889656, 22.276826], [120.889542, 22.276675], [120.890005, 22.276498], [120.89001, 22.276436], [120.889998, 22.276612], [120.89027, 22.277534], [120.890436, 22.277516], [120.891031, 22.273265], [120.884683, 22.263865], [120.883334, 22.264508], [120.882597, 22.263471], [120.881434, 22.262059], [120.876242, 22.259657], [120.875974, 22.259794], [120.875537, 22.259791], [120.87489, 22.259297], [120.874132, 22.259462], [120.873678, 22.259286], [120.873954, 22.258893], [120.874133, 22.258922], [120.873291, 22.258883], [120.888867, 22.290179]]}}, {"type": "Feature", "properties": {"district": "1001415", "segment": 2, "total_segments": 8, "km": 14.88, "villages": ["森永村"]}, "geometry": {"type": "LineString", "coordinates": [[120.885369, 22.290863], [120.882435, 22.291252], [120.881684, 22.291943], [120.881389, 22.291806], [120.880712, 22.291858], [120.881096, 22.290989], [120.877187, 22.291874], [120.875804, 22.291553], [120.875815, 22.291481], [120.87547, 22.291137], [120.874993, 22.291227], [120.874478, 22.290847], [120.874011, 22.290367], [120.873474, 22.288806], [120.870154, 22.286064], [120.866763, 22.283834], [120.866749, 22.283699], [120.8669, 22.283521], [120.866421, 22.283172], [120.866372, 22.283342], [120.866603, 22.283565], [120.866604, 22.283942], [120.866195, 22.283043], [120.866109, 22.283008], [120.866293, 22.283029], [120.86592, 22.283085], [120.865828, 22.283018], [120.86587, 22.282838], [120.865675, 22.282707], [120.86561, 22.282874], [120.864772, 22.282308], [120.864741, 22.28212], [120.864931, 22.282125], [120.865027, 22.282047], [120.865115, 22.28197], [120.865124, 22.281792], [120.864676, 22.281859], [120.864816, 22.281663], [120.864647, 22.281625], [120.864413, 22.281744], [120.864348, 22.28154], [120.864038, 22.281628], [120.864082, 22.281892], [120.8642, 22.281741], [120.864306, 22.282004], [120.864487, 22.282124], [120.864353, 22.282168], [120.864213, 22.282614], [120.86425, 22.282688], [120.864537, 22.282682], [120.864656, 22.282563], [120.86476, 22.282731], [120.865012, 22.282177], [120.865126, 22.282129], [120.865314, 22.282368], [120.864933, 22.281972], [120.864878, 22.281997], [120.865133, 22.281466], [120.865253, 22.281536], [120.865263, 22.281717], [120.865192, 22.281364], [120.86508, 22.281334], [120.864969, 22.281157], [120.864695, 22.281293], [120.864655, 22.281248], [120.864739, 22.281191], [120.864653, 22.280952], [120.864478, 22.281209], [120.864538, 22.281473], [120.864961, 22.281456], [120.865202, 22.281194], [120.864923, 22.281021], [120.864909, 22.280937], [120.865011, 22.28089], [120.864566, 22.280812], [120.864494, 22.279901], [120.864694, 22.279205], [120.864807, 22.27939], [120.86448, 22.278982], [120.864447, 22.27878], [120.864659, 22.278875], [120.864839, 22.278534], [120.864743, 22.278435], [120.864754, 22.278156], [120.864518, 22.278131], [120.864431, 22.277993], [120.864286, 22.277987], [120.864567, 22.278482], [120.865245, 22.277832], [120.864973, 22.277639], [120.863633, 22.281463], [120.863258, 22.281662], [120.86303, 22.28161], [120.865717, 22.281762], [120.858819, 22.279276], [120.857888, 22.278216], [120.857153, 22.278392], [120.856523, 22.276846], [120.854141, 22.27759], [120.858084, 22.272142], [120.859604, 22.268413], [120.860966, 22.268317], [120.862422, 22.272487], [120.862686, 22.272486], [120.862859, 22.272664], [120.849527, 22.266824], [120.84742, 22.267335], [120.849569, 22.263895], [120.848898, 22.261414], [120.848964, 22.261253], [120.848814, 22.261314], [120.848045, 22.260706], [120.847127, 22.262017], [120.846243, 22.261819], [120.84604, 22.261578], [120.84488, 22.261513], [120.844714, 22.261132], [120.844746, 22.26101], [120.844471, 22.260852], [120.844742, 22.261928], [120.845508, 22.263129], [120.845376, 22.263235], [120.845703, 22.263437], [120.845844, 22.263398], [120.841419, 22.255053], [120.841328, 22.254564], [120.841454, 22.25432], [120.840835, 22.254464], [120.835717, 22.245202], [120.835333, 22.245272], [120.835243, 22.245033], [120.835045, 22.245082]]}}, {"type": "Feature", "properties": {"district": "1001415", "segment": 3, "total_segments": 8, "km": 15.0, "villages": ["森永村", "安朔村"]}, "geometry": {"type": "LineString", "coordinates": [[120.828481, 22.257501], [120.834743, 22.285915], [120.86024, 22.29257], [120.861875, 22.292123], [120.865694, 22.29322], [120.865993, 22.293153], [120.866016, 22.292997], [120.866185, 22.293152], [120.866319, 22.292987], [120.866549, 22.29309], [120.86656, 22.292894], [120.86671, 22.2928], [120.866822, 22.292846], [120.866802, 22.292954], [120.867189, 22.293053], [120.867258, 22.293261], [120.867072, 22.29318], [120.867075, 22.293361], [120.86691, 22.293348], [120.866771, 22.293152], [120.866764, 22.293276], [120.866407, 22.293291], [120.866441, 22.293507], [120.866089, 22.293385], [120.866029, 22.29361], [120.86585, 22.293728], [120.866166, 22.293788], [120.86622, 22.293676], [120.866166, 22.293634], [120.866358, 22.293714], [120.866308, 22.294108], [120.865918, 22.29413], [120.865884, 22.294015], [120.865725, 22.293971], [120.865714, 22.294073], [120.865604, 22.293779], [120.865689, 22.293472], [120.865492, 22.293418], [120.865337, 22.294066], [120.865495, 22.294128], [120.865441, 22.294227], [120.865715, 22.294368], [120.866386, 22.294193], [120.866427, 22.294329], [120.86656, 22.294357], [120.866645, 22.294211], [120.86671, 22.294231], [120.866586, 22.29417], [120.866965, 22.294006], [120.867353, 22.294169], [120.867418, 22.293944], [120.867297, 22.29383], [120.866587, 22.293771], [120.866697, 22.293595], [120.867466, 22.293716], [120.86748, 22.293315], [120.867257, 22.293444], [120.867753, 22.293497], [120.867839, 22.293191], [120.868133, 22.293633], [120.868809, 22.293811], [120.868199, 22.294794], [120.867306, 22.294438], [120.86722, 22.29433], [120.867123, 22.294472], [120.866236, 22.292804], [120.866437, 22.292582], [120.86645, 22.292311], [120.865194, 22.294229], [120.865209, 22.294437], [120.864926, 22.294532], [120.865061, 22.294685], [120.865071, 22.294173], [120.869842, 22.292761], [120.87083, 22.293387], [120.87076, 22.294773], [120.873181, 22.294405], [120.874286, 22.294369], [120.875021, 22.29403], [120.875247, 22.29435], [120.875473, 22.294299], [120.878325, 22.294774], [120.878524, 22.294043], [120.879198, 22.294337], [120.879304, 22.294285], [120.880405, 22.295191], [120.881493, 22.295078], [120.881585, 22.294776], [120.882255, 22.294847], [120.882927, 22.294723], [120.882853, 22.294883], [120.882847, 22.294332], [120.883164, 22.294395], [120.883082, 22.294549], [120.88339, 22.294499], [120.883586, 22.294881], [120.883717, 22.294803], [120.883836, 22.294911], [120.883948, 22.294768], [120.884203, 22.294982], [120.88442, 22.294862], [120.884517, 22.294898], [120.884614, 22.294829], [120.884703, 22.294908], [120.884987, 22.294791], [120.885157, 22.294984], [120.88548, 22.294809], [120.885611, 22.294839], [120.885667, 22.294952], [120.885731, 22.294778], [120.885824, 22.294849], [120.88598, 22.294801], [120.886193, 22.295038], [120.886328, 22.294984], [120.886292, 22.294938], [120.886386, 22.294961], [120.886452, 22.294838], [120.88679, 22.294802], [120.886822, 22.294923], [120.885935, 22.295343], [120.886202, 22.294584], [120.885896, 22.29446], [120.885774, 22.294541], [120.88572, 22.294479], [120.885673, 22.294555], [120.885333, 22.294563], [120.885321, 22.294452], [120.884977, 22.294539], [120.884889, 22.294457], [120.884845, 22.294537], [120.88455, 22.294397], [120.884493, 22.29451], [120.884377, 22.294536], [120.884117, 22.294362], [120.884132, 22.294294], [120.883988, 22.294261], [120.884088, 22.294464], [120.884217, 22.2945], [120.884187, 22.294028], [120.884689, 22.294177], [120.884697, 22.294377], [120.885012, 22.294074], [120.885392, 22.293929], [120.885283, 22.294801], [120.884002, 22.294121], [120.884016, 22.293976], [120.883916, 22.29387], [120.884077, 22.293795], [120.883991, 22.293555], [120.884381, 22.293551], [120.883864, 22.294209], [120.883805, 22.294171], [120.883804, 22.294377], [120.883106, 22.293966], [120.882099, 22.29424], [120.883654, 22.295545], [120.883924, 22.295498], [120.88349, 22.296899], [120.883977, 22.297043], [120.882955, 22.296964], [120.882849, 22.296853], [120.882632, 22.296879], [120.882626, 22.296652], [120.88275, 22.29653], [120.887342, 22.294483], [120.88846, 22.294618], [120.88886, 22.294846], [120.888912, 22.294948], [120.88886, 22.295084], [120.888508, 22.294958], [120.888409, 22.293426]]}}, {"type": "Feature", "properties": {"district": "1001415", "segment": 4, "total_segments": 8, "km": 14.9, "villages": ["安朔村", "新化村"]}, "geometry": {"type": "LineString", "coordinates": [[120.886411, 22.292838], [120.874566, 22.296974], [120.849205, 22.307189], [120.865065, 22.376805], [120.866795, 22.381655], [120.859462, 22.380033], [120.859519, 22.37991], [120.859224, 22.380131], [120.859033, 22.379867], [120.859076, 22.379718], [120.858787, 22.380416], [120.858903, 22.380547], [120.858957, 22.38051], [120.858841, 22.380713], [120.858984, 22.380773], [120.858768, 22.380919], [120.858388, 22.380683], [120.858465, 22.380415], [120.858601, 22.380271], [120.857877, 22.381552], [120.857656, 22.381503], [120.85751, 22.381693], [120.858021, 22.381829], [120.85821, 22.381457], [120.858432, 22.381229], [120.85852, 22.380922], [120.858648, 22.381078], [120.858734, 22.381006], [120.858549, 22.381167], [120.85862, 22.381222], [120.858255, 22.381846], [120.858399, 22.38209], [120.858086, 22.381934], [120.85781, 22.381318], [120.856773, 22.381552], [120.855774, 22.382764], [120.855231, 22.382146], [120.854848, 22.382783]]}}, {"type": "Feature", "properties": {"district": "1001415", "segment": 5, "total_segments": 8, "km": 9.18, "villages": ["新化村"]}, "geometry": {"type": "LineString", "coordinates": [[120.852286, 22.385069], [120.850735, 22.386112], [120.852169, 22.388776], [120.852363, 22.388698], [120.852463, 22.388824], [120.852535, 22.389472], [120.852693, 22.389402], [120.85283, 22.38951], [120.852589, 22.389684], [120.852219, 22.389562], [120.852189, 22.389776], [120.852405, 22.389761], [120.852623, 22.389868], [120.852763, 22.390244], [120.852722, 22.390532], [120.85304, 22.390454], [120.853162, 22.389889], [120.852816, 22.389211], [120.85219, 22.389134], [120.852187, 22.389337], [120.855304, 22.390106], [120.853504, 22.392649], [120.85362, 22.392947], [120.853254, 22.392954], [120.853024, 22.392766], [120.853056, 22.392618], [120.853203, 22.392515], [120.853158, 22.392473], [120.85332, 22.392669], [120.851576, 22.396895], [120.852399, 22.399623], [120.858835, 22.392785], [120.862253, 22.390862], [120.864851, 22.394188], [120.865119, 22.394377], [120.861683, 22.396427], [120.859005, 22.381869], [120.876881, 22.375862], [120.880811, 22.376944]]}}, {"type": "Feature", "properties": {"district": "1001415", "segment": 6, "total_segments": 8, "km": 14.42, "villages": ["新化村", "土?村"]}, "geometry": {"type": "LineString", "coordinates": [[120.907414, 22.477879], [120.893848, 22.46857], [120.893906, 22.465425], [120.894282, 22.464905], [120.886092, 22.46829], [120.885877, 22.468941], [120.885758, 22.468974], [120.88481, 22.465346], [120.887704, 22.456201], [120.887481, 22.456018], [120.887363, 22.455793], [120.886728, 22.455334], [120.886897, 22.455153], [120.886464, 22.454818], [120.88636, 22.454993], [120.886237, 22.454811], [120.886301, 22.454844], [120.886043, 22.454936], [120.885973, 22.454896], [120.885957, 22.455035], [120.886115, 22.455248], [120.885898, 22.455388], [120.885686, 22.455211], [120.885704, 22.455391], [120.885627, 22.455468], [120.885875, 22.455537], [120.886143, 22.455401], [120.886215, 22.455497], [120.886429, 22.455506], [120.886571, 22.455707], [120.886631, 22.455651], [120.886563, 22.455795], [120.886334, 22.45523], [120.885914, 22.455213], [120.885737, 22.455036], [120.885608, 22.455115], [120.885442, 22.454963], [120.885536, 22.454873], [120.885593, 22.454932], [120.885415, 22.455111], [120.885506, 22.455195], [120.885489, 22.45531], [120.88534, 22.455303], [120.885242, 22.45512], [120.885091, 22.455089], [120.884833, 22.455191], [120.884817, 22.455433], [120.885209, 22.455278], [120.885243, 22.454958], [120.885096, 22.454809], [120.884879, 22.455003], [120.884955, 22.454837], [120.884746, 22.454656], [120.884896, 22.454549], [120.885004, 22.454538], [120.885104, 22.454661], [120.88522, 22.454607], [120.885029, 22.454131], [120.884961, 22.454121], [120.884827, 22.454418], [120.88474, 22.454115], [120.885499, 22.454133], [120.885427, 22.453968], [120.885641, 22.453738], [120.885627, 22.453592], [120.885271, 22.453616], [120.885159, 22.45375], [120.885295, 22.454332], [120.886008, 22.454737], [120.886059, 22.454274], [120.885995, 22.454041], [120.886134, 22.45403], [120.886144, 22.454131], [120.886245, 22.454118], [120.886083, 22.453934], [120.885963, 22.453991], [120.88592, 22.453887], [120.885678, 22.453826], [120.885711, 22.453986], [120.88585, 22.4541], [120.885837, 22.453668], [120.88595, 22.453461], [120.886325, 22.453729], [120.886633, 22.453369], [120.886406, 22.453246], [120.886158, 22.453448], [120.886089, 22.45329], [120.886403, 22.452953], [120.886881, 22.453389], [120.886778, 22.453518], [120.88692, 22.453748], [120.886854, 22.453859], [120.886778, 22.453776], [120.88659, 22.45389], [120.886859, 22.45438], [120.886808, 22.454452], [120.886641, 22.454383], [120.887014, 22.454591], [120.887151, 22.454524], [120.887319, 22.454681], [120.887261, 22.454817], [120.887119, 22.454751], [120.887117, 22.454416], [120.88777, 22.454589], [120.887966, 22.45446], [120.887987, 22.454564], [120.888351, 22.454643], [120.888257, 22.454725], [120.888318, 22.455018], [120.888125, 22.455099], [120.888216, 22.455192], [120.887688, 22.454901], [120.887657, 22.454726], [120.887526, 22.454688], [120.887548, 22.454913], [120.887808, 22.454871], [120.887873, 22.454706], [120.887608, 22.454285], [120.887691, 22.45411], [120.887618, 22.453991], [120.887261, 22.453857], [120.887105, 22.453959], [120.886998, 22.453515], [120.885719, 22.453355], [120.885326, 22.454865], [120.887145, 22.455285], [120.887764, 22.455888], [120.888036, 22.455905], [120.887794, 22.455595], [120.887886, 22.456313], [120.88835, 22.456188], [120.890086, 22.457085], [120.883125, 22.453075], [120.882083, 22.452638], [120.882205, 22.453855], [120.88366, 22.451857], [120.881588, 22.451345], [120.881556, 22.451119], [120.879869, 22.447231], [120.878758, 22.447274], [120.878229, 22.447578], [120.877513, 22.44692], [120.876916, 22.446777], [120.877127, 22.446493], [120.876944, 22.446415], [120.877578, 22.44645], [120.877807, 22.445941], [120.878157, 22.445766], [120.878714, 22.446453], [120.876167, 22.447236], [120.876222, 22.447424], [120.876727, 22.444559], [120.874535, 22.443667], [120.874544, 22.443582], [120.874437, 22.443482], [120.874382, 22.443544], [120.874326, 22.443394], [120.874238, 22.443434], [120.874513, 22.443316], [120.874582, 22.443416], [120.874651, 22.443329], [120.874478, 22.443072], [120.874542, 22.443004], [120.874351, 22.443104], [120.87423, 22.442953], [120.87398, 22.442929], [120.873756, 22.443054], [120.873886, 22.442817], [120.873815, 22.442695], [120.874008, 22.442551], [120.874059, 22.442726], [120.874478, 22.44269], [120.874075, 22.443088], [120.874387, 22.444051], [120.871424, 22.447288], [120.871477, 22.447373], [120.869738, 22.446379], [120.869413, 22.446043], [120.869368, 22.446072], [120.868953, 22.448014], [120.869969, 22.451583]]}}, {"type": "Feature", "properties": {"district": "1001415", "segment": 7, "total_segments": 8, "km": 14.76, "villages": ["土?村", "台?村"]}, "geometry": {"type": "LineString", "coordinates": [[120.864806, 22.444504], [120.863215, 22.443548], [120.901477, 22.479102], [120.906187, 22.477696], [120.906372, 22.477428], [120.906509, 22.477406], [120.906546, 22.477538], [120.90684, 22.477517], [120.907085, 22.477362], [120.907141, 22.47754], [120.906905, 22.477716], [120.906455, 22.477621], [120.906211, 22.477416], [120.90609, 22.477483], [120.906779, 22.477302], [120.907378, 22.477615], [120.907436, 22.477832], [120.90731, 22.47789], [120.907271, 22.477818], [120.908102, 22.477836], [120.908268, 22.477743], [120.908308, 22.477884], [120.908643, 22.477921], [120.908793, 22.478053], [120.908695, 22.478117], [120.908634, 22.47832], [120.908775, 22.478472], [120.908957, 22.478051], [120.909066, 22.478106], [120.909151, 22.477923], [120.909274, 22.477914], [120.909335, 22.477436], [120.909252, 22.477373], [120.909054, 22.47738], [120.909005, 22.477535], [120.908863, 22.477526], [120.908868, 22.477582], [120.908871, 22.477439], [120.908678, 22.477278], [120.908613, 22.477371], [120.908281, 22.477271], [120.908281, 22.477631], [120.908133, 22.477646], [120.908083, 22.477337], [120.908454, 22.477506], [120.90846, 22.477672], [120.908614, 22.477743], [120.908702, 22.477659], [120.908984, 22.477867], [120.908831, 22.477916], [120.909195, 22.477585], [120.909426, 22.477586], [120.90946, 22.477751], [120.910188, 22.478105], [120.909225, 22.478618], [120.908971, 22.478945], [120.909191, 22.479173], [120.909142, 22.479374], [120.908709, 22.479032], [120.908855, 22.478784], [120.908772, 22.478705], [120.908949, 22.478658], [120.909249, 22.478967], [120.908207, 22.478117], [120.908413, 22.478076], [120.907982, 22.478446], [120.909069, 22.480261], [120.911119, 22.480396], [120.911928, 22.480085], [120.913055, 22.480102], [120.913052, 22.479984], [120.913178, 22.479924], [120.913261, 22.480014], [120.913198, 22.480063], [120.913246, 22.48023], [120.913091, 22.480276], [120.913105, 22.480402], [120.913313, 22.480371], [120.913314, 22.480645], [120.9134, 22.480817], [120.913241, 22.480992], [120.913276, 22.481116], [120.913364, 22.481075], [120.913423, 22.481213], [120.913599, 22.481136], [120.913642, 22.481018], [120.913556, 22.480447], [120.913778, 22.480581], [120.913765, 22.481073], [120.913678, 22.481277], [120.913785, 22.481364], [120.913841, 22.481303], [120.913885, 22.481667], [120.913805, 22.481701], [120.913737, 22.481627], [120.913548, 22.48171], [120.913418, 22.48147], [120.913567, 22.481867], [120.913753, 22.482117], [120.913465, 22.482074], [120.913577, 22.482396], [120.913513, 22.482777], [120.913723, 22.48283], [120.913741, 22.482778], [120.913724, 22.482905], [120.914233, 22.482672], [120.914415, 22.482503], [120.91411, 22.482314], [120.914167, 22.482088], [120.914359, 22.482257], [120.915469, 22.482761], [120.916124, 22.481574], [120.916985, 22.480661], [120.913879, 22.480371], [120.913883, 22.480219], [120.913742, 22.480265], [120.913711, 22.480135], [120.91351, 22.480177], [120.913436, 22.479974], [120.913513, 22.479837], [120.913445, 22.479727], [120.913616, 22.479699], [120.913921, 22.480043], [120.913608, 22.479456], [120.913488, 22.479478], [120.913445, 22.47913], [120.913311, 22.479135], [120.913325, 22.479349], [120.912971, 22.479235], [120.913047, 22.479169], [120.912922, 22.478748], [120.913016, 22.478717], [120.912985, 22.478603], [120.913266, 22.478514], [120.913193, 22.478399], [120.913235, 22.478284], [120.913307, 22.479015], [120.912996, 22.4794], [120.913053, 22.479515], [120.912974, 22.479657], [120.913159, 22.479742], [120.913105, 22.480729], [120.913166, 22.480796], [120.910955, 22.482138], [120.914946, 22.486272], [120.914826, 22.486494], [120.916304, 22.486043], [120.916905, 22.484478], [120.92061, 22.476763], [120.918348, 22.473559], [120.914119, 22.474188], [120.913457, 22.474354], [120.913501, 22.474673], [120.913638, 22.474919], [120.913835, 22.475212]]}}, {"type": "Feature", "properties": {"district": "1001415", "segment": 8, "total_segments": 8, "km": 1.87, "villages": ["台?村"]}, "geometry": {"type": "LineString", "coordinates": [[120.913303, 22.470861], [120.913417, 22.470717], [120.913501, 22.47076], [120.915229, 22.467924], [120.915229, 22.467602], [120.915129, 22.467607], [120.915484, 22.467572], [120.916145, 22.467068], [120.921243, 22.467609], [120.924888, 22.473727]]}}]}