{"type": "FeatureCollection", "features": [{"type": "Feature", "properties": {"district": "6600100", "segment": 1, "total_segments": 4, "km": 10.54, "villages": ["中華里", "大誠里"]}, "geometry": {"type": "LineString", "coordinates": [[120.675955, 24.143795], [120.675834, 24.143628], [120.675665, 24.143776], [120.675614, 24.143903], [120.675826, 24.144107], [120.675948, 24.144003], [120.675952, 24.143879], [120.676106, 24.14384], [120.675995, 24.143736], [120.675747, 24.143932], [120.675565, 24.143897], [120.675423, 24.143617], [120.675036, 24.143294], [120.675147, 24.143296], [120.67525, 24.143097], [120.675101, 24.142921], [120.675002, 24.143008], [120.674988, 24.14286], [120.674707, 24.142648], [120.674508, 24.142833], [120.674889, 24.143136], [120.674643, 24.143351], [120.674839, 24.14354], [120.674824, 24.143619], [120.674476, 24.143867], [120.674426, 24.143763], [120.674485, 24.143595], [120.674307, 24.143644], [120.674394, 24.143364], [120.674514, 24.143279], [120.674286, 24.143072], [120.674124, 24.143336], [120.674939, 24.143809], [120.674681, 24.144067], [120.674821, 24.144147], [120.674944, 24.144057], [120.675263, 24.144321], [120.675193, 24.144586], [120.675285, 24.144589], [120.675386, 24.144428], [120.675561, 24.144342], [120.675401, 24.144093], [120.675269, 24.144108], [120.675322, 24.144417], [120.675092, 24.144367], [120.675039, 24.144428], [120.674921, 24.144287], [120.67498, 24.144294], [120.674807, 24.144405], [120.674747, 24.144341], [120.674804, 24.14418], [120.675087, 24.14389], [120.67504, 24.143761], [120.674977, 24.143758], [120.675939, 24.144643], [120.675864, 24.144772], [120.675961, 24.144897], [120.675778, 24.14511], [120.675647, 24.144995], [120.675727, 24.144991], [120.675452, 24.144826], [120.675503, 24.144703], [120.675615, 24.144739], [120.675688, 24.144564], [120.675404, 24.144772], [120.675261, 24.144936], [120.675591, 24.145161], [120.675362, 24.145211], [120.675372, 24.145128], [120.675884, 24.145218], [120.675983, 24.145306], [120.676331, 24.145062], [120.67635, 24.145003], [120.676173, 24.144942], [120.676067, 24.144767], [120.676272, 24.144497], [120.675991, 24.144252], [120.676327, 24.144048], [120.676433, 24.143881], [120.676556, 24.143936], [120.676602, 24.14404], [120.676534, 24.144108], [120.676628, 24.144185], [120.676495, 24.14416], [120.676383, 24.144284], [120.676362, 24.144537], [120.676621, 24.144756], [120.676847, 24.144564], [120.676864, 24.144458], [120.676736, 24.144282], [120.676528, 24.144472], [120.676808, 24.145003], [120.677275, 24.145424], [120.677417, 24.145443], [120.677295, 24.145515], [120.677529, 24.145622], [120.677491, 24.145676], [120.677998, 24.14613], [120.678064, 24.146276], [120.678178, 24.146164], [120.678075, 24.145897], [120.67823, 24.145755], [120.678165, 24.145692], [120.677953, 24.14589], [120.677832, 24.145748], [120.678011, 24.14556], [120.677879, 24.145396], [120.677621, 24.145627], [120.677567, 24.145291], [120.677162, 24.144701], [120.677064, 24.144875], [120.676237, 24.145498], [120.676243, 24.145585], [120.676563, 24.145544], [120.67677, 24.14575], [120.676807, 24.145694], [120.676659, 24.145546], [120.676774, 24.145464], [120.676619, 24.145271], [120.677016, 24.145744], [120.676877, 24.14577], [120.676841, 24.145818], [120.676959, 24.145852], [120.676826, 24.14598], [120.676983, 24.146124], [120.676912, 24.146202], [120.677077, 24.146364], [120.677155, 24.146438], [120.677094, 24.146247], [120.677315, 24.146027], [120.677365, 24.146165], [120.677479, 24.146129], [120.67784, 24.146458], [120.677575, 24.146694], [120.677459, 24.146734], [120.677375, 24.146623], [120.677609, 24.146901], [120.677864, 24.14665], [120.677587, 24.146934], [120.677428, 24.146407], [120.677512, 24.146307], [120.677302, 24.145934], [120.677227, 24.145872], [120.677005, 24.146105], [120.67807, 24.145624], [120.678308, 24.145816], [120.678356, 24.145904], [120.675078, 24.144689], [120.67456, 24.14417], [120.675569, 24.143243], [120.675868, 24.143071], [120.675814, 24.143459], [120.675905, 24.143277], [120.675944, 24.143229], [120.676402, 24.143575], [120.676136, 24.143756], [120.675968, 24.143623], [120.676359, 24.143267], [120.676256, 24.143054], [120.675994, 24.142892], [120.676442, 24.142496], [120.676638, 24.142593], [120.67666, 24.142759], [120.67679, 24.142817], [120.676824, 24.14296], [120.67677, 24.143077], [120.67652, 24.142827], [120.676426, 24.142827], [120.676436, 24.142764], [120.676351, 24.142817], [120.676307, 24.142858], [120.676505, 24.143185], [120.676567, 24.143124], [120.676753, 24.143256], [120.676941, 24.143145], [120.676605, 24.143422], [120.676478, 24.143294], [120.676626, 24.143275], [120.676378, 24.143106], [120.675953, 24.143164], [120.67565, 24.14285], [120.675415, 24.143018], [120.67566, 24.142587], [120.675553, 24.142495], [120.675874, 24.142683], [120.675942, 24.142572], [120.675786, 24.142328], [120.67572, 24.14237], [120.676034, 24.142085], [120.676294, 24.142247], [120.67577, 24.142023], [120.675519, 24.142096], [120.675155, 24.142423], [120.675034, 24.142731], [120.676434, 24.143845], [120.676673, 24.14373], [120.676922, 24.143419], [120.677071, 24.143694], [120.676966, 24.14401], [120.677063, 24.144113], [120.67687, 24.144286], [120.676797, 24.144223], [120.67693, 24.144165], [120.676856, 24.144161], [120.676931, 24.144036], [120.6772, 24.14426], [120.677014, 24.144423], [120.676689, 24.144108], [120.676598, 24.143936], [120.676754, 24.143887], [120.677054, 24.144029], [120.677256, 24.144231], [120.677201, 24.144045], [120.677529, 24.14437], [120.677649, 24.144285], [120.67799, 24.144635], [120.677896, 24.144757], [120.677941, 24.144799], [120.678066, 24.144686], [120.67815, 24.14481], [120.677804, 24.145055], [120.677618, 24.144849], [120.677889, 24.144629], [120.677675, 24.144556], [120.677717, 24.144447], [120.67753, 24.144436], [120.677305, 24.144589], [120.677555, 24.144761], [120.677654, 24.144685], [120.677581, 24.144616], [120.67802, 24.144053], [120.678674, 24.144645], [120.678628, 24.144754], [120.678939, 24.145039], [120.678916, 24.14509], [120.678833, 24.144857], [120.678901, 24.144834], [120.678943, 24.14451], [120.678888, 24.144425], [120.678724, 24.144624], [120.678948, 24.144363], [120.678259, 24.145075], [120.678002, 24.145242], [120.678255, 24.145459], [120.67829, 24.14534], [120.678522, 24.145172], [120.678394, 24.14502], [120.678681, 24.14533], [120.678353, 24.145568], [120.67841, 24.145629], [120.678476, 24.145671], [120.678655, 24.145459], [120.679572, 24.14614], [120.679287, 24.146499], [120.679101, 24.146352], [120.67903, 24.146284], [120.679248, 24.146158], [120.679341, 24.146258], [120.679597, 24.146262], [120.679977, 24.145964], [120.679877, 24.145902], [120.679799, 24.145953], [120.679337, 24.145543], [120.679407, 24.145349], [120.679776, 24.145762], [120.679951, 24.145679], [120.68001, 24.145851], [120.680137, 24.145747], [120.680405, 24.146051], [120.680175, 24.146324], [120.680602, 24.146729], [120.680667, 24.146766], [120.680824, 24.146552], [120.680968, 24.146493], [120.680728, 24.146336], [120.680671, 24.146212], [120.680604, 24.146436], [120.680189, 24.146764], [120.680388, 24.146989], [120.679553, 24.147701], [120.679066, 24.147151], [120.679389, 24.146863], [120.679507, 24.146957], [120.67942, 24.147069], [120.679505, 24.147165], [120.679353, 24.147218], [120.679517, 24.147352], [120.679647, 24.147294], [120.679641, 24.147344], [120.680154, 24.146878], [120.679957, 24.146729], [120.679731, 24.14692], [120.679594, 24.146782], [120.679882, 24.146464], [120.680025, 24.146586], [120.679014, 24.146719], [120.678546, 24.146685], [120.679101, 24.145863], [120.678855, 24.147479], [120.679516, 24.14804], [120.679296, 24.148091], [120.67881, 24.147651], [120.676857, 24.141736]]}}, {"type": "Feature", "properties": {"district": "6600100", "segment": 2, "total_segments": 4, "km": 10.15, "villages": ["柳川里", "大墩里"]}, "geometry": {"type": "LineString", "coordinates": [[120.67689, 24.141694], [120.67748, 24.141286], [120.677218, 24.141119], [120.677261, 24.141076], [120.677041, 24.14088], [120.676946, 24.141164], [120.676987, 24.141403], [120.676945, 24.141448], [120.67685, 24.141384], [120.676714, 24.141519], [120.676777, 24.14162], [120.677135, 24.141361], [120.676816, 24.14085], [120.67694, 24.140767], [120.676584, 24.141059], [120.676473, 24.141307], [120.677197, 24.141827], [120.677469, 24.141643], [120.677635, 24.141401], [120.677695, 24.141575], [120.677591, 24.141689], [120.677712, 24.141807], [120.677728, 24.141707], [120.677508, 24.141956], [120.67742, 24.141933], [120.677424, 24.142061], [120.677224, 24.142092], [120.677098, 24.141948], [120.677482, 24.141765], [120.677614, 24.141941], [120.677859, 24.141922], [120.677841, 24.1421], [120.677627, 24.14206], [120.677555, 24.142114], [120.677546, 24.142273], [120.677424, 24.142359], [120.677526, 24.142541], [120.677637, 24.142523], [120.677716, 24.142341], [120.677964, 24.142231], [120.678033, 24.142121], [120.678095, 24.14241], [120.677989, 24.142541], [120.678541, 24.143057], [120.67867, 24.142965], [120.678394, 24.142716], [120.678342, 24.142769], [120.678321, 24.142639], [120.678153, 24.142491], [120.677824, 24.142627], [120.67768, 24.142792], [120.677732, 24.143006], [120.678014, 24.142873], [120.678404, 24.143204], [120.678035, 24.143506], [120.677941, 24.143363], [120.678104, 24.143093], [120.677986, 24.143036], [120.677815, 24.143115], [120.677991, 24.142839], [120.677316, 24.142156], [120.677535, 24.142045], [120.678818, 24.143241], [120.679083, 24.143045], [120.678778, 24.143309], [120.679206, 24.14366], [120.67948, 24.143366], [120.67941, 24.143285], [120.679166, 24.143474], [120.679354, 24.143693], [120.679647, 24.143447], [120.679834, 24.14366], [120.679476, 24.143983], [120.679786, 24.144279], [120.680078, 24.144308], [120.680192, 24.144216], [120.68018, 24.144025], [120.680104, 24.14401], [120.680186, 24.143906], [120.68014, 24.14368], [120.679905, 24.143801], [120.679886, 24.14364], [120.680043, 24.143431], [120.680086, 24.144193], [120.680033, 24.144195], [120.680008, 24.144497], [120.680281, 24.144313], [120.680448, 24.144465], [120.680643, 24.144283], [120.680606, 24.144469], [120.680688, 24.144533], [120.680605, 24.144586], [120.68068, 24.144698], [120.680477, 24.144753], [120.68056, 24.144805], [120.68044, 24.144873], [120.680594, 24.145047], [120.680703, 24.145059], [120.680642, 24.144984], [120.680725, 24.144826], [120.680808, 24.144955], [120.680903, 24.144919], [120.680872, 24.14476], [120.681134, 24.144951], [120.681143, 24.144805], [120.680954, 24.144628], [120.680788, 24.144607], [120.680724, 24.144696], [120.680416, 24.144646], [120.68036, 24.144537], [120.68042, 24.144488], [120.680301, 24.144581], [120.680223, 24.144669], [120.680389, 24.144854], [120.6802, 24.145066], [120.680617, 24.145347], [120.68019, 24.145582], [120.68021, 24.145661], [120.679886, 24.14527], [120.679677, 24.145205], [120.680006, 24.144789], [120.68016, 24.145164], [120.680067, 24.145243], [120.679927, 24.145125], [120.680186, 24.145357], [120.680783, 24.145195], [120.680944, 24.145062], [120.681162, 24.14533], [120.681052, 24.145392], [120.681103, 24.145519], [120.681543, 24.145963], [120.681808, 24.145929], [120.68168, 24.145861], [120.681665, 24.145611], [120.681571, 24.145592], [120.681535, 24.145706], [120.681233, 24.145465], [120.681334, 24.145354], [120.681468, 24.145532], [120.681519, 24.145332], [120.681264, 24.145245], [120.680809, 24.145578], [120.680601, 24.145862], [120.680797, 24.146045], [120.681617, 24.145896], [120.679551, 24.145276], [120.679458, 24.145011], [120.679553, 24.144985], [120.679654, 24.144765], [120.679863, 24.14465], [120.679474, 24.144252], [120.679451, 24.144934], [120.679347, 24.143744], [120.679669, 24.143426], [120.679969, 24.143132], [120.679749, 24.142929], [120.679607, 24.142659], [120.679534, 24.142637], [120.679143, 24.142966], [120.67898, 24.142709], [120.679297, 24.142409], [120.678729, 24.141861], [120.678139, 24.142351], [120.678058, 24.142073], [120.678545, 24.141653], [120.67846, 24.141653], [120.678171, 24.14127], [120.677967, 24.141162], [120.677834, 24.141251], [120.677784, 24.141481], [120.677837, 24.141553], [120.677867, 24.141394], [120.677966, 24.141493], [120.678017, 24.141419], [120.678073, 24.141611], [120.678191, 24.1417], [120.677994, 24.141787], [120.677924, 24.141865], [120.677984, 24.141922], [120.677502, 24.141245], [120.677811, 24.140981], [120.67765, 24.140907], [120.677242, 24.140462], [120.677137, 24.140544], [120.677159, 24.140629], [120.676965, 24.140708], [120.677254, 24.140893], [120.677323, 24.140834], [120.677241, 24.140752], [120.677459, 24.140885], [120.67732, 24.140999], [120.677824, 24.140524], [120.678067, 24.140741], [120.678289, 24.140565], [120.678448, 24.140417], [120.678298, 24.140302], [120.678165, 24.140516], [120.67798, 24.140429], [120.677928, 24.140494], [120.678319, 24.140131], [120.678559, 24.140363], [120.678295, 24.14041], [120.678293, 24.140109], [120.678115, 24.140081], [120.677709, 24.140424], [120.677489, 24.140215], [120.677732, 24.140115], [120.677693, 24.140067], [120.677824, 24.139953], [120.678046, 24.140045], [120.677801, 24.140175], [120.678331, 24.140872], [120.67821, 24.140938], [120.678295, 24.141014], [120.678518, 24.140716], [120.678835, 24.140785], [120.678955, 24.141016], [120.678869, 24.141108], [120.678858, 24.141037], [120.679202, 24.141134], [120.679243, 24.141033], [120.679396, 24.140985], [120.679011, 24.140841], [120.67918, 24.141172], [120.678854, 24.14144], [120.678718, 24.141404], [120.678713, 24.141285], [120.678903, 24.141257], [120.678815, 24.141487], [120.678989, 24.141616], [120.678947, 24.141659], [120.679247, 24.141834], [120.679537, 24.142224], [120.679924, 24.141852], [120.679597, 24.14181], [120.679453, 24.141968], [120.679492, 24.141662], [120.679231, 24.141557], [120.679217, 24.141463], [120.67906, 24.141585], [120.679341, 24.141294], [120.679444, 24.141384], [120.678434, 24.141088], [120.67866, 24.140887], [120.678854, 24.142323], [120.678817, 24.14281], [120.678721, 24.142913], [120.679563, 24.14329], [120.679662, 24.143067], [120.679573, 24.142923], [120.679909, 24.14256], [120.679781, 24.142447], [120.680005, 24.142289], [120.680247, 24.142918], [120.680499, 24.142779], [120.680327, 24.142651], [120.680664, 24.142928], [120.680465, 24.143127], [120.680659, 24.143236], [120.680784, 24.143453], [120.681001, 24.143609], [120.681216, 24.143484], [120.680764, 24.143074], [120.680307, 24.143488], [120.68036, 24.143565], [120.680207, 24.143567], [120.680111, 24.143341], [120.680256, 24.143303], [120.680273, 24.143397], [120.680791, 24.14385], [120.680389, 24.144206], [120.680301, 24.144161], [120.680431, 24.143908], [120.68032, 24.143852], [120.680486, 24.143677], [120.680962, 24.144013], [120.68078, 24.144351], [120.681228, 24.144402], [120.68099, 24.144596], [120.681039, 24.144664], [120.68131, 24.144537], [120.681245, 24.144478], [120.681183, 24.144524], [120.681342, 24.144391], [120.681025, 24.144175], [120.681027, 24.144061], [120.680831, 24.144505], [120.681211, 24.144771], [120.681452, 24.144656], [120.681499, 24.14452], [120.681454, 24.144481], [120.681648, 24.14484], [120.681517, 24.144965], [120.681549, 24.145097], [120.681453, 24.145104], [120.681574, 24.145261], [120.681519, 24.145332], [120.681616, 24.145424], [120.681702, 24.145399], [120.681651, 24.145207], [120.681783, 24.14489], [120.681736, 24.144818], [120.682173, 24.145803], [120.681857, 24.145911], [120.681876, 24.14562], [120.681949, 24.14559], [120.681868, 24.145546], [120.68172, 24.145589], [120.681725, 24.145649], [120.681834, 24.145623], [120.681826, 24.145481], [120.681737, 24.145509], [120.681722, 24.143926], [120.680025, 24.143157]]}}, {"type": "Feature", "properties": {"district": "6600100", "segment": 3, "total_segments": 4, "km": 11.93, "villages": ["光復里", "公園里"]}, "geometry": {"type": "LineString", "coordinates": [[120.680547, 24.142709], [120.681086, 24.142209], [120.68121, 24.14218], [120.680654, 24.141668], [120.680483, 24.141834], [120.680887, 24.142232], [120.680603, 24.142189], [120.680581, 24.142102], [120.680344, 24.141957], [120.680078, 24.142222], [120.680203, 24.142346], [120.680464, 24.142195], [120.680525, 24.142252], [120.680295, 24.142446], [120.68041, 24.142477], [120.680484, 24.142606], [120.68066, 24.142435], [120.680897, 24.142677], [120.681042, 24.142552], [120.681078, 24.142646], [120.680777, 24.142873], [120.680997, 24.143092], [120.681183, 24.142946], [120.681256, 24.142792], [120.681302, 24.142832], [120.681122, 24.142675], [120.681166, 24.142764], [120.680976, 24.142949], [120.680893, 24.142836], [120.681062, 24.142758], [120.681073, 24.142936], [120.680888, 24.142934], [120.680768, 24.142789], [120.680821, 24.14274], [120.680707, 24.142841], [120.680835, 24.143145], [120.681084, 24.143172], [120.681294, 24.143408], [120.681482, 24.143246], [120.681446, 24.143174], [120.681343, 24.143097], [120.681369, 24.143234], [120.681261, 24.143306], [120.681152, 24.143147], [120.681317, 24.14299], [120.68145, 24.142979], [120.681602, 24.143102], [120.68161, 24.142603], [120.681312, 24.142333], [120.681137, 24.142497], [120.68132, 24.1426], [120.681995, 24.142215], [120.681914, 24.142122], [120.681858, 24.142196], [120.681741, 24.141991], [120.681625, 24.142081], [120.681743, 24.142179], [120.681676, 24.142321], [120.681598, 24.14226], [120.682095, 24.142702], [120.682435, 24.142383], [120.682638, 24.142567], [120.682786, 24.142412], [120.682879, 24.142412], [120.683392, 24.142909], [120.682785, 24.143437], [120.68225, 24.142872], [120.682563, 24.142639], [120.682621, 24.142671], [120.68261, 24.142593], [120.682729, 24.142709], [120.682847, 24.142607], [120.68274, 24.142775], [120.682692, 24.142734], [120.682725, 24.142864], [120.682939, 24.142711], [120.68299, 24.142773], [120.682847, 24.142886], [120.682923, 24.142956], [120.682825, 24.142951], [120.682698, 24.143092], [120.682585, 24.143049], [120.682725, 24.142978], [120.682791, 24.143232], [120.682735, 24.143181], [120.682895, 24.143151], [120.682957, 24.143096], [120.682911, 24.143034], [120.683168, 24.14292], [120.683017, 24.143041], [120.682092, 24.142286], [120.681932, 24.142422], [120.681775, 24.141963], [120.681597, 24.141784], [120.681309, 24.142039], [120.680938, 24.141659], [120.681179, 24.141561], [120.68125, 24.141689], [120.681302, 24.141571], [120.68151, 24.141733], [120.681046, 24.141296], [120.680839, 24.141491], [120.68063, 24.141271], [120.680822, 24.141058], [120.68051, 24.140787], [120.680304, 24.141011], [120.680218, 24.140845], [120.680014, 24.140779], [120.680277, 24.140503], [120.68046, 24.140742], [120.680469, 24.14101], [120.680398, 24.141059], [120.680563, 24.1413], [120.680309, 24.141557], [120.680129, 24.141384], [120.680246, 24.141303], [120.680369, 24.141416], [120.679856, 24.140886], [120.679439, 24.141244], [120.679832, 24.141334], [120.679747, 24.141454], [120.679592, 24.141365], [120.679581, 24.141529], [120.679797, 24.14161], [120.679945, 24.141499], [120.680128, 24.141673], [120.679987, 24.141841], [120.679877, 24.141626], [120.679945, 24.141443], [120.679876, 24.14137], [120.679896, 24.141194], [120.6796, 24.140818], [120.679703, 24.14075], [120.679184, 24.140361], [120.679205, 24.140219], [120.679083, 24.140195], [120.678604, 24.140569], [120.679273, 24.140703], [120.67946, 24.140918], [120.679519, 24.14088], [120.679819, 24.14058], [120.679735, 24.140387], [120.679343, 24.140055], [120.679539, 24.139829], [120.679744, 24.140093], [120.680114, 24.140341], [120.679889, 24.140509], [120.680562, 24.141029], [120.680625, 24.140986], [120.68145, 24.14117], [120.680423, 24.141829], [120.680373, 24.14193], [120.679757, 24.14168], [120.678569, 24.140294], [120.678913, 24.140042], [120.678885, 24.139993], [120.678729, 24.139901], [120.678666, 24.139996], [120.678507, 24.139962], [120.6784, 24.140126], [120.678194, 24.140001], [120.678555, 24.139666], [120.678357, 24.139511], [120.678011, 24.139844], [120.678546, 24.139894], [120.678902, 24.139612], [120.679132, 24.139855], [120.679379, 24.139582], [120.678865, 24.139577], [120.678728, 24.139144], [120.679027, 24.138973], [120.679491, 24.138676], [120.679953, 24.139095], [120.680133, 24.138946], [120.680297, 24.139133], [120.680067, 24.139365], [120.680605, 24.139899], [120.681245, 24.139362], [120.680687, 24.138865], [120.680483, 24.138984], [120.68048, 24.139126], [120.680741, 24.13929], [120.680858, 24.139223], [120.681012, 24.139368], [120.680789, 24.139565], [120.680721, 24.139597], [120.680618, 24.13939], [120.680228, 24.139335], [120.679882, 24.139537], [120.680054, 24.139777], [120.680427, 24.140059], [120.680179, 24.140279], [120.680036, 24.140098], [120.680408, 24.140418], [120.680348, 24.14047], [120.68062, 24.140209], [120.680927, 24.14061], [120.681167, 24.14076], [120.680938, 24.141006], [120.680471, 24.140557], [120.680576, 24.140511], [120.680785, 24.140801], [120.681253, 24.140527], [120.68136, 24.140659], [120.681668, 24.14028], [120.681926, 24.140148], [120.681966, 24.140095], [120.681836, 24.139991], [120.681614, 24.140209], [120.681335, 24.140225], [120.681055, 24.139873], [120.681396, 24.139548], [120.681517, 24.139656], [120.681661, 24.13933], [120.681907, 24.139109], [120.682015, 24.139269], [120.681819, 24.139429], [120.681772, 24.139388], [120.682395, 24.139695], [120.682465, 24.139634], [120.682616, 24.13992], [120.682722, 24.13989], [120.682447, 24.140118], [120.682639, 24.140311], [120.682947, 24.140099], [120.682862, 24.140035], [120.682605, 24.140179], [120.682912, 24.14055], [120.683186, 24.140354], [120.683355, 24.14058], [120.683141, 24.140783], [120.683519, 24.141154], [120.683558, 24.14112], [120.683604, 24.141259], [120.683703, 24.14133], [120.683995, 24.141029], [120.683843, 24.140902], [120.683753, 24.140996], [120.68348, 24.140728], [120.683413, 24.140554], [120.682998, 24.140606], [120.682675, 24.140788], [120.682086, 24.141347], [120.68192, 24.141076], [120.681778, 24.141051], [120.681605, 24.140884], [120.681832, 24.140764], [120.681858, 24.140632], [120.682228, 24.14035], [120.682427, 24.14052], [120.682323, 24.140574], [120.682589, 24.140699], [120.682242, 24.140809], [120.682277, 24.141075], [120.682128, 24.141171], [120.681875, 24.140907], [120.681344, 24.141394], [120.681145, 24.141222], [120.681415, 24.141021], [120.681295, 24.141228], [120.681505, 24.141419], [120.681663, 24.141287], [120.681939, 24.141529], [120.681665, 24.141716], [120.681541, 24.141608], [120.681442, 24.141513], [120.681842, 24.141886], [120.682123, 24.14166], [120.682595, 24.142134], [120.682628, 24.142256], [120.682681, 24.142216], [120.682563, 24.142299], [120.682262, 24.142269], [120.68219, 24.142169], [120.682346, 24.142105], [120.682206, 24.142029], [120.682099, 24.142131], [120.681985, 24.141961], [120.68236, 24.141575], [120.683117, 24.14215], [120.683055, 24.142231], [120.683209, 24.142379], [120.683682, 24.142691], [120.683704, 24.142516], [120.684155, 24.142294], [120.683622, 24.141741], [120.683239, 24.142051], [120.683474, 24.142158], [120.68354, 24.142095], [120.683601, 24.142279], [120.683423, 24.141593], [120.683494, 24.141534], [120.683083, 24.141358], [120.683068, 24.141198], [120.682854, 24.141023], [120.682776, 24.141172], [120.682278, 24.141516], [120.682785, 24.141356], [120.683307, 24.1416], [120.68411, 24.141548], [120.6847, 24.142086], [120.684843, 24.141999], [120.684659, 24.142203], [120.684889, 24.14244], [120.685314, 24.142698], [120.685404, 24.142593], [120.685471, 24.142657], [120.68529, 24.142814], [120.685523, 24.143014], [120.681214, 24.14043], [120.680974, 24.140223], [120.680999, 24.140161], [120.680917, 24.140183], [120.680798, 24.140076], [120.680999, 24.139913], [120.681455, 24.139141], [120.681878, 24.138806], [120.681704, 24.138721], [120.681386, 24.13899], [120.681378, 24.139077], [120.680958, 24.138553], [120.681304, 24.138301], [120.680926, 24.138191], [120.680734, 24.138388], [120.680793, 24.138465], [120.68054, 24.138232], [120.680725, 24.138017], [120.680812, 24.138083], [120.680414, 24.13786], [120.680172, 24.138383], [120.679901, 24.138253], [120.680257, 24.138644], [120.679447, 24.139538], [120.682361, 24.138398]]}}, {"type": "Feature", "properties": {"district": "6600100", "segment": 4, "total_segments": 4, "km": 10.41, "villages": ["繼光里", "綠川里"]}, "geometry": {"type": "LineString", "coordinates": [[120.682361, 24.138398], [120.682522, 24.138235], [120.682015, 24.137822], [120.681704, 24.137936], [120.681979, 24.138115], [120.682042, 24.138055], [120.682047, 24.138217], [120.682302, 24.13845], [120.682242, 24.138476], [120.682465, 24.138706], [120.682638, 24.138727], [120.683002, 24.139214], [120.683258, 24.138988], [120.682968, 24.138774], [120.682737, 24.138465], [120.6825, 24.138599], [120.682703, 24.138684], [120.6823, 24.138846], [120.68228, 24.138973], [120.682364, 24.138964], [120.682566, 24.139205], [120.682755, 24.139302], [120.682763, 24.139413], [120.682557, 24.139589], [120.682042, 24.139021], [120.682254, 24.1388], [120.681947, 24.138646], [120.681881, 24.138474], [120.681644, 24.138309], [120.681499, 24.138083], [120.681379, 24.138216], [120.681664, 24.138488], [120.681916, 24.138184], [120.681935, 24.137701], [120.681678, 24.137611], [120.681724, 24.1375], [120.681284, 24.137132], [120.681231, 24.137006], [120.681044, 24.137196], [120.680942, 24.137198], [120.68115, 24.137389], [120.681294, 24.137309], [120.681261, 24.137389], [120.681436, 24.137473], [120.681338, 24.137585], [120.681274, 24.137522], [120.681521, 24.137688], [120.681243, 24.137818], [120.680805, 24.137401], [120.680626, 24.137685], [120.680881, 24.137925], [120.680908, 24.137656], [120.680521, 24.137615], [120.681109, 24.138081], [120.681276, 24.137949], [120.68236, 24.137947], [120.683394, 24.13929], [120.683252, 24.139395], [120.683373, 24.139563], [120.683704, 24.139864], [120.683919, 24.139737], [120.683764, 24.139724], [120.683557, 24.140038], [120.683039, 24.139627], [120.682796, 24.139797], [120.683266, 24.140283], [120.683562, 24.140098], [120.683743, 24.140241], [120.68347, 24.140498], [120.683647, 24.140513], [120.684001, 24.140835], [120.684032, 24.140986], [120.684257, 24.140771], [120.684317, 24.140837], [120.683792, 24.140257], [120.68418, 24.139887], [120.684348, 24.140022], [120.684111, 24.140242], [120.684416, 24.140592], [120.684484, 24.140635], [120.684734, 24.140399], [120.684515, 24.140212], [120.684357, 24.140323], [120.684575, 24.140338], [120.684426, 24.140096], [120.684038, 24.140174], [120.684106, 24.140639], [120.684685, 24.140828], [120.684971, 24.140542], [120.68499, 24.140772], [120.685084, 24.140847], [120.685229, 24.140674], [120.684872, 24.140958], [120.685122, 24.141043], [120.685026, 24.141161], [120.685325, 24.141252], [120.685479, 24.141388], [120.685558, 24.141118], [120.685325, 24.140943], [120.685395, 24.141603], [120.685529, 24.141596], [120.685511, 24.142248], [120.685472, 24.141684], [120.685273, 24.14165], [120.684958, 24.141939], [120.685258, 24.14175], [120.685569, 24.142356], [120.683397, 24.139401], [120.683433, 24.139329], [120.683477, 24.139222], [120.683823, 24.13891], [120.68389, 24.13903], [120.68364, 24.139218], [120.684064, 24.139607], [120.684306, 24.139405], [120.684208, 24.139324], [120.683969, 24.139692], [120.684259, 24.139809], [120.684597, 24.139597], [120.684556, 24.139563], [120.684789, 24.139783], [120.684681, 24.139794], [120.684486, 24.140003], [120.684391, 24.139856], [120.684665, 24.140177], [120.684649, 24.14008], [120.684848, 24.139901], [120.685066, 24.14008], [120.684875, 24.140272], [120.684818, 24.139873], [120.684585, 24.139752], [120.68478, 24.139485], [120.685359, 24.140037], [120.685471, 24.139969], [120.685651, 24.140037], [120.68563, 24.13989], [120.68547, 24.139794], [120.685347, 24.139882], [120.68523, 24.139767], [120.685553, 24.139447], [120.684988, 24.139186], [120.685633, 24.138593], [120.685911, 24.138977], [120.685874, 24.139601], [120.685531, 24.139317], [120.685775, 24.139113], [120.685585, 24.139], [120.685382, 24.139114], [120.68545, 24.139248], [120.684909, 24.138868], [120.684729, 24.139021], [120.684555, 24.138805], [120.68473, 24.138719], [120.684564, 24.138622], [120.684598, 24.138566], [120.684833, 24.13831], [120.685, 24.13825], [120.684985, 24.138185], [120.685089, 24.138152], [120.685311, 24.138286], [120.685285, 24.138351], [120.685393, 24.138435], [120.685121, 24.138681], [120.685141, 24.138519], [120.685022, 24.138374], [120.684898, 24.138491], [120.68501, 24.13853], [120.684943, 24.138712], [120.684491, 24.138686], [120.684225, 24.138558], [120.684714, 24.137931], [120.685118, 24.137975], [120.685197, 24.138084], [120.685435, 24.1378], [120.685697, 24.13816], [120.685973, 24.138295], [120.685865, 24.138421], [120.686144, 24.138754], [120.686023, 24.138254], [120.686062, 24.13817], [120.68572, 24.13779], [120.685518, 24.137743], [120.685241, 24.137449], [120.685163, 24.136927], [120.68429, 24.136536], [120.683994, 24.13704], [120.68408, 24.137142], [120.684046, 24.137227], [120.683871, 24.137216], [120.683252, 24.137594], [120.682614, 24.13684], [120.682446, 24.136867], [120.682381, 24.13671], [120.682069, 24.136489], [120.682132, 24.136267], [120.682216, 24.136224], [120.682399, 24.136389], [120.682298, 24.136474], [120.682412, 24.136541], [120.682475, 24.136476], [120.682718, 24.136693], [120.682632, 24.136765], [120.682479, 24.136614], [120.682662, 24.136453], [120.682841, 24.1366], [120.683023, 24.136462], [120.682597, 24.136336], [120.682627, 24.136265], [120.682236, 24.136078], [120.681606, 24.136752], [120.681507, 24.136738], [120.681352, 24.136879], [120.681773, 24.137337], [120.681875, 24.137293], [120.681757, 24.137095], [120.681936, 24.13702], [120.681892, 24.136979], [120.682051, 24.137131], [120.681974, 24.13718], [120.682076, 24.137243], [120.681855, 24.137467], [120.682096, 24.137626], [120.682315, 24.137405], [120.682392, 24.137559], [120.682134, 24.137731], [120.682284, 24.137871], [120.682277, 24.13777], [120.682513, 24.137653], [120.682823, 24.137904], [120.682589, 24.138189], [120.682538, 24.138096], [120.682608, 24.13798], [120.682525, 24.137801], [120.682414, 24.137901], [120.682463, 24.137949], [120.682409, 24.137994], [120.682777, 24.138374], [120.683088, 24.138178], [120.683268, 24.138374], [120.683168, 24.13846], [120.683236, 24.138516], [120.68337, 24.138411], [120.683319, 24.138364], [120.683425, 24.138494], [120.683309, 24.138581], [120.683395, 24.138722], [120.683223, 24.138793], [120.683353, 24.138903], [120.683638, 24.13867], [120.683276, 24.138555], [120.68311, 24.138693], [120.683177, 24.138753], [120.682852, 24.138439], [120.682994, 24.138143], [120.683586, 24.137814], [120.683561, 24.137879], [120.683725, 24.138029], [120.683946, 24.137793], [120.683961, 24.137675], [120.683669, 24.137807], [120.683996, 24.138342], [120.684353, 24.137848], [120.68423, 24.137732], [120.684011, 24.138008], [120.684167, 24.137583], [120.684044, 24.137523], [120.684357, 24.137547], [120.683293, 24.136803], [120.682808, 24.136631], [120.683243, 24.136028], [120.682543, 24.135839], [120.682502, 24.135716], [120.681726, 24.136875], [120.681787, 24.136937], [120.681643, 24.136853], [120.684678, 24.139413], [120.6853, 24.140238], [120.685016, 24.14052], [120.685453, 24.140461], [120.685566, 24.140401], [120.685589, 24.140232], [120.685351, 24.140228], [120.685607, 24.140518], [120.685578, 24.141067], [120.685333, 24.140621]]}}]}