{"type": "FeatureCollection", "features": [{"type": "Feature", "properties": {"district": "63000090", "segment": 1, "total_segments": 14, "km": 13.68, "villages": ["三重里"]}, "geometry": {"type": "LineString", "coordinates": [[121.613835, 25.055599], [121.613866, 25.056081], [121.61409, 25.056026], [121.614054, 25.055478], [121.614116, 25.055438], [121.615096, 25.055388], [121.614353, 25.055619], [121.614359, 25.055777], [121.614277, 25.05587], [121.614374, 25.0559], [121.614303, 25.056139], [121.613145, 25.056153], [121.613152, 25.055975], [121.613091, 25.055983], [121.613267, 25.056019], [121.613236, 25.055962], [121.613488, 25.05592], [121.613393, 25.055768], [121.613452, 25.055758], [121.613056, 25.055861], [121.612957, 25.055657], [121.612815, 25.0557], [121.613242, 25.055442], [121.613722, 25.055447], [121.61336, 25.055653], [121.612536, 25.055801], [121.612636, 25.05613], [121.612787, 25.056137], [121.61287, 25.056561], [121.61359, 25.056523], [121.613659, 25.057544], [121.613068, 25.057623], [121.612944, 25.057126], [121.611919, 25.056912], [121.611173, 25.056526], [121.610426, 25.057483], [121.61005, 25.059022], [121.610653, 25.05922], [121.610727, 25.05908], [121.610636, 25.059267], [121.610843, 25.059404], [121.610874, 25.059352], [121.610952, 25.059491], [121.610706, 25.059733], [121.610442, 25.059606], [121.610343, 25.059767], [121.610275, 25.059738], [121.610839, 25.059894], [121.611228, 25.060148], [121.611529, 25.060029], [121.611667, 25.060092], [121.611953, 25.060531], [121.612974, 25.061639], [121.612654, 25.061753], [121.612387, 25.061524], [121.612042, 25.061781], [121.61217, 25.061923], [121.612352, 25.061793], [121.612021, 25.06155], [121.611874, 25.061541], [121.611936, 25.06146], [121.611831, 25.061335], [121.611726, 25.061381], [121.611655, 25.061297], [121.611709, 25.061192], [121.611482, 25.061138], [121.611446, 25.061029], [121.611099, 25.061045], [121.611445, 25.060692], [121.611415, 25.060544], [121.611117, 25.060478], [121.611737, 25.06075], [121.612157, 25.061226], [121.612586, 25.060862], [121.612325, 25.060602], [121.612425, 25.060472], [121.612549, 25.060607], [121.612458, 25.059981], [121.612293, 25.059987], [121.612306, 25.060361], [121.612145, 25.060476], [121.612805, 25.060439], [121.61274, 25.059808], [121.612434, 25.059676], [121.612094, 25.059737], [121.611848, 25.059518], [121.611881, 25.059165], [121.612025, 25.059248], [121.612524, 25.059217], [121.613025, 25.059289], [121.613255, 25.059115], [121.613674, 25.059177], [121.613492, 25.059243], [121.61353, 25.059411], [121.613371, 25.059449], [121.613361, 25.059265], [121.613254, 25.059779], [121.613143, 25.059795], [121.61318, 25.060106], [121.613379, 25.060061], [121.613221, 25.060359], [121.613391, 25.060415], [121.61303, 25.061175], [121.613152, 25.061212], [121.613125, 25.061265], [121.613433, 25.060843], [121.613386, 25.060811], [121.613498, 25.060878], [121.613421, 25.060681], [121.613627, 25.060668], [121.613896, 25.06079], [121.613645, 25.061106], [121.614194, 25.061536], [121.614258, 25.061465], [121.614318, 25.061539], [121.614375, 25.061312], [121.614611, 25.061538], [121.614783, 25.061363], [121.615067, 25.061299], [121.615103, 25.061428], [121.614758, 25.061573], [121.614792, 25.061676], [121.61463, 25.061755], [121.614501, 25.061701], [121.615098, 25.061856], [121.615104, 25.062021], [121.614893, 25.062135], [121.614828, 25.062099], [121.615262, 25.062348], [121.615425, 25.062182], [121.615424, 25.062051], [121.615234, 25.061668], [121.615731, 25.061607], [121.615787, 25.061759], [121.615952, 25.061692], [121.616061, 25.061776], [121.616158, 25.061894], [121.615869, 25.062134], [121.616207, 25.062356], [121.616111, 25.062437], [121.616409, 25.062213], [121.61638, 25.062156], [121.61657, 25.062124], [121.616255, 25.06171], [121.616607, 25.061499], [121.616602, 25.061701], [121.616733, 25.061673], [121.617024, 25.061352], [121.616929, 25.061233], [121.617538, 25.060913], [121.617673, 25.061037], [121.617279, 25.061545], [121.617166, 25.061464], [121.617035, 25.060922], [121.616836, 25.060949], [121.616751, 25.060802], [121.616897, 25.060672], [121.616137, 25.060688], [121.616054, 25.060537], [121.61596, 25.060785], [121.615638, 25.060702], [121.615564, 25.060568], [121.615596, 25.060896], [121.615499, 25.060937], [121.615544, 25.061033], [121.615652, 25.060996], [121.616007, 25.061166], [121.616166, 25.061103], [121.616227, 25.061246], [121.615896, 25.061546], [121.614889, 25.061154], [121.614489, 25.06114], [121.614616, 25.060866], [121.615096, 25.060615], [121.614533, 25.059842], [121.614507, 25.059665], [121.614927, 25.059893], [121.614993, 25.059335], [121.615186, 25.059223], [121.614969, 25.058743], [121.614664, 25.058843], [121.614067, 25.059214], [121.614073, 25.059336], [121.613444, 25.059782], [121.612841, 25.060735], [121.612844, 25.060828], [121.61404, 25.061963], [121.613922, 25.062093], [121.613833, 25.062005], [121.613897, 25.062339], [121.61383, 25.062425], [121.613946, 25.062575], [121.614032, 25.062486], [121.614301, 25.062781], [121.614448, 25.062773], [121.614727, 25.062424], [121.614651, 25.06231], [121.615014, 25.0626], [121.615121, 25.062586], [121.614773, 25.062959], [121.614614, 25.062941], [121.614481, 25.063255], [121.613834, 25.063094], [121.613333, 25.06263], [121.613411, 25.062549], [121.613362, 25.062496], [121.613248, 25.062413], [121.613179, 25.062501], [121.611725, 25.059753], [121.611354, 25.05978], [121.611287, 25.059719], [121.611348, 25.059692], [121.611339, 25.05927], [121.611455, 25.059208], [121.611535, 25.05926], [121.611098, 25.058891], [121.611121, 25.058803], [121.61092, 25.058892], [121.610843, 25.058754], [121.610733, 25.058868], [121.610513, 25.058858], [121.60997, 25.059012], [121.610111, 25.05944], [121.610253, 25.059519], [121.609069, 25.059267], [121.609039, 25.059384], [121.609548, 25.059557], [121.609453, 25.059781], [121.608967, 25.059634], [121.609265, 25.059043], [121.609495, 25.059144], [121.609193, 25.05901], [121.611987, 25.058478], [121.611839, 25.057765], [121.613051, 25.058631], [121.613219, 25.058697], [121.613229, 25.058552], [121.613719, 25.058656], [121.613743, 25.058544], [121.613519, 25.058139], [121.614402, 25.057258], [121.614609, 25.057248], [121.614623, 25.057466], [121.615931, 25.057392], [121.615915, 25.057168], [121.616199, 25.057142], [121.616241, 25.057776], [121.616468, 25.057937], [121.616125, 25.058395], [121.615831, 25.058645], [121.616179, 25.058917], [121.616095, 25.060033], [121.617754, 25.060113], [121.617583, 25.059345], [121.618355, 25.059394], [121.617862, 25.058568], [121.618407, 25.057825], [121.619435, 25.058136], [121.619623, 25.057799], [121.620992, 25.057998], [121.621636, 25.057287], [121.621179, 25.05684], [121.621039, 25.057023], [121.620955, 25.056858], [121.621067, 25.056746], [121.621022, 25.056706], [121.620876, 25.056902], [121.620474, 25.056354], [121.620469, 25.056214], [121.620362, 25.056216], [121.620322, 25.056133], [121.620416, 25.056078], [121.620285, 25.055924], [121.620223, 25.05602], [121.619992, 25.056036], [121.620077, 25.056251], [121.61998, 25.05634], [121.620327, 25.056355], [121.620058, 25.055806], [121.620112, 25.055646], [121.619702, 25.055314], [121.619607, 25.055371], [121.619792, 25.05517], [121.619541, 25.055088], [121.619439, 25.05515], [121.619412, 25.054885], [121.619349, 25.054895], [121.620034, 25.054894], [121.620054, 25.055097], [121.617623, 25.055331], [121.617345, 25.056376], [121.616344, 25.056311], [121.62169, 25.057301], [121.621927, 25.057495], [121.617667, 25.061885], [121.617609, 25.062262]]}}, {"type": "Feature", "properties": {"district": "63000090", "segment": 2, "total_segments": 14, "km": 14.92, "villages": ["南港里", "中南里"]}, "geometry": {"type": "LineString", "coordinates": [[121.615189, 25.055157], [121.61401, 25.055011], [121.613264, 25.055162], [121.613383, 25.054935], [121.613129, 25.054747], [121.613119, 25.054541], [121.613019, 25.054546], [121.61302, 25.054684], [121.613012, 25.054414], [121.612865, 25.054365], [121.613222, 25.05432], [121.613361, 25.054389], [121.61335, 25.054454], [121.613438, 25.054462], [121.613447, 25.054397], [121.613658, 25.054494], [121.613635, 25.054424], [121.613843, 25.054532], [121.613864, 25.054417], [121.613956, 25.0544], [121.614361, 25.054455], [121.614458, 25.054616], [121.614317, 25.054653], [121.614332, 25.054715], [121.613974, 25.054645], [121.614001, 25.054701], [121.61422, 25.054627], [121.614415, 25.054781], [121.614617, 25.054704], [121.614575, 25.054469], [121.614766, 25.054488], [121.614753, 25.054681], [121.614873, 25.054489], [121.613988, 25.054853], [121.613804, 25.054788], [121.613632, 25.05483], [121.613659, 25.054891], [121.613528, 25.054894], [121.61332, 25.054605], [121.613832, 25.054628], [121.613195, 25.054951], [121.612978, 25.055204], [121.612997, 25.055391], [121.612326, 25.055497], [121.611953, 25.055363], [121.610427, 25.055151], [121.610389, 25.055466], [121.611897, 25.055787], [121.611763, 25.055939], [121.610632, 25.055678], [121.610299, 25.055675], [121.610259, 25.055991], [121.610461, 25.055867], [121.610659, 25.055871], [121.610846, 25.056087], [121.611292, 25.056086], [121.611221, 25.056163], [121.610886, 25.056173], [121.610761, 25.056421], [121.610314, 25.056377], [121.611539, 25.056114], [121.612345, 25.055662], [121.612334, 25.055533], [121.612007, 25.055179], [121.612014, 25.055021], [121.611942, 25.055156], [121.611418, 25.055045], [121.611287, 25.055375], [121.61095, 25.054984], [121.609663, 25.054721], [121.610265, 25.05451], [121.610548, 25.054119], [121.610563, 25.054044], [121.6104, 25.054035], [121.610615, 25.053903], [121.610874, 25.054572], [121.610606, 25.054887], [121.612067, 25.05489], [121.61209, 25.054967], [121.612276, 25.054239], [121.61239, 25.054277], [121.608831, 25.054418], [121.608475, 25.054354], [121.608423, 25.05439], [121.608515, 25.054557], [121.607646, 25.054417], [121.607773, 25.054225], [121.608137, 25.054129], [121.60836, 25.054163], [121.608239, 25.054356], [121.608826, 25.054616], [121.608261, 25.05486], [121.606405, 25.054469], [121.606444, 25.055027], [121.607156, 25.055084], [121.607252, 25.055187], [121.607201, 25.055439], [121.607034, 25.055483], [121.606707, 25.05537], [121.606688, 25.055299], [121.606457, 25.055357], [121.606408, 25.05551], [121.606059, 25.055447], [121.605972, 25.055829], [121.606812, 25.055977], [121.606793, 25.056172], [121.607072, 25.055985], [121.607121, 25.055635], [121.606481, 25.055524], [121.60645, 25.055704], [121.606833, 25.055776], [121.607171, 25.054948], [121.606141, 25.055109], [121.606185, 25.055731], [121.606321, 25.055679], [121.605925, 25.056356], [121.605819, 25.056361], [121.605736, 25.056693], [121.605821, 25.056728], [121.605681, 25.056882], [121.605613, 25.057209], [121.606547, 25.057425], [121.606577, 25.057279], [121.605806, 25.057134], [121.605938, 25.05691], [121.606637, 25.057044], [121.606599, 25.057191], [121.606504, 25.057174], [121.606783, 25.057204], [121.606916, 25.056686], [121.606937, 25.056585], [121.606743, 25.056501], [121.606536, 25.056462], [121.606614, 25.056584], [121.606033, 25.056422], [121.606078, 25.056726], [121.60662, 25.056892], [121.606727, 25.05743], [121.606446, 25.057567], [121.605565, 25.057411], [121.605578, 25.057755], [121.605958, 25.057886], [121.606275, 25.057924], [121.606293, 25.057849], [121.60653, 25.057966], [121.606564, 25.057837], [121.606496, 25.058231], [121.605727, 25.058089], [121.605781, 25.057563], [121.606409, 25.058483], [121.60687, 25.058932], [121.607315, 25.05869], [121.607511, 25.058718], [121.607509, 25.058965], [121.607811, 25.05867], [121.608343, 25.058683], [121.608703, 25.058796], [121.608994, 25.059015], [121.609168, 25.058684], [121.606813, 25.058258], [121.607192, 25.056335], [121.607878, 25.05387], [121.607935, 25.053763], [121.608277, 25.053624], [121.607334, 25.053575], [121.607208, 25.05267], [121.607496, 25.052571], [121.607288, 25.051898], [121.606526, 25.051856], [121.606056, 25.052512], [121.607152, 25.050698], [121.607342, 25.050578], [121.608279, 25.052052], [121.609511, 25.051243], [121.61003, 25.051498], [121.609965, 25.052193], [121.609585, 25.052125], [121.609563, 25.051629], [121.608955, 25.052049], [121.608362, 25.053098], [121.610365, 25.052236], [121.611465, 25.052403], [121.611556, 25.052903], [121.611522, 25.05337], [121.611726, 25.053383], [121.611791, 25.053506], [121.611887, 25.053428], [121.611827, 25.053197], [121.611986, 25.053262], [121.612192, 25.053102], [121.611816, 25.053093], [121.611708, 25.053186], [121.612072, 25.053339], [121.612236, 25.053292], [121.612383, 25.053393], [121.612437, 25.053605], [121.612628, 25.053379], [121.612605, 25.05327], [121.612916, 25.053302], [121.612939, 25.053411], [121.613061, 25.053421], [121.612764, 25.053394], [121.612494, 25.053175], [121.612524, 25.052932], [121.612075, 25.052877], [121.615586, 25.053246], [121.615677, 25.053596], [121.615678, 25.054154], [121.615288, 25.054139], [121.615287, 25.05338], [121.615175, 25.053376], [121.615146, 25.053561], [121.615201, 25.053615], [121.615189, 25.05413], [121.614874, 25.053988], [121.614967, 25.053828], [121.614964, 25.05355], [121.614771, 25.053366], [121.614099, 25.053331], [121.614113, 25.053448], [121.613745, 25.053405], [121.613719, 25.053289], [121.614402, 25.053483], [121.61438, 25.053672], [121.614157, 25.053644], [121.614154, 25.05376], [121.614013, 25.053738], [121.614571, 25.05381], [121.614647, 25.053767], [121.614612, 25.053666], [121.614692, 25.053652], [121.614883, 25.054084], [121.614939, 25.054682], [121.615193, 25.054677], [121.615191, 25.054498], [121.615649, 25.05452], [121.615521, 25.054773], [121.615298, 25.054776], [121.615307, 25.054668], [121.615193, 25.054721], [121.615201, 25.054992], [121.615309, 25.055002], [121.615337, 25.055156], [121.615549, 25.055145], [121.615307, 25.054945], [121.6153, 25.05483], [121.613894, 25.053946], [121.612821, 25.053758], [121.613183, 25.053555], [121.613333, 25.053554], [121.613286, 25.053683], [121.613483, 25.05353], [121.613687, 25.053579], [121.613569, 25.053235], [121.613507, 25.053233], [121.61352, 25.052685], [121.613029, 25.052616], [121.613155, 25.052123], [121.613461, 25.051727], [121.613497, 25.051843], [121.613428, 25.051913], [121.613563, 25.051974], [121.613799, 25.051718], [121.614394, 25.051384], [121.614441, 25.051503], [121.614324, 25.051547], [121.614324, 25.051486], [121.614505, 25.051553], [121.614659, 25.051488], [121.614645, 25.051425], [121.614832, 25.051766], [121.614691, 25.051954], [121.614742, 25.052029], [121.614847, 25.051904], [121.615037, 25.052], [121.615193, 25.051954], [121.614912, 25.051694], [121.614891, 25.051821], [121.615071, 25.051616], [121.615135, 25.051339], [121.61529, 25.051325], [121.615125, 25.051229], [121.615021, 25.051278], [121.615048, 25.051567], [121.614873, 25.051525], [121.614458, 25.051233], [121.614322, 25.051302], [121.614267, 25.051058], [121.614335, 25.05103], [121.614182, 25.05116], [121.614111, 25.051076], [121.613989, 25.051084], [121.614056, 25.050957], [121.613814, 25.051095], [121.613614, 25.051887], [121.613481, 25.05204], [121.61352, 25.052092], [121.613457, 25.052139], [121.6134, 25.052072], [121.61331, 25.052177], [121.613189, 25.051869], [121.61377, 25.052364], [121.613763, 25.0527], [121.614739, 25.052864], [121.614881, 25.052704], [121.614808, 25.052612], [121.61519, 25.052553], [121.615169, 25.052391], [121.615192, 25.052299], [121.615279, 25.052287], [121.615284, 25.052165], [121.615073, 25.052206], [121.6151, 25.052307], [121.615285, 25.052381], [121.615289, 25.052646], [121.615196, 25.052635], [121.615358, 25.052738], [121.61572, 25.052675], [121.615801, 25.052358], [121.615752, 25.052344], [121.615677, 25.052786], [121.615569, 25.052772], [121.615629, 25.052936], [121.615303, 25.052921], [121.615828, 25.052263], [121.615806, 25.052049], [121.615601, 25.052145], [121.615515, 25.052094], [121.61551, 25.051983], [121.615339, 25.05194], [121.615403, 25.051786], [121.615216, 25.051853], [121.615583, 25.051354], [121.615494, 25.05136], [121.615456, 25.051668], [121.615582, 25.051969], [121.615753, 25.051934], [121.615377, 25.050948], [121.615624, 25.049207], [121.615096, 25.049093], [121.61464, 25.049262], [121.614413, 25.049139], [121.614365, 25.04931]]}}, {"type": "Feature", "properties": {"district": "63000090", "segment": 3, "total_segments": 14, "km": 14.99, "villages": ["中南里", "新富里", "中研里"]}, "geometry": {"type": "LineString", "coordinates": [[121.612527, 25.049083], [121.612377, 25.049369], [121.611594, 25.048752], [121.611194, 25.047756], [121.611812, 25.047501], [121.610633, 25.049394], [121.609749, 25.050608], [121.610959, 25.052758], [121.611966, 25.053542], [121.609582, 25.0464], [121.615912, 25.049358], [121.615861, 25.049782], [121.615702, 25.050202], [121.615736, 25.050653], [121.615976, 25.05052], [121.61609, 25.04967], [121.616278, 25.05145], [121.616607, 25.051673], [121.616618, 25.051775], [121.616697, 25.051754], [121.616348, 25.05184], [121.616153, 25.051771], [121.615991, 25.051466], [121.615857, 25.051842], [121.616005, 25.052254], [121.616087, 25.052885], [121.615973, 25.053001], [121.615758, 25.052975], [121.615697, 25.053361], [121.615789, 25.054002], [121.615982, 25.054128], [121.616296, 25.054107], [121.616312, 25.054197], [121.61619, 25.053466], [121.616126, 25.053335], [121.615892, 25.053305], [121.616476, 25.053153], [121.616312, 25.052408], [121.616372, 25.052305], [121.616537, 25.052267], [121.616588, 25.052069], [121.616292, 25.052034], [121.616598, 25.051964], [121.616954, 25.052072], [121.617011, 25.052196], [121.61712, 25.052193], [121.617191, 25.052582], [121.617719, 25.052451], [121.617616, 25.052366], [121.617384, 25.052399], [121.617526, 25.052211], [121.617139, 25.051999], [121.617103, 25.052129], [121.616966, 25.051943], [121.61697, 25.052377], [121.616896, 25.052386], [121.616931, 25.052571], [121.617001, 25.052509], [121.617019, 25.052771], [121.616724, 25.052824], [121.616795, 25.052959], [121.616674, 25.052941], [121.616623, 25.053077], [121.6168, 25.053149], [121.616462, 25.053345], [121.616605, 25.054221], [121.616739, 25.054247], [121.616943, 25.054002], [121.617033, 25.054025], [121.616982, 25.054217], [121.617252, 25.054239], [121.617096, 25.053239], [121.617275, 25.053157], [121.617421, 25.054152], [121.61755, 25.054278], [121.617987, 25.054236], [121.617766, 25.05295], [121.617304, 25.053021], [121.617537, 25.053125], [121.617529, 25.052771], [121.617746, 25.052737], [121.61775, 25.052636], [121.617447, 25.052677], [121.617445, 25.052779], [121.617229, 25.052813], [121.617209, 25.052723], [121.617334, 25.052702], [121.617669, 25.052218], [121.617698, 25.053867], [121.61778, 25.053868], [121.617628, 25.054076], [121.617014, 25.053927], [121.616906, 25.053803], [121.616971, 25.053801], [121.616272, 25.05463], [121.615894, 25.054617], [121.615905, 25.054759], [121.615616, 25.054843], [121.615638, 25.054665], [121.615977, 25.054766], [121.616371, 25.054764], [121.616408, 25.055067], [121.615606, 25.055141], [121.61683, 25.054858], [121.618745, 25.054112], [121.616122, 25.048695], [121.616092, 25.047977], [121.6162, 25.047934], [121.61616, 25.047831], [121.616039, 25.047874], [121.615823, 25.04768], [121.615787, 25.047315], [121.615931, 25.04726], [121.61589, 25.047169], [121.615687, 25.047232], [121.615721, 25.047304], [121.61532, 25.046254], [121.615304, 25.046101], [121.615411, 25.045904], [121.615367, 25.04577], [121.615076, 25.045644], [121.615226, 25.045208], [121.614975, 25.045157], [121.614894, 25.045219], [121.614828, 25.045619], [121.614873, 25.045758], [121.615005, 25.045789], [121.61395, 25.04558], [121.613442, 25.045591], [121.613433, 25.045775], [121.613731, 25.045786], [121.613718, 25.045888], [121.613411, 25.045878], [121.613409, 25.046068], [121.613719, 25.046084], [121.613723, 25.046239], [121.612554, 25.046206], [121.61256, 25.045999], [121.613134, 25.046004], [121.613113, 25.045815], [121.612574, 25.045808], [121.612617, 25.045619], [121.613149, 25.045619], [121.614342, 25.045912], [121.614364, 25.045979], [121.614392, 25.045853], [121.614808, 25.046171], [121.614949, 25.046176], [121.614958, 25.045978], [121.614413, 25.04611], [121.614404, 25.046224], [121.614328, 25.046253], [121.613936, 25.04626], [121.613992, 25.04638], [121.61392, 25.046689], [121.614515, 25.046699], [121.614426, 25.046572], [121.614102, 25.046572], [121.614152, 25.04637], [121.61409, 25.046363], [121.614581, 25.046436], [121.614737, 25.046854], [121.613909, 25.046906], [121.613918, 25.046818], [121.613885, 25.047312], [121.614501, 25.047242], [121.614471, 25.047053], [121.614684, 25.047039], [121.614928, 25.047257], [121.615044, 25.04752], [121.614773, 25.047325], [121.614926, 25.047044], [121.615086, 25.047001], [121.615058, 25.046902], [121.614862, 25.046907], [121.61488, 25.046734], [121.615078, 25.046704], [121.615203, 25.046795], [121.615488, 25.047553], [121.615225, 25.047746], [121.615578, 25.047801], [121.615641, 25.047958], [121.61503, 25.048086], [121.615006, 25.047949], [121.614893, 25.047994], [121.614949, 25.048114], [121.614741, 25.047695], [121.614679, 25.047697], [121.614469, 25.047802], [121.61447, 25.04788], [121.61473, 25.048183], [121.614555, 25.04821], [121.614601, 25.048301], [121.614431, 25.048413], [121.614079, 25.048487], [121.614021, 25.048388], [121.614296, 25.048261], [121.614254, 25.048153], [121.613793, 25.048329], [121.61305, 25.048336], [121.613046, 25.048438], [121.613852, 25.048397], [121.613914, 25.048578], [121.613467, 25.048674], [121.612872, 25.048673], [121.61294, 25.04803], [121.613736, 25.048009], [121.613775, 25.048146], [121.61311, 25.048143], [121.613338, 25.04785], [121.613729, 25.047837], [121.613718, 25.04774], [121.613338, 25.047736], [121.613179, 25.047583], [121.613059, 25.047756], [121.613682, 25.047629], [121.614264, 25.047703], [121.614293, 25.047793], [121.614195, 25.04796], [121.613905, 25.048058], [121.613899, 25.047938], [121.614083, 25.047879], [121.614411, 25.048105], [121.614457, 25.047455], [121.614277, 25.047438], [121.614347, 25.047043], [121.614041, 25.04705], [121.614801, 25.046524], [121.614867, 25.046373], [121.614973, 25.046469], [121.615622, 25.046617], [121.616176, 25.046558], [121.616085, 25.046656], [121.616066, 25.047054], [121.615962, 25.047053], [121.615967, 25.046736], [121.615717, 25.046824], [121.615958, 25.047129], [121.616308, 25.046828], [121.616348, 25.046297], [121.616459, 25.046316], [121.616482, 25.046731], [121.617043, 25.046689], [121.617028, 25.046476], [121.616797, 25.046497], [121.616763, 25.046441], [121.61665, 25.046507], [121.616664, 25.046297], [121.616981, 25.046385], [121.617099, 25.046196], [121.617524, 25.045864], [121.617486, 25.045541], [121.617766, 25.045371], [121.61771, 25.045295], [121.617443, 25.045442], [121.617296, 25.045243], [121.617607, 25.045125], [121.617356, 25.045035], [121.616917, 25.045023], [121.616882, 25.045192], [121.617073, 25.045226], [121.617148, 25.045311], [121.61708, 25.045343], [121.616443, 25.045219], [121.616406, 25.045399], [121.616899, 25.045484], [121.616876, 25.045595], [121.616141, 25.04547], [121.616359, 25.045399], [121.616293, 25.045706], [121.616847, 25.045803], [121.616829, 25.04589], [121.616146, 25.045794], [121.616159, 25.045689], [121.616074, 25.045674], [121.616252, 25.045702], [121.615852, 25.045751], [121.61573, 25.045245], [121.615893, 25.044939], [121.615826, 25.04486], [121.61608, 25.044419], [121.616303, 25.044497], [121.616386, 25.044626], [121.616134, 25.044699], [121.616289, 25.044905], [121.616249, 25.044943], [121.615876, 25.045192], [121.615683, 25.045112], [121.615633, 25.045209], [121.615791, 25.044928], [121.615421, 25.044846], [121.615808, 25.044154], [121.615343, 25.044006], [121.615299, 25.044108], [121.615088, 25.04403], [121.615132, 25.043908], [121.61498, 25.044312], [121.615373, 25.044416], [121.615362, 25.045085], [121.614546, 25.045514], [121.613992, 25.045304], [121.613934, 25.046085], [121.614154, 25.046018], [121.61561, 25.046276], [121.615631, 25.046332], [121.615708, 25.046272], [121.616156, 25.046336], [121.615807, 25.046519], [121.615747, 25.046512], [121.617049, 25.045764], [121.617139, 25.045842], [121.617074, 25.045632], [121.617467, 25.045475], [121.616642, 25.045148], [121.616379, 25.044844], [121.616313, 25.044889], [121.617248, 25.044633], [121.616959, 25.044367], [121.617107, 25.044112], [121.617205, 25.044157], [121.617083, 25.043988]]}}, {"type": "Feature", "properties": {"district": "63000090", "segment": 4, "total_segments": 14, "km": 14.97, "villages": ["中研里", "舊莊里"]}, "geometry": {"type": "LineString", "coordinates": [[121.617124, 25.043691], [121.617021, 25.04364], [121.61713, 25.043447], [121.617564, 25.043479], [121.617929, 25.04363], [121.618049, 25.043451], [121.617815, 25.043301], [121.617862, 25.04323], [121.617739, 25.043155], [121.617687, 25.043221], [121.617484, 25.0432], [121.617226, 25.043033], [121.617359, 25.04285], [121.617481, 25.042921], [121.617468, 25.042991], [121.617049, 25.042702], [121.61658, 25.042682], [121.616527, 25.042787], [121.616718, 25.043305], [121.616645, 25.043434], [121.616802, 25.043501], [121.616873, 25.043373], [121.616713, 25.043704], [121.616481, 25.043614], [121.616465, 25.043685], [121.617637, 25.043884], [121.618086, 25.044216], [121.618015, 25.044302], [121.617835, 25.044174], [121.617712, 25.044346], [121.617814, 25.044406], [121.617444, 25.044291], [121.618044, 25.043908], [121.618136, 25.043966], [121.618228, 25.04387], [121.61833, 25.043937], [121.618547, 25.043652], [121.618324, 25.043527], [121.618247, 25.043624], [121.618349, 25.043687], [121.618116, 25.043798], [121.618245, 25.044051], [121.618178, 25.044138], [121.618436, 25.043388], [121.618768, 25.042954], [121.61898, 25.043167], [121.618799, 25.043405], [121.616663, 25.04202], [121.617196, 25.039985], [121.617052, 25.03877], [121.616934, 25.038501], [121.616257, 25.038748], [121.616339, 25.038893], [121.616559, 25.038871], [121.616802, 25.038792], [121.613717, 25.039437], [121.613126, 25.039428], [121.613186, 25.038887], [121.612964, 25.038655], [121.610997, 25.039249], [121.610087, 25.039671], [121.610504, 25.040976], [121.611394, 25.041961], [121.617669, 25.041943], [121.618085, 25.041556], [121.618737, 25.041146], [121.618795, 25.041222], [121.618737, 25.041264], [121.618806, 25.041098], [121.61914, 25.040853], [121.619168, 25.040966], [121.619335, 25.040694], [121.619162, 25.04062], [121.617897, 25.041525], [121.618147, 25.041824], [121.617839, 25.042055], [121.618088, 25.042219], [121.618343, 25.041961], [121.618895, 25.042266], [121.618828, 25.042346], [121.619029, 25.042461], [121.619546, 25.042736], [121.619601, 25.042643], [121.618998, 25.042319], [121.618772, 25.04232], [121.618554, 25.042204], [121.618373, 25.042164], [121.61822, 25.042322], [121.619106, 25.042953], [121.619683, 25.042687], [121.619821, 25.042455], [121.619143, 25.042092], [121.619205, 25.042003], [121.619902, 25.042381], [121.62002, 25.042175], [121.619334, 25.0418], [121.61938, 25.041696], [121.619112, 25.041555], [121.619054, 25.041651], [121.618952, 25.041594], [121.619222, 25.041746], [121.619457, 25.041736], [121.620103, 25.042054], [121.619873, 25.04166], [121.619458, 25.041346], [121.619833, 25.041172], [121.619833, 25.040969], [121.619951, 25.040886], [121.619999, 25.041161], [121.619693, 25.04088], [121.619498, 25.040998], [121.618893, 25.040383], [121.618828, 25.040425], [121.618914, 25.04052], [121.618738, 25.040286], [121.619575, 25.040269], [121.620567, 25.040069], [121.620832, 25.039844], [121.620876, 25.039902], [121.620998, 25.03983], [121.620953, 25.039776], [121.620909, 25.039801], [121.621133, 25.039753], [121.621085, 25.039701], [121.621161, 25.039658], [121.621385, 25.039608], [121.621339, 25.039557], [121.6212, 25.039714], [121.621274, 25.039852], [121.620699, 25.040182], [121.620732, 25.040285], [121.620635, 25.040341], [121.620732, 25.040545], [121.620787, 25.040427], [121.621273, 25.040145], [121.621177, 25.040024], [121.620798, 25.040246], [121.620813, 25.039941], [121.620681, 25.039748], [121.620623, 25.039782], [121.621242, 25.039417], [121.62114, 25.039288], [121.620643, 25.039561], [121.620503, 25.039854], [121.621339, 25.039815], [121.622022, 25.039407], [121.622087, 25.039515], [121.622405, 25.039362], [121.622413, 25.039441], [121.622605, 25.03941], [121.622677, 25.039531], [121.622108, 25.039668], [121.621798, 25.039298], [121.621596, 25.039487], [121.621507, 25.039457], [121.62152, 25.039531], [121.621396, 25.039326], [121.621715, 25.039151], [121.622075, 25.038819], [121.622027, 25.038702], [121.621847, 25.038778], [121.621754, 25.038515], [121.621586, 25.038437], [121.621559, 25.038582], [121.621658, 25.038834], [121.62141, 25.038876], [121.62121, 25.038367], [121.62152, 25.038249], [121.622508, 25.038235], [121.622434, 25.038054], [121.622296, 25.038], [121.622136, 25.038116], [121.62187, 25.038038], [121.621402, 25.038044], [121.621494, 25.037892], [121.621955, 25.037888], [121.621994, 25.037698], [121.621548, 25.037697], [121.621613, 25.037556], [121.622167, 25.037554], [121.621756, 25.037392], [121.621762, 25.037317], [121.621264, 25.037773], [121.620912, 25.037775], [121.620707, 25.037606], [121.62085, 25.037027], [121.620821, 25.036678], [121.620666, 25.036646], [121.620677, 25.03681], [121.620623, 25.036442], [121.62048, 25.036427], [121.620333, 25.036519], [121.622814, 25.037539], [121.623258, 25.037145], [121.623271, 25.037264], [121.623144, 25.037376], [121.623341, 25.037519], [121.623481, 25.037394], [121.623552, 25.037486], [121.623049, 25.037938], [121.622998, 25.037827], [121.623266, 25.037587], [121.623682, 25.037379], [121.623744, 25.037418], [121.62384, 25.037271], [121.624108, 25.037302], [121.623997, 25.037125], [121.623626, 25.037144], [121.623535, 25.03724], [121.62357, 25.037279], [121.623704, 25.03696], [121.623791, 25.036959], [121.623807, 25.036799], [121.623648, 25.036786], [121.623658, 25.036677], [121.623863, 25.03669], [121.62398, 25.036813], [121.623813, 25.036485], [121.623259, 25.036444], [121.62329, 25.036347], [121.623238, 25.036344], [121.6238, 25.036381], [121.623817, 25.036188], [121.623595, 25.03617], [121.623595, 25.036068], [121.623828, 25.036081], [121.623846, 25.035919], [121.623576, 25.035911], [121.623666, 25.035802], [121.623617, 25.035655], [121.623443, 25.035631], [121.62342, 25.036058], [121.623481, 25.03616], [121.623294, 25.036145], [121.623313, 25.036654], [121.623541, 25.036669], [121.623276, 25.036774], [121.624134, 25.037622], [121.624028, 25.037718], [121.624197, 25.037751], [121.624484, 25.037532], [121.624716, 25.037698], [121.624724, 25.037196], [121.625626, 25.037706], [121.626111, 25.037081], [121.626603, 25.037429], [121.627577, 25.036989], [121.628401, 25.036398], [121.628548, 25.036373], [121.62861, 25.03625], [121.628538, 25.036495], [121.629643, 25.035879], [121.629629, 25.035614], [121.629822, 25.035486], [121.629721, 25.035394], [121.629479, 25.035239], [121.629014, 25.035197], [121.628557, 25.034987], [121.629466, 25.034516], [121.629804, 25.034742], [121.62978, 25.03489], [121.630019, 25.035004], [121.630098, 25.03487], [121.630661, 25.034923], [121.630618, 25.034665], [121.630111, 25.034631], [121.629817, 25.033851], [121.630201, 25.033253], [121.631573, 25.03307], [121.631995, 25.032785], [121.631091, 25.03213], [121.632854, 25.030396], [121.631497, 25.029781], [121.633262, 25.027995], [121.633131, 25.027865], [121.633597, 25.027695], [121.63358, 25.027609], [121.633311, 25.027547], [121.633538, 25.027357], [121.634817, 25.026719], [121.638355, 25.030003], [121.638841, 25.03013], [121.638229, 25.030409], [121.638192, 25.030679], [121.638316, 25.030539], [121.638304, 25.031384], [121.637781, 25.03138], [121.637261, 25.031736], [121.638436, 25.032772], [121.637334, 25.033727], [121.636434, 25.034062], [121.635831, 25.034077], [121.634927, 25.034414], [121.634803, 25.034667], [121.63398, 25.034542], [121.634077, 25.034207], [121.633989, 25.034153], [121.63417, 25.034034], [121.634414, 25.033983], [121.633593, 25.035315], [121.633262, 25.035388], [121.633194, 25.035503], [121.63291, 25.035569], [121.63305, 25.035059], [121.633124, 25.035057], [121.632754, 25.035069], [121.632449, 25.034961], [121.632308, 25.034983], [121.632352, 25.035077], [121.632165, 25.035083], [121.632013, 25.034872], [121.631761, 25.034772], [121.63164, 25.03489], [121.631622, 25.035163]]}}, {"type": "Feature", "properties": {"district": "63000090", "segment": 5, "total_segments": 14, "km": 14.93, "villages": ["舊莊里"]}, "geometry": {"type": "LineString", "coordinates": [[121.631213, 25.034977], [121.630794, 25.035186], [121.631552, 25.034846], [121.631834, 25.035063], [121.63192, 25.035053], [121.631952, 25.035161], [121.634055, 25.03214], [121.636132, 25.033036], [121.63984, 25.031348], [121.639951, 25.03077], [121.639559, 25.029975], [121.642884, 25.029487], [121.643084, 25.029619], [121.643973, 25.029626], [121.643984, 25.029758], [121.643458, 25.030205], [121.643262, 25.030293], [121.644127, 25.029553], [121.645442, 25.0291], [121.646398, 25.027714], [121.6463, 25.027563], [121.646565, 25.027615], [121.646325, 25.027156], [121.646523, 25.026908], [121.646805, 25.026942], [121.648177, 25.027939], [121.649478, 25.026391], [121.649239, 25.026199], [121.649918, 25.026653], [121.651832, 25.026865], [121.653285, 25.026893], [121.653493, 25.026704], [121.654494, 25.027249], [121.65814, 25.026846], [121.658226, 25.027862], [121.65944, 25.028312], [121.660652, 25.026331], [121.661422, 25.026809], [121.661374, 25.02595], [121.661712, 25.024654], [121.661639, 25.024507], [121.66178, 25.024398], [121.661925, 25.024703], [121.662662, 25.024729], [121.664012, 25.02545], [121.662971, 25.026688], [121.663648, 25.027547], [121.664031, 25.027424], [121.659465, 25.025619], [121.658985, 25.025531], [121.659493, 25.024629], [121.65949, 25.024495], [121.659331, 25.024363], [121.659052, 25.024337], [121.647732, 25.02461], [121.628846, 25.026372], [121.627919, 25.022721], [121.628028, 25.022696], [121.627788, 25.021595], [121.623963, 25.022831], [121.623122, 25.022622], [121.623973, 25.023764], [121.623915, 25.024303], [121.624127, 25.0254], [121.623728, 25.025355], [121.623851, 25.025717], [121.622017, 25.025044], [121.62157, 25.024964], [121.621409, 25.025062], [121.619898, 25.022369], [121.620654, 25.021744], [121.622112, 25.019317], [121.622261, 25.018801], [121.621998, 25.018773], [121.622949, 25.017607], [121.622002, 25.028951], [121.621847, 25.028991], [121.624843, 25.033991], [121.623315, 25.034793], [121.623894, 25.035741], [121.624739, 25.035853], [121.623803, 25.037923], [121.623538, 25.038165], [121.623483, 25.039099], [121.623219, 25.039279], [121.622452, 25.039279], [121.622346, 25.039167], [121.622404, 25.039123], [121.622197, 25.039282], [121.621922, 25.0392], [121.621915, 25.039291], [121.622253, 25.038958], [121.622423, 25.038526], [121.622533, 25.038491]]}}, {"type": "Feature", "properties": {"district": "63000090", "segment": 6, "total_segments": 14, "km": 14.9, "villages": ["舊莊里", "九如里"]}, "geometry": {"type": "LineString", "coordinates": [[121.622619, 25.03972], [121.622401, 25.039761], [121.621337, 25.03918], [121.621184, 25.039258], [121.621167, 25.040441], [121.620814, 25.040901], [121.620643, 25.040637], [121.619103, 25.04195], [121.618749, 25.041754], [121.618708, 25.041854], [121.619028, 25.042032], [121.618651, 25.041821], [121.618479, 25.041573], [121.618182, 25.041798], [121.616525, 25.038498], [121.616642, 25.03845], [121.616597, 25.038293], [121.616225, 25.03844], [121.616167, 25.03833], [121.616593, 25.038152], [121.616504, 25.038008], [121.616086, 25.038181], [121.616025, 25.038059], [121.61662, 25.037814], [121.616577, 25.037981], [121.616858, 25.038038], [121.61687, 25.038366], [121.616296, 25.038599], [121.616007, 25.03793], [121.616643, 25.037607], [121.616613, 25.037491], [121.616721, 25.037507], [121.616814, 25.037388], [121.616914, 25.037452], [121.616762, 25.037355], [121.616886, 25.037237], [121.616812, 25.037191], [121.617108, 25.037245], [121.617182, 25.037516], [121.617111, 25.037454], [121.617226, 25.037301], [121.617196, 25.036979], [121.617089, 25.036827], [121.617367, 25.036704], [121.617391, 25.036556], [121.617261, 25.036551], [121.617226, 25.036316], [121.617385, 25.036257], [121.617446, 25.036402], [121.617372, 25.036385], [121.617568, 25.036338], [121.617594, 25.036533], [121.617828, 25.036582], [121.617623, 25.036825], [121.61735, 25.036838], [121.617378, 25.037511], [121.617215, 25.037718], [121.617272, 25.037811], [121.61711, 25.038027], [121.616869, 25.037966], [121.616901, 25.037668], [121.61754, 25.037404], [121.617612, 25.037043], [121.617912, 25.036943], [121.617871, 25.036226], [121.617554, 25.036296], [121.61743, 25.035967], [121.617245, 25.036126], [121.61722, 25.036067], [121.617028, 25.036128], [121.617105, 25.036668], [121.617284, 25.036184], [121.616997, 25.035624], [121.617378, 25.035496], [121.617563, 25.03582], [121.617751, 25.0359], [121.617886, 25.035257], [121.618222, 25.035208], [121.617894, 25.034867], [121.617991, 25.034782], [121.617815, 25.034936], [121.61767, 25.034764], [121.617886, 25.034579], [121.616705, 25.034449], [121.616682, 25.034348], [121.616267, 25.034514], [121.616151, 25.034824], [121.616346, 25.034921], [121.616256, 25.035276], [121.615657, 25.035419], [121.61558, 25.035246], [121.615908, 25.035135], [121.615963, 25.033979], [121.615236, 25.03499], [121.614929, 25.035099], [121.614987, 25.035339], [121.615345, 25.035215], [121.615471, 25.035558], [121.615342, 25.035604], [121.615397, 25.035777], [121.61552, 25.035735], [121.615599, 25.036068], [121.615487, 25.036108], [121.615585, 25.036342], [121.616667, 25.035893], [121.616575, 25.035723], [121.616435, 25.035772], [121.616298, 25.035464], [121.616449, 25.035412], [121.616547, 25.036204], [121.615963, 25.036418], [121.615498, 25.036972], [121.615334, 25.036935], [121.615309, 25.037023], [121.614544, 25.036863], [121.61454, 25.036755], [121.614856, 25.03682], [121.614863, 25.036704], [121.61474, 25.036674], [121.614786, 25.036601], [121.61463, 25.036566], [121.614635, 25.036654], [121.614531, 25.036539], [121.614196, 25.036498], [121.614083, 25.036414], [121.613993, 25.036482], [121.613971, 25.036383], [121.613881, 25.036455], [121.613798, 25.036351], [121.613496, 25.036325], [121.613345, 25.036159], [121.613231, 25.036218], [121.612621, 25.035824], [121.612519, 25.035947], [121.61275, 25.036074], [121.612665, 25.03621], [121.612384, 25.036062], [121.612358, 25.036186], [121.612611, 25.036324], [121.612548, 25.036461], [121.61223, 25.036294], [121.612142, 25.036381], [121.612482, 25.036568], [121.613293, 25.036277], [121.613447, 25.036452], [121.613563, 25.036129], [121.613743, 25.036121], [121.614142, 25.036227], [121.614257, 25.036342], [121.614894, 25.036492], [121.614876, 25.036624], [121.615009, 25.036858], [121.615238, 25.036905], [121.615099, 25.036707], [121.614955, 25.037208], [121.614553, 25.037141], [121.614391, 25.037103], [121.614423, 25.03673], [121.614138, 25.03667], [121.614125, 25.036762], [121.614277, 25.036791], [121.614195, 25.03707], [121.613952, 25.037024], [121.61398, 25.036932], [121.61413, 25.036966], [121.614099, 25.037162], [121.613755, 25.037288], [121.613559, 25.036972], [121.613721, 25.036974], [121.613751, 25.036887], [121.613843, 25.036907], [121.613822, 25.036999], [121.613657, 25.036868], [121.6138, 25.036687], [121.613954, 25.036633], [121.613874, 25.036615], [121.614519, 25.037007], [121.615142, 25.037161], [121.615597, 25.037059], [121.615752, 25.037297], [121.615632, 25.037508], [121.613965, 25.035573], [121.61377, 25.035641], [121.613713, 25.035521], [121.613566, 25.035496], [121.613509, 25.035675], [121.613592, 25.035687], [121.613379, 25.035586], [121.61342, 25.035523], [121.613356, 25.035489], [121.61324, 25.035518], [121.613226, 25.035355], [121.613729, 25.035245], [121.613889, 25.035063], [121.613982, 25.035096], [121.613999, 25.034973], [121.613647, 25.034661], [121.613561, 25.034758], [121.613464, 25.034629], [121.613232, 25.034731], [121.613342, 25.034412], [121.613416, 25.034409], [121.613235, 25.034436], [121.613562, 25.034532], [121.613719, 25.034382], [121.613819, 25.034408], [121.614, 25.034594], [121.614281, 25.03471], [121.614162, 25.035226], [121.614029, 25.035264], [121.613936, 25.035444], [121.614311, 25.035273], [121.614575, 25.034713], [121.61367, 25.034882], [121.613614, 25.034818], [121.613349, 25.034915], [121.613326, 25.034999], [121.613206, 25.034943], [121.613256, 25.035207], [121.613604, 25.035111], [121.613619, 25.034294], [121.613505, 25.034127], [121.613187, 25.033968], [121.6132, 25.033901], [121.612842, 25.033645], [121.612882, 25.033503], [121.613436, 25.033802], [121.613443, 25.03389], [121.613716, 25.034127], [121.611354, 25.034375], [121.611248, 25.034035], [121.610914, 25.033781], [121.610291, 25.033988], [121.610577, 25.03376], [121.610616, 25.033359], [121.611061, 25.033497], [121.611741, 25.033195], [121.609915, 25.033595], [121.609624, 25.033557], [121.609718, 25.033133], [121.60943, 25.033623], [121.609637, 25.033768], [121.609517, 25.034049], [121.60936, 25.034131], [121.60904, 25.033666], [121.609153, 25.033501], [121.608738, 25.033988], [121.608738, 25.034404], [121.607411, 25.03154], [121.607962, 25.030663], [121.608949, 25.030238], [121.609158, 25.030357], [121.609254, 25.03022], [121.610279, 25.031021], [121.610366, 25.031221], [121.614037, 25.032368], [121.614863, 25.030264], [121.614134, 25.028849], [121.615454, 25.027971], [121.615769, 25.027931], [121.615763, 25.027841], [121.617506, 25.028005], [121.61751, 25.027906], [121.617592, 25.028107], [121.617675, 25.028119], [121.617085, 25.028229], [121.617258, 25.027635], [121.617226, 25.027027], [121.618051, 25.026624], [121.617736, 25.025956], [121.61604, 25.0248], [121.615694, 25.025372], [121.61521, 25.025916], [121.61469, 25.025936], [121.614056, 25.026767], [121.613565, 25.026463], [121.613082, 25.026558], [121.613416, 25.025924], [121.613828, 25.02575], [121.612022, 25.028122], [121.611773, 25.028189], [121.608657, 25.027953], [121.607802, 25.028375], [121.60801, 25.028749], [121.607258, 25.02832], [121.60551, 25.028236], [121.605413, 25.02834], [121.605144, 25.028268], [121.605185, 25.028117], [121.604704, 25.026993], [121.606314, 25.026562], [121.607605, 25.024267], [121.60844, 25.024211], [121.60868, 25.023894], [121.609337, 25.023631], [121.608111, 25.023155], [121.606865, 25.021985], [121.606729, 25.022069], [121.606275, 25.021758], [121.605755, 25.021837]]}}, {"type": "Feature", "properties": {"district": "63000090", "segment": 7, "total_segments": 14, "km": 12.75, "villages": ["九如里"]}, "geometry": {"type": "LineString", "coordinates": [[121.605576, 25.023004], [121.604482, 25.023576], [121.605011, 25.02411], [121.604161, 25.024608], [121.602514, 25.025036], [121.602424, 25.025237], [121.602095, 25.025178], [121.6019, 25.02543], [121.602424, 25.024066], [121.601445, 25.024375], [121.600842, 25.023692], [121.599969, 25.024626], [121.60021, 25.024903], [121.599538, 25.025062], [121.599214, 25.024668], [121.599199, 25.024246], [121.599438, 25.025623], [121.599599, 25.025839], [121.599961, 25.02604], [121.600145, 25.025986], [121.60024, 25.02604], [121.601527, 25.027534], [121.600534, 25.029305], [121.600604, 25.029488], [121.597941, 25.029298], [121.594798, 25.029356], [121.594603, 25.029615], [121.593276, 25.029609], [121.591877, 25.029113], [121.595313, 25.026942], [121.595479, 25.026993], [121.596981, 25.024559], [121.597493, 25.024581], [121.597754, 25.024878], [121.597444, 25.023828], [121.596935, 25.023698], [121.59691, 25.023462], [121.597049, 25.023383], [121.596631, 25.02342], [121.596656, 25.023815], [121.596936, 25.022945], [121.596603, 25.022168], [121.596223, 25.021776], [121.595863, 25.021913], [121.596824, 25.019789], [121.596203, 25.019234], [121.595507, 25.019159], [121.595187, 25.019657], [121.59471, 25.019581], [121.594716, 25.019453], [121.594326, 25.01947], [121.594108, 25.019121], [121.594286, 25.019079], [121.59383, 25.019065], [121.593482, 25.0192], [121.593429, 25.019255], [121.593532, 25.019295], [121.593369, 25.01935], [121.591762, 25.017662], [121.591292, 25.017329], [121.591008, 25.0176], [121.590531, 25.017237], [121.590085, 25.017478], [121.58773, 25.015815], [121.587994, 25.015334], [121.587897, 25.01517], [121.586627, 25.015247], [121.585439, 25.01506], [121.585076, 25.014775], [121.584084, 25.015935], [121.583267, 25.013805], [121.583217, 25.013427], [121.581662, 25.013397], [121.581009, 25.012873], [121.589746, 25.021366], [121.59024, 25.021632], [121.586646, 25.026721], [121.606985, 25.030081], [121.617026, 25.031589], [121.618894, 25.029173], [121.620014, 25.02642], [121.619937, 25.026218]]}}, {"type": "Feature", "properties": {"district": "63000090", "segment": 8, "total_segments": 14, "km": 14.94, "villages": ["仁福里", "百福里", "成福里"]}, "geometry": {"type": "LineString", "coordinates": [[121.594179, 25.038077], [121.594072, 25.038492], [121.59382, 25.038784], [121.593678, 25.038684], [121.593738, 25.038573], [121.593579, 25.038863], [121.593645, 25.038912], [121.593576, 25.039002], [121.593718, 25.039102], [121.593795, 25.039011], [121.593431, 25.03876], [121.593156, 25.038681], [121.593198, 25.03857], [121.593043, 25.038512], [121.593155, 25.038339], [121.592986, 25.038281], [121.592899, 25.038588], [121.592983, 25.038621], [121.592857, 25.038694], [121.592692, 25.038641], [121.592734, 25.038535], [121.593042, 25.039143], [121.593103, 25.039489], [121.593188, 25.039491], [121.593183, 25.039602], [121.593376, 25.039595], [121.593372, 25.03949], [121.593236, 25.039139], [121.592801, 25.039141], [121.592927, 25.039493], [121.592681, 25.039491], [121.592689, 25.039932], [121.592921, 25.039938], [121.592888, 25.040042], [121.593081, 25.040071], [121.5931, 25.03993], [121.59247, 25.039477], [121.592235, 25.039479], [121.592236, 25.03896], [121.591966, 25.038964], [121.591968, 25.039076], [121.592036, 25.039075], [121.591735, 25.039077], [121.591771, 25.039486], [121.59158, 25.039354], [121.591339, 25.039907], [121.59158, 25.039905], [121.591579, 25.040024], [121.591918, 25.040001], [121.591892, 25.039824], [121.59206, 25.039791], [121.592125, 25.039941], [121.591808, 25.040372], [121.591488, 25.040457], [121.591435, 25.040943], [121.591568, 25.040912], [121.591462, 25.041075], [121.59103, 25.040897], [121.590902, 25.040917], [121.590872, 25.040752], [121.591061, 25.040753], [121.591073, 25.040344], [121.59126, 25.040337], [121.591251, 25.040135], [121.591426, 25.040262], [121.591631, 25.040258], [121.591687, 25.040578], [121.591286, 25.04046], [121.591003, 25.041077], [121.592031, 25.039594], [121.592039, 25.039477], [121.592469, 25.03919], [121.591538, 25.039076], [121.591426, 25.037473], [121.592153, 25.037434], [121.592111, 25.037556], [121.592241, 25.037604], [121.591929, 25.037752], [121.591858, 25.036793], [121.592182, 25.036709], [121.592078, 25.036795], [121.592256, 25.036509], [121.591888, 25.0364], [121.59178, 25.03597], [121.592252, 25.03574], [121.592295, 25.035654], [121.592773, 25.03695], [121.593808, 25.037706], [121.590891, 25.036613], [121.590809, 25.036748], [121.590573, 25.036566], [121.590269, 25.036599], [121.590842, 25.036375], [121.590926, 25.035805], [121.590572, 25.037211], [121.590301, 25.037481], [121.590511, 25.03768], [121.590299, 25.038065], [121.590073, 25.038125], [121.589886, 25.037867], [121.589797, 25.037925], [121.590079, 25.038281], [121.590259, 25.038325], [121.590251, 25.038443], [121.589917, 25.038357], [121.589677, 25.038044], [121.589573, 25.038137], [121.589762, 25.038494], [121.590116, 25.038589], [121.590042, 25.038706], [121.589122, 25.038463], [121.589153, 25.038334], [121.589596, 25.03845], [121.589528, 25.038787], [121.589995, 25.038889], [121.589598, 25.039345], [121.589509, 25.039133], [121.589125, 25.039031], [121.589135, 25.038943], [121.589052, 25.038923], [121.588908, 25.039101], [121.589404, 25.039241], [121.589328, 25.039356], [121.588698, 25.039167], [121.588559, 25.039231], [121.587798, 25.039027], [121.58785, 25.038926], [121.588478, 25.0391], [121.588548, 25.038992], [121.588763, 25.03905], [121.588784, 25.038763], [121.588873, 25.038787], [121.588902, 25.038695], [121.588813, 25.038672], [121.588908, 25.038372], [121.588997, 25.038396], [121.588994, 25.038328], [121.588939, 25.038578], [121.589388, 25.038747], [121.589343, 25.038858], [121.589, 25.038769], [121.588964, 25.03889], [121.588595, 25.038838], [121.588683, 25.038562], [121.588585, 25.038535], [121.588651, 25.038399], [121.58831, 25.039394], [121.587721, 25.039234], [121.587649, 25.039388], [121.589053, 25.039756], [121.589107, 25.03985], [121.588962, 25.040026], [121.588751, 25.039987], [121.588773, 25.03991], [121.588645, 25.039982], [121.588638, 25.040052], [121.588827, 25.040098], [121.588782, 25.040215], [121.588487, 25.040693], [121.587965, 25.041213], [121.587781, 25.041111], [121.587885, 25.040922], [121.587766, 25.040878], [121.587592, 25.041182], [121.58765, 25.041212], [121.587251, 25.041008], [121.587222, 25.041146], [121.587737, 25.041413], [121.587494, 25.041654], [121.587411, 25.041589], [121.587299, 25.041638], [121.58689, 25.041561], [121.587049, 25.041085], [121.587017, 25.040816], [121.587259, 25.040196], [121.587156, 25.040163], [121.587127, 25.040004], [121.587189, 25.039781], [121.587364, 25.039804], [121.587294, 25.040059], [121.587555, 25.040262], [121.587449, 25.040325], [121.587581, 25.040476], [121.587457, 25.040585], [121.587519, 25.040641], [121.587273, 25.04053], [121.587534, 25.03985], [121.587816, 25.039944], [121.58788, 25.039838], [121.587541, 25.039713], [121.58757, 25.039611], [121.587924, 25.039694], [121.588093, 25.039906], [121.588508, 25.040009], [121.588622, 25.039911], [121.588518, 25.040152], [121.588612, 25.040188], [121.588188, 25.040509], [121.588401, 25.040552], [121.588261, 25.040683], [121.58812, 25.040656], [121.588129, 25.040745], [121.587988, 25.040775], [121.58789, 25.040737], [121.587945, 25.040685], [121.587818, 25.040676], [121.588384, 25.040125], [121.587968, 25.040085], [121.58791, 25.040125], [121.587968, 25.040308], [121.587797, 25.04036], [121.587714, 25.040099], [121.587561, 25.040053], [121.588379, 25.039412], [121.589327, 25.039639], [121.589475, 25.039028], [121.589561, 25.03905], [121.589602, 25.038925], [121.589434, 25.038881], [121.589388, 25.039006], [121.589228, 25.038966], [121.589534, 25.038082], [121.590107, 25.037835], [121.590141, 25.037758], [121.590225, 25.037792], [121.587306, 25.041473], [121.587129, 25.041413], [121.587624, 25.041819], [121.587444, 25.042056], [121.587674, 25.042088], [121.587852, 25.042233], [121.587933, 25.042118], [121.58776, 25.042014], [121.587866, 25.041824], [121.587935, 25.041857], [121.588107, 25.041976], [121.587991, 25.042144], [121.588031, 25.042285], [121.58841, 25.042828], [121.588517, 25.04277], [121.588416, 25.042623], [121.588511, 25.04253], [121.588777, 25.042766], [121.588128, 25.043115], [121.588271, 25.043218], [121.588171, 25.043287], [121.588224, 25.043352], [121.588633, 25.043149], [121.588534, 25.043089], [121.588354, 25.043178], [121.588463, 25.043394], [121.589005, 25.043134], [121.589028, 25.043277], [121.588422, 25.043579], [121.588318, 25.043467], [121.588382, 25.043435], [121.588641, 25.043631], [121.58914, 25.043387], [121.589242, 25.043468], [121.58863, 25.043777], [121.588598, 25.043682], [121.588546, 25.043707], [121.588722, 25.043107], [121.588931, 25.043003], [121.588865, 25.042923], [121.588661, 25.043023], [121.588923, 25.042894], [121.588245, 25.042007], [121.588462, 25.041769], [121.588157, 25.041546], [121.587962, 25.041703], [121.588059, 25.041799], [121.588127, 25.041747], [121.588214, 25.04181], [121.588148, 25.041865], [121.588539, 25.041825], [121.58869, 25.041935], [121.588517, 25.042067], [121.5886, 25.04215], [121.588271, 25.042425], [121.587972, 25.042516], [121.587937, 25.04247], [121.588255, 25.042906], [121.587748, 25.042401], [121.58751, 25.042314], [121.587146, 25.043106], [121.586901, 25.043052], [121.586755, 25.043423], [121.586772, 25.04358], [121.586925, 25.04354], [121.587024, 25.04363], [121.586904, 25.043729], [121.586926, 25.043953], [121.587027, 25.044074], [121.58724, 25.044013], [121.587161, 25.044113], [121.586941, 25.044101], [121.586872, 25.044305], [121.586737, 25.043742], [121.587369, 25.04394], [121.587341, 25.043617], [121.58724, 25.0435], [121.587108, 25.043573], [121.58722, 25.043423], [121.587053, 25.043383], [121.586938, 25.042975], [121.587249, 25.042371], [121.587526, 25.042581], [121.587456, 25.042779], [121.587798, 25.04161], [121.588241, 25.041153], [121.588537, 25.041318], [121.588289, 25.041392], [121.588924, 25.041841], [121.588781, 25.041847], [121.588611, 25.041725], [121.588794, 25.041496], [121.588709, 25.041435], [121.589103, 25.041715], [121.589084, 25.041523], [121.589273, 25.041591], [121.589386, 25.041305], [121.58944, 25.041338], [121.589492, 25.041254], [121.58935, 25.041166], [121.589542, 25.040971], [121.589623, 25.041023], [121.589566, 25.041095], [121.5897, 25.040888], [121.589008, 25.040274], [121.589074, 25.040169], [121.589339, 25.040354], [121.589421, 25.040264], [121.589281, 25.040103], [121.589326, 25.040043], [121.589243, 25.03998], [121.5892, 25.04004], [121.589323, 25.039892], [121.589391, 25.039944], [121.589618, 25.039583], [121.589705, 25.039626], [121.589635, 25.039523], [121.589909, 25.039198], [121.589861, 25.03963], [121.59048, 25.038868], [121.590371, 25.03865], [121.591298, 25.038243], [121.591404, 25.038521], [121.591254, 25.038592], [121.5913, 25.038709], [121.591469, 25.038674], [121.591226, 25.038452], [121.591247, 25.037651], [121.588808, 25.040575], [121.589039, 25.040722], [121.589126, 25.04061], [121.589041, 25.040548], [121.588795, 25.040837], [121.588725, 25.040791], [121.589077, 25.041132], [121.588865, 25.041388], [121.588972, 25.041437], [121.589145, 25.041349], [121.58926, 25.041379], [121.589657, 25.04164], [121.588491, 25.041073], [121.588599, 25.040918], [121.58656, 25.045007], [121.586848, 25.045074], [121.587043, 25.044795], [121.586934, 25.044713], [121.587413, 25.045056], [121.587481, 25.045212], [121.5873, 25.045632], [121.587476, 25.045666], [121.587586, 25.045589], [121.587598, 25.04569], [121.587572, 25.045808], [121.587274, 25.045752], [121.587306, 25.045887], [121.587815, 25.04598], [121.587722, 25.046252], [121.58758, 25.046383], [121.587083, 25.046302], [121.587209, 25.04588], [121.587278, 25.04603], [121.587365, 25.046046], [121.587336, 25.046149], [121.587435, 25.046166], [121.587387, 25.046257], [121.587479, 25.046068], [121.587612, 25.046088], [121.587752, 25.045851], [121.587771, 25.045547], [121.587599, 25.045236], [121.587335, 25.045217], [121.587266, 25.045299], [121.58699, 25.04515], [121.586909, 25.045298], [121.587185, 25.045403], [121.587088, 25.045695], [121.586789, 25.045585], [121.586859, 25.045405], [121.587021, 25.045555], [121.587054, 25.045473]]}}, {"type": "Feature", "properties": {"district": "63000090", "segment": 9, "total_segments": 14, "km": 12.71, "villages": ["成福里", "鴻福里", "萬福里"]}, "geometry": {"type": "LineString", "coordinates": [[121.586481, 25.04523], [121.586398, 25.045391], [121.58668, 25.045489], [121.586086, 25.045758], [121.586755, 25.046147], [121.587437, 25.045561], [121.587802, 25.045062], [121.588225, 25.046012], [121.588456, 25.046024], [121.58848, 25.04616], [121.588306, 25.046281], [121.588222, 25.046164], [121.588156, 25.046472], [121.587942, 25.046447], [121.587951, 25.046131], [121.587675, 25.046406], [121.588333, 25.046355], [121.588379, 25.04648], [121.589534, 25.046415], [121.589533, 25.046317], [121.58968, 25.046317], [121.589676, 25.046416], [121.589613, 25.045986], [121.5895, 25.045996], [121.589496, 25.04608], [121.589369, 25.045963], [121.589246, 25.045968], [121.589251, 25.045866], [121.589571, 25.045857], [121.589573, 25.045769], [121.589675, 25.045764], [121.589731, 25.046064], [121.589823, 25.046066], [121.589822, 25.045711], [121.589924, 25.045705], [121.589919, 25.045799], [121.589639, 25.045545], [121.589281, 25.046085], [121.589281, 25.046193], [121.58915, 25.046191], [121.589155, 25.046086], [121.588924, 25.046089], [121.588938, 25.04629], [121.588815, 25.046288], [121.588817, 25.046185], [121.58861, 25.046143], [121.588622, 25.04605], [121.588929, 25.045989], [121.591241, 25.045772], [121.592721, 25.04592], [121.592803, 25.04557], [121.592948, 25.045526], [121.592981, 25.045644], [121.59312, 25.045493], [121.593249, 25.045481], [121.59305, 25.045373], [121.592942, 25.045453], [121.592791, 25.045298], [121.59275, 25.045048], [121.592796, 25.044876], [121.592884, 25.044907], [121.592917, 25.044827], [121.592828, 25.044792], [121.592879, 25.04468], [121.592971, 25.044711], [121.593006, 25.044629], [121.592911, 25.044592], [121.593022, 25.044425], [121.593219, 25.044442], [121.593238, 25.044353], [121.593082, 25.044235], [121.593108, 25.044014], [121.592832, 25.043669], [121.59315, 25.043417], [121.593128, 25.043204], [121.593191, 25.04316], [121.592951, 25.043213], [121.592858, 25.043329], [121.592865, 25.043397], [121.593165, 25.042101], [121.593465, 25.041424], [121.593506, 25.041202], [121.593375, 25.040955], [121.593231, 25.044701], [121.59331, 25.04473], [121.593142, 25.044792], [121.592952, 25.045206], [121.593279, 25.045252], [121.593362, 25.045055], [121.593258, 25.045051], [121.593211, 25.045147], [121.586744, 25.044413], [121.586542, 25.044619], [121.586581, 25.044679], [121.586403, 25.044958], [121.585883, 25.044712], [121.585962, 25.0445], [121.585852, 25.044442], [121.586082, 25.044012], [121.585905, 25.04383], [121.585568, 25.04368], [121.585739, 25.043521], [121.585534, 25.043438], [121.585593, 25.043302], [121.585429, 25.043233], [121.5855, 25.04315], [121.586258, 25.043458], [121.586165, 25.04355], [121.585672, 25.043339], [121.585847, 25.043565], [121.586067, 25.043656], [121.585964, 25.043713], [121.585799, 25.043643], [121.585394, 25.044327], [121.585373, 25.044458], [121.585476, 25.044508], [121.585435, 25.044618], [121.585757, 25.04481], [121.585742, 25.044877], [121.58561, 25.044818], [121.585491, 25.045004], [121.585642, 25.045004], [121.585878, 25.045224], [121.585979, 25.045066], [121.585866, 25.045004], [121.585836, 25.045067], [121.586186, 25.045286], [121.586142, 25.045356], [121.586303, 25.045103], [121.586378, 25.044551], [121.586054, 25.04438], [121.586112, 25.044275], [121.586456, 25.044444], [121.586577, 25.044267], [121.586246, 25.044083], [121.586313, 25.043714], [121.586209, 25.043707], [121.586425, 25.04353], [121.586519, 25.043567], [121.586614, 25.043161], [121.585967, 25.042914], [121.585684, 25.042967], [121.585792, 25.043085], [121.585933, 25.043144], [121.585907, 25.043035], [121.586061, 25.043197], [121.586442, 25.043341], [121.586604, 25.044089], [121.585801, 25.044229], [121.585599, 25.044561], [121.585724, 25.044635], [121.585793, 25.044524], [121.585557, 25.04441], [121.5858, 25.043915], [121.585213, 25.04364], [121.585063, 25.043687], [121.58442, 25.044492], [121.58512, 25.044852], [121.585218, 25.044753], [121.58479, 25.044445], [121.584843, 25.044352], [121.584955, 25.044381], [121.585323, 25.044582], [121.585276, 25.044853], [121.585165, 25.044359], [121.584918, 25.044223], [121.585109, 25.043989], [121.585159, 25.044084], [121.585361, 25.043848], [121.58523, 25.043821], [121.585175, 25.043893], [121.585449, 25.043998], [121.585419, 25.04405], [121.585481, 25.043941], [121.585213, 25.044206], [121.585113, 25.044177], [121.584777, 25.043764], [121.584445, 25.043597], [121.584353, 25.04377], [121.584648, 25.043858], [121.584398, 25.044241], [121.583872, 25.043835], [121.583971, 25.043698], [121.583741, 25.043642], [121.583509, 25.043309], [121.583377, 25.043426], [121.5837, 25.043824], [121.583423, 25.044099], [121.583281, 25.04393], [121.583411, 25.043777], [121.583187, 25.04383], [121.582965, 25.043453], [121.583622, 25.042891], [121.58376, 25.042931], [121.583914, 25.043183], [121.584085, 25.043287], [121.583968, 25.043506], [121.584302, 25.043746], [121.584217, 25.043851], [121.584148, 25.043816], [121.584327, 25.043906], [121.584055, 25.044213], [121.584287, 25.044386], [121.584112, 25.04466], [121.583543, 25.0442], [121.58384, 25.043978], [121.583993, 25.044171], [121.584482, 25.043343], [121.584434, 25.043319], [121.584927, 25.043533], [121.584113, 25.042583], [121.58575, 25.041864], [121.586961, 25.042213], [121.585231, 25.045013], [121.584768, 25.04485], [121.584601, 25.044709], [121.584645, 25.044812], [121.584555, 25.044953], [121.584672, 25.045], [121.584708, 25.04515], [121.58488, 25.045217], [121.584938, 25.045106], [121.584803, 25.045324], [121.584991, 25.045411], [121.584983, 25.045545], [121.585159, 25.045634], [121.585795, 25.045891], [121.586086, 25.045447], [121.585842, 25.045315], [121.585613, 25.045638], [121.585491, 25.045592], [121.585688, 25.045258], [121.585346, 25.045105], [121.585164, 25.045414], [121.585277, 25.045482], [121.585348, 25.04536], [121.58492, 25.045513], [121.58475, 25.045429], [121.584665, 25.045598], [121.585339, 25.045997], [121.585214, 25.046224], [121.585525, 25.046394], [121.585627, 25.046076], [121.585042, 25.046066], [121.585038, 25.046137], [121.58475, 25.046047], [121.584454, 25.045891], [121.584556, 25.04572], [121.584453, 25.045667], [121.58401, 25.046324], [121.583722, 25.04632], [121.583589, 25.046132], [121.583801, 25.046425], [121.584046, 25.046554], [121.584154, 25.046388], [121.584416, 25.04664], [121.584981, 25.046896], [121.585229, 25.046489], [121.584828, 25.046417], [121.58486, 25.046361], [121.584728, 25.046557], [121.5848, 25.046594], [121.584823, 25.047192], [121.584658, 25.047326], [121.58452, 25.047284], [121.583973, 25.046706], [121.584197, 25.045669], [121.584355, 25.045441], [121.584512, 25.045521], [121.583865, 25.045211], [121.583864, 25.045505], [121.583953, 25.045543], [121.583988, 25.045472], [121.584056, 25.045541], [121.583643, 25.045487], [121.583624, 25.045324], [121.58369, 25.045326], [121.583053, 25.045261], [121.583039, 25.045037], [121.583184, 25.045026], [121.583295, 25.04487], [121.583236, 25.044788], [121.583487, 25.044767], [121.583319, 25.044582], [121.583399, 25.044524], [121.58331, 25.044424], [121.583101, 25.044587], [121.583172, 25.044674], [121.583072, 25.044788], [121.582571, 25.044156], [121.582749, 25.044041], [121.582618, 25.043848], [121.58267, 25.043723], [121.582917, 25.043643], [121.583248, 25.044232], [121.583197, 25.044293], [121.582955, 25.044345], [121.582815, 25.044139], [121.58241, 25.043925], [121.58215, 25.044168], [121.582653, 25.044928], [121.582973, 25.045046], [121.583079, 25.045525], [121.583303, 25.045832], [121.583512, 25.045035], [121.583808, 25.045038], [121.584008, 25.044784], [121.584131, 25.044881], [121.584086, 25.044941], [121.584241, 25.044971], [121.584355, 25.044815], [121.584231, 25.044809], [121.584366, 25.044602], [121.583812, 25.044674], [121.583448, 25.044334], [121.584019, 25.045076], [121.584399, 25.045213], [121.585424, 25.046567], [121.585385, 25.04687], [121.585413, 25.046993], [121.585562, 25.047109], [121.585603, 25.047375], [121.585366, 25.047596], [121.585196, 25.047375], [121.58528, 25.047316], [121.585164, 25.047238], [121.584848, 25.047546], [121.585168, 25.047815], [121.586157, 25.046507]]}}, {"type": "Feature", "properties": {"district": "63000090", "segment": 10, "total_segments": 14, "km": 13.81, "villages": ["合成里", "聯成里"]}, "geometry": {"type": "LineString", "coordinates": [[121.585153, 25.048452], [121.586407, 25.04904], [121.587564, 25.049311], [121.58738, 25.049497], [121.587223, 25.049463], [121.587183, 25.049572], [121.587345, 25.049608], [121.587285, 25.049809], [121.587139, 25.049773], [121.587132, 25.049888], [121.587324, 25.049931], [121.587305, 25.050021], [121.586258, 25.049837], [121.586316, 25.049692], [121.586991, 25.049818], [121.587003, 25.049718], [121.586147, 25.049496], [121.58613, 25.049604], [121.586189, 25.049622], [121.58642, 25.04937], [121.587051, 25.049539], [121.587089, 25.04943], [121.586171, 25.049145], [121.587642, 25.049912], [121.588137, 25.050028], [121.588172, 25.04991], [121.587676, 25.049796], [121.587759, 25.049664], [121.58821, 25.049769], [121.58824, 25.049645], [121.587834, 25.049557], [121.587893, 25.049344], [121.588455, 25.049489], [121.588415, 25.049688], [121.58953, 25.049952], [121.589497, 25.050064], [121.588368, 25.049806], [121.588322, 25.049945], [121.58945, 25.050214], [121.589417, 25.050332], [121.589214, 25.050281], [121.589236, 25.050353], [121.58888, 25.050202], [121.588912, 25.050294], [121.588738, 25.050251], [121.588758, 25.050174], [121.588667, 25.050154], [121.588642, 25.050231], [121.588552, 25.050213], [121.588577, 25.050133], [121.588482, 25.050111], [121.588454, 25.050192], [121.58837, 25.050175], [121.58839, 25.05009], [121.588296, 25.050069], [121.588269, 25.050154], [121.5881, 25.050155], [121.587431, 25.050033], [121.587433, 25.049956], [121.589178, 25.049653], [121.590642, 25.050053], [121.590026, 25.05007], [121.589682, 25.049989], [121.589654, 25.050107], [121.590025, 25.050194], [121.589951, 25.050331], [121.589607, 25.050252], [121.589599, 25.050354], [121.58987, 25.050417], [121.590039, 25.050351], [121.592208, 25.05047], [121.593186, 25.050717], [121.593303, 25.050688], [121.593286, 25.050614], [121.592676, 25.050467], [121.592611, 25.050717], [121.593357, 25.050891], [121.593418, 25.050684], [121.593785, 25.050764], [121.593797, 25.050611], [121.593547, 25.051019], [121.584412, 25.049059], [121.583714, 25.049331], [121.584372, 25.048336], [121.583839, 25.047921], [121.583856, 25.047859], [121.584062, 25.047698], [121.584662, 25.048176], [121.583975, 25.047601], [121.582615, 25.046904], [121.58228, 25.047017], [121.582192, 25.047432], [121.581974, 25.04728], [121.581868, 25.047583], [121.582109, 25.047693], [121.58202, 25.047961], [121.581831, 25.047902], [121.58179, 25.048191], [121.582242, 25.048277], [121.582191, 25.048129], [121.581465, 25.047901], [121.581414, 25.047724], [121.581277, 25.047679], [121.581228, 25.047489], [121.58088, 25.047504], [121.58091, 25.047391], [121.581141, 25.047332], [121.581123, 25.047139], [121.581263, 25.047154], [121.581378, 25.04758], [121.581521, 25.047531], [121.581499, 25.047216], [121.581872, 25.046824], [121.581408, 25.046488], [121.580901, 25.046548], [121.580899, 25.046388], [121.581476, 25.046323], [121.581517, 25.046103], [121.580923, 25.046189], [121.580888, 25.046052], [121.581682, 25.045958], [121.581579, 25.045506], [121.582343, 25.045483], [121.582365, 25.045908], [121.582573, 25.045915], [121.582679, 25.046043], [121.582371, 25.046261], [121.582516, 25.046415], [121.582874, 25.046077], [121.582707, 25.04586], [121.582813, 25.045763], [121.582761, 25.045691], [121.582714, 25.045633], [121.582598, 25.045719], [121.582928, 25.045875], [121.583022, 25.046029], [121.582033, 25.046714], [121.581731, 25.046465], [121.581725, 25.046181], [121.581894, 25.046152], [121.582152, 25.045836], [121.581183, 25.045795], [121.581187, 25.045682], [121.580874, 25.045689], [121.580877, 25.045803], [121.581379, 25.045676], [121.58136, 25.045503], [121.580885, 25.045517], [121.581371, 25.045186], [121.581983, 25.045161], [121.581734, 25.044773], [121.581631, 25.044944], [121.581763, 25.044962], [121.581534, 25.044748], [121.581257, 25.044975], [121.581839, 25.044455], [121.581936, 25.044478], [121.582211, 25.044917], [121.581487, 25.046719], [121.580903, 25.046784], [121.580909, 25.046922], [121.581378, 25.046868], [121.580898, 25.047092], [121.580911, 25.047239], [121.580759, 25.047615], [121.580773, 25.047691], [121.581316, 25.047872], [121.581241, 25.048014], [121.581424, 25.048078], [121.581407, 25.048317], [121.581362, 25.048459], [121.580676, 25.048455], [121.580664, 25.048582], [121.580579, 25.048582], [121.581136, 25.048593], [121.581154, 25.048691], [121.581365, 25.048594], [121.581376, 25.048777], [121.581313, 25.048844], [121.580363, 25.04882], [121.580363, 25.048524], [121.580426, 25.048016], [121.580538, 25.047944], [121.58055, 25.048156], [121.580777, 25.048159], [121.580924, 25.048147], [121.58093, 25.047967], [121.581116, 25.047969], [121.581093, 25.048307], [121.580678, 25.0483], [121.581191, 25.048309], [121.58179, 25.048819], [121.585355, 25.047922], [121.586057, 25.048276], [121.586175, 25.048065], [121.585587, 25.047768], [121.585797, 25.047629], [121.586257, 25.047855], [121.586392, 25.047677], [121.586191, 25.047578], [121.587013, 25.048014], [121.587942, 25.048241], [121.587971, 25.048141], [121.588162, 25.048202], [121.58803, 25.048587], [121.586979, 25.048351], [121.587094, 25.048218], [121.58825, 25.048543], [121.588169, 25.048889], [121.587601, 25.048755], [121.58755, 25.048652], [121.587059, 25.048552], [121.587001, 25.04862], [121.586415, 25.048416], [121.586544, 25.04807], [121.586746, 25.048141], [121.586677, 25.048318], [121.586783, 25.048344], [121.58687, 25.048116], [121.586998, 25.047561], [121.586874, 25.046893], [121.588078, 25.046859], [121.588365, 25.046961], [121.588374, 25.046846], [121.588571, 25.046845], [121.588537, 25.047078], [121.589586, 25.047617], [121.589508, 25.047743], [121.588876, 25.04743], [121.588613, 25.047763], [121.588856, 25.047863], [121.588889, 25.047777], [121.588339, 25.047614], [121.588284, 25.047812], [121.589528, 25.048302], [121.589543, 25.048067], [121.589603, 25.048046], [121.589745, 25.048116], [121.589696, 25.04834], [121.590951, 25.048863], [121.590726, 25.049285], [121.589779, 25.048978], [121.589811, 25.048848], [121.590608, 25.049067], [121.590711, 25.048908], [121.589645, 25.048487], [121.589506, 25.04877], [121.589729, 25.048825], [121.589627, 25.048953], [121.589367, 25.048916], [121.589259, 25.049138], [121.590786, 25.049482], [121.590427, 25.048485], [121.590495, 25.048348], [121.590335, 25.048368], [121.589223, 25.047998], [121.589266, 25.047911], [121.589379, 25.047952], [121.58929, 25.047794], [121.589084, 25.047714], [121.588961, 25.047901], [121.589098, 25.047952], [121.589132, 25.047863], [121.589073, 25.048321], [121.589434, 25.048446], [121.589109, 25.04899], [121.589035, 25.049095], [121.588298, 25.048925], [121.58842, 25.048647], [121.58892, 25.048741], [121.588898, 25.048797], [121.589038, 25.048439], [121.588317, 25.048254], [121.588287, 25.048441], [121.588348, 25.048166], [121.588435, 25.048111], [121.588193, 25.048107], [121.588496, 25.04727], [121.588646, 25.04733], [121.588861, 25.047066], [121.588912, 25.046871], [121.589005, 25.046921], [121.588983, 25.047051], [121.589141, 25.047132], [121.589179, 25.04705], [121.589119, 25.047021], [121.589256, 25.046833], [121.589224, 25.046666], [121.589142, 25.046668], [121.590023, 25.046684], [121.589971, 25.046867], [121.589785, 25.047048], [121.58966, 25.047022], [121.58969, 25.046837], [121.58987, 25.047075], [121.58964, 25.047281], [121.589584, 25.047254], [121.589535, 25.047337], [121.589669, 25.047405], [121.589743, 25.04732], [121.589475, 25.047308], [121.589229, 25.047178], [121.588932, 25.046669], [121.588055, 25.046654]]}}, {"type": "Feature", "properties": {"district": "63000090", "segment": 11, "total_segments": 14, "km": 15.0, "villages": ["新光里", "東明里"]}, "geometry": {"type": "LineString", "coordinates": [[121.591072, 25.049541], [121.595188, 25.050546], [121.594468, 25.049715], [121.594329, 25.049786], [121.594203, 25.050118], [121.593797, 25.050036], [121.593849, 25.049972], [121.594074, 25.050022], [121.594148, 25.049899], [121.593794, 25.049807], [121.593482, 25.049774], [121.593465, 25.049957], [121.593621, 25.049921], [121.593699, 25.050013], [121.593791, 25.049693], [121.594165, 25.049778], [121.594233, 25.049573], [121.594117, 25.049412], [121.594029, 25.049425], [121.594037, 25.049518], [121.593874, 25.049475], [121.593782, 25.049221], [121.593682, 25.049292], [121.592962, 25.049135], [121.59293, 25.049355], [121.592737, 25.049311], [121.592705, 25.049123], [121.592817, 25.049103], [121.592656, 25.048945], [121.592459, 25.049356], [121.5926, 25.049383], [121.592615, 25.049326], [121.592702, 25.049447], [121.593064, 25.049529], [121.593065, 25.049654], [121.593349, 25.049719], [121.593384, 25.049601], [121.593602, 25.04965], [121.593615, 25.049414], [121.593665, 25.049425], [121.593494, 25.049388], [121.593467, 25.049476], [121.593041, 25.04938], [121.593066, 25.049293], [121.593253, 25.049572], [121.593208, 25.049835], [121.592545, 25.04966], [121.592568, 25.049572], [121.592437, 25.049519], [121.59191, 25.04941], [121.59183, 25.049554], [121.592007, 25.049244], [121.592278, 25.049338], [121.592115, 25.049139], [121.592203, 25.048998], [121.592728, 25.049576], [121.593314, 25.049859], [121.593956, 25.049267], [121.59404, 25.049245], [121.594081, 25.049335], [121.594232, 25.049277], [121.59432, 25.049464], [121.594143, 25.049087], [121.593912, 25.049172], [121.593831, 25.049022], [121.593757, 25.049064], [121.593616, 25.048931], [121.59372, 25.048844], [121.593785, 25.04892], [121.59384, 25.048859], [121.593965, 25.048999], [121.594067, 25.048922], [121.593856, 25.048586], [121.593554, 25.048467], [121.593686, 25.048211], [121.593566, 25.048132], [121.59327, 25.04833], [121.593113, 25.048153], [121.592957, 25.048309], [121.592937, 25.048096], [121.59298, 25.048032], [121.59304, 25.048084], [121.592845, 25.047959], [121.592805, 25.04802], [121.59286, 25.048048], [121.592756, 25.04791], [121.59316, 25.048428], [121.593139, 25.048576], [121.593792, 25.047866], [121.593861, 25.047892], [121.593903, 25.047785], [121.59336, 25.047564], [121.59341, 25.047323], [121.593547, 25.04736], [121.593589, 25.047256], [121.593422, 25.047188], [121.593502, 25.047061], [121.593768, 25.047166], [121.593809, 25.047055], [121.593499, 25.046965], [121.593458, 25.047044], [121.593343, 25.046957], [121.593364, 25.046676], [121.593445, 25.046631], [121.593349, 25.046614], [121.593495, 25.046587], [121.593589, 25.046707], [121.593952, 25.046866], [121.59406, 25.047053], [121.593984, 25.04753], [121.593833, 25.047471], [121.593853, 25.047363], [121.593714, 25.047307], [121.593668, 25.047407], [121.594081, 25.047713], [121.593974, 25.047814], [121.594028, 25.04828], [121.594288, 25.048103], [121.594439, 25.048899], [121.594372, 25.049144], [121.594472, 25.049994], [121.59442, 25.050171], [121.595384, 25.05012], [121.595777, 25.050388], [121.595966, 25.04988], [121.59766, 25.050635], [121.597847, 25.051481], [121.599129, 25.050036], [121.599241, 25.050008], [121.599265, 25.050097], [121.599179, 25.050133], [121.599863, 25.050569], [121.599959, 25.050472], [121.600221, 25.050541], [121.600182, 25.050652], [121.600066, 25.050618], [121.600354, 25.050488], [121.600393, 25.050583], [121.600472, 25.05046], [121.60073, 25.050528], [121.600753, 25.050355], [121.601196, 25.050183], [121.601154, 25.050084], [121.601296, 25.050466], [121.602025, 25.05088], [121.602211, 25.050858], [121.603709, 25.051998], [121.603979, 25.052283], [121.604792, 25.052364], [121.59988, 25.05027], [121.596891, 25.04773], [121.59538, 25.04887], [121.59507, 25.051024], [121.595372, 25.051258], [121.594084, 25.050848], [121.593226, 25.047224], [121.593135, 25.047201], [121.593187, 25.0471], [121.59327, 25.047113], [121.59337, 25.046279], [121.593558, 25.046038], [121.593406, 25.045842], [121.593706, 25.04587], [121.593759, 25.045798], [121.593678, 25.046148], [121.593543, 25.046301], [121.593326, 25.04619], [121.594115, 25.045271], [121.593791, 25.044391], [121.593857, 25.044065], [121.593978, 25.043968], [121.593925, 25.043835], [121.594051, 25.043773], [121.594166, 25.04392], [121.593948, 25.044258], [121.595726, 25.052322], [121.595325, 25.053039], [121.595177, 25.053639], [121.595202, 25.053931], [121.595364, 25.054266], [121.595743, 25.054165], [121.596032, 25.054221], [121.596141, 25.054122], [121.596318, 25.054231], [121.596588, 25.054192], [121.597628, 25.053872], [121.597559, 25.053473], [121.596986, 25.053145], [121.596866, 25.053358], [121.597164, 25.053564], [121.596872, 25.053615], [121.596664, 25.053475], [121.596486, 25.053647], [121.596676, 25.053777], [121.596417, 25.0536], [121.595489, 25.053406], [121.598314, 25.053956], [121.598687, 25.053848], [121.598896, 25.053949], [121.598923, 25.054034], [121.599165, 25.054023], [121.59914, 25.053919], [121.599406, 25.053849], [121.599438, 25.053977], [121.599326, 25.054222], [121.599058, 25.053941], [121.599036, 25.05377], [121.59938, 25.053678], [121.598849, 25.053478], [121.598507, 25.052639], [121.599993, 25.052492], [121.600192, 25.052532], [121.600524, 25.052802], [121.600977, 25.052963], [121.601685, 25.05306], [121.601524, 25.053544], [121.602348, 25.053688], [121.602152, 25.053977], [121.601788, 25.053913], [121.601707, 25.054026], [121.601355, 25.053822], [121.601239, 25.053832], [121.601176, 25.05397], [121.60102, 25.053925], [121.601346, 25.054019], [121.601384, 25.054149], [121.60159, 25.054152], [121.601519, 25.054334], [121.602347, 25.054495], [121.602299, 25.054714], [121.602999, 25.054989], [121.603106, 25.054812], [121.602649, 25.054604], [121.602625, 25.05442], [121.602522, 25.054403], [121.603066, 25.054488], [121.603043, 25.054239], [121.602407, 25.054125], [121.602241, 25.054104], [121.602123, 25.054369], [121.601994, 25.054338], [121.601915, 25.054603], [121.602159, 25.054658], [121.601264, 25.054499], [121.601243, 25.054305], [121.601316, 25.054296], [121.600657, 25.054324], [121.600453, 25.054254], [121.600265, 25.05437], [121.600262, 25.054449], [121.600187, 25.054253], [121.600113, 25.054252], [121.600099, 25.05384], [121.600001, 25.053838], [121.600486, 25.053843], [121.601135, 25.053549], [121.601118, 25.053178], [121.600079, 25.05311], [121.601002, 25.054183], [121.601034, 25.054464], [121.600647, 25.05447], [121.602041, 25.053328], [121.60219, 25.053022], [121.60264, 25.052815], [121.602784, 25.052856], [121.601986, 25.052983], [121.602987, 25.053829], [121.603277, 25.053612], [121.603528, 25.053668], [121.603379, 25.053444], [121.603534, 25.053221], [121.603969, 25.053731], [121.604204, 25.053758], [121.604534, 25.053638], [121.604977, 25.053728], [121.605121, 25.054199], [121.605498, 25.05427], [121.605387, 25.05441], [121.6051, 25.054356], [121.605113, 25.054444], [121.605681, 25.054547], [121.60572, 25.054468], [121.605578, 25.054442], [121.605733, 25.054309], [121.606051, 25.05436], [121.605915, 25.054944], [121.605746, 25.054932], [121.605824, 25.05461], [121.605658, 25.055072], [121.604769, 25.054833], [121.604815, 25.054628], [121.604573, 25.054839], [121.604462, 25.054667], [121.603822, 25.054472], [121.603845, 25.054387], [121.603659, 25.054384], [121.603509, 25.053941], [121.604546, 25.054137], [121.605552, 25.054011], [121.605832, 25.054062], [121.605827, 25.055432], [121.605698, 25.055928], [121.60527, 25.055893], [121.60471, 25.05598], [121.60461, 25.055786], [121.605142, 25.055686], [121.605575, 25.055729], [121.605523, 25.055502], [121.605441, 25.055479], [121.60551, 25.055362], [121.605584, 25.055386], [121.605352, 25.055292], [121.604818, 25.055171]]}}, {"type": "Feature", "properties": {"district": "63000090", "segment": 12, "total_segments": 14, "km": 14.75, "villages": ["東明里", "東新里", "重陽里"]}, "geometry": {"type": "LineString", "coordinates": [[121.604791, 25.05541], [121.604282, 25.055291], [121.604282, 25.055062], [121.603936, 25.055413], [121.603341, 25.054959], [121.603228, 25.055114], [121.603792, 25.055544], [121.604162, 25.055676], [121.60404, 25.056025], [121.604171, 25.056074], [121.604161, 25.056272], [121.604453, 25.056151], [121.605293, 25.056097], [121.605649, 25.056154], [121.60546, 25.057007], [121.605362, 25.057099], [121.605039, 25.057042], [121.604932, 25.057494], [121.604794, 25.057523], [121.604917, 25.057026], [121.605103, 25.056845], [121.605117, 25.056579], [121.604723, 25.056586], [121.60442, 25.056798], [121.60428, 25.056697], [121.604587, 25.056434], [121.604737, 25.056405], [121.604726, 25.056317], [121.604562, 25.056318], [121.604891, 25.056311], [121.604836, 25.056401], [121.605155, 25.056304], [121.605069, 25.056464], [121.60539, 25.05648], [121.605232, 25.056582], [121.605247, 25.056958], [121.605432, 25.057148], [121.605254, 25.057466], [121.605265, 25.057692], [121.604404, 25.057604], [121.603988, 25.057257], [121.604006, 25.057131], [121.603621, 25.056936], [121.60354, 25.056737], [121.603413, 25.056809], [121.603233, 25.056541], [121.603742, 25.055887], [121.603736, 25.056408], [121.603845, 25.056411], [121.60381, 25.05655], [121.60361, 25.056471], [121.60361, 25.05668], [121.604087, 25.056751], [121.604184, 25.056836], [121.604117, 25.056913], [121.604021, 25.05682], [121.603988, 25.05658], [121.604097, 25.056581], [121.604272, 25.05695], [121.604709, 25.057161], [121.604656, 25.05744], [121.604192, 25.057099], [121.603378, 25.057284], [121.603321, 25.0574], [121.603137, 25.057439], [121.602621, 25.057397], [121.602472, 25.057235], [121.6019, 25.057033], [121.601986, 25.056808], [121.602576, 25.057016], [121.602603, 25.056869], [121.602051, 25.056678], [121.602157, 25.056437], [121.602744, 25.056641], [121.603293, 25.057096], [121.602343, 25.057473], [121.601952, 25.057415], [121.601255, 25.056997], [121.601202, 25.057074], [121.601008, 25.057025], [121.600349, 25.056756], [121.600404, 25.05663], [121.600279, 25.056587], [121.600309, 25.056456], [121.600182, 25.056412], [121.600233, 25.056292], [121.60116, 25.056625], [121.60126, 25.056637], [121.601317, 25.056545], [121.600291, 25.056155], [121.60034, 25.056024], [121.601388, 25.056415], [121.601496, 25.056179], [121.601284, 25.056198], [121.600392, 25.055893], [121.600519, 25.055663], [121.601554, 25.056022], [121.601679, 25.055997], [121.601735, 25.055859], [121.600593, 25.05549], [121.600698, 25.055291], [121.600819, 25.055285], [121.601065, 25.055344], [121.601017, 25.055479], [121.60093, 25.055446], [121.601826, 25.055686], [121.602043, 25.056192], [121.601558, 25.05654], [121.60137, 25.056824], [121.60069, 25.056591], [121.60063, 25.056705], [121.601109, 25.056866], [121.60083, 25.057136], [121.599941, 25.05687], [121.599481, 25.056549], [121.599371, 25.055775], [121.598957, 25.055592], [121.599102, 25.055306], [121.599526, 25.055497], [121.599439, 25.055706], [121.599729, 25.055227], [121.599449, 25.055168], [121.599797, 25.054894], [121.599613, 25.054714], [121.599498, 25.054787], [121.599409, 25.054726], [121.599334, 25.054797], [121.599412, 25.054859], [121.599498, 25.054606], [121.59909, 25.054353], [121.59899, 25.054328], [121.598998, 25.054526], [121.599098, 25.054552], [121.598844, 25.054919], [121.598691, 25.054882], [121.598453, 25.054639], [121.598342, 25.054661], [121.598238, 25.054546], [121.598313, 25.054508], [121.598139, 25.054595], [121.598059, 25.054457], [121.598117, 25.054429], [121.597968, 25.054502], [121.597603, 25.054429], [121.59758, 25.054559], [121.597436, 25.054419], [121.596806, 25.054364], [121.595685, 25.054539], [121.595987, 25.054743], [121.597378, 25.054669], [121.597355, 25.054804], [121.597154, 25.054861], [121.59717, 25.055018], [121.597673, 25.054978], [121.597659, 25.054815], [121.597516, 25.054823], [121.59796, 25.054738], [121.598159, 25.054795], [121.597778, 25.054296], [121.596797, 25.054874], [121.596342, 25.0549], [121.596807, 25.054987], [121.59599, 25.054949], [121.595318, 25.054715], [121.595251, 25.054852], [121.598649, 25.056182], [121.59999, 25.055388], [121.600301, 25.055472], [121.601053, 25.055113], [121.60108, 25.054903], [121.601246, 25.05482], [121.601698, 25.054972], [121.6017, 25.055065], [121.601618, 25.055046], [121.601877, 25.055107], [121.601808, 25.055001], [121.602225, 25.055097], [121.6023, 25.054868], [121.601188, 25.054649], [121.600453, 25.054701], [121.601325, 25.055205], [121.602374, 25.054892], [121.600545, 25.056538], [121.600396, 25.056486], [121.600495, 25.056662], [121.605659, 25.056116], [121.604213, 25.057956], [121.60389, 25.057938], [121.603728, 25.058056], [121.60317, 25.05795], [121.602982, 25.058346], [121.603188, 25.058349], [121.603276, 25.058164], [121.602573, 25.057851], [121.602035, 25.057857], [121.602061, 25.057752], [121.602084, 25.057959], [121.601896, 25.058218], [121.601911, 25.05834], [121.600402, 25.058237], [121.600014, 25.058056], [121.600068, 25.05793], [121.600153, 25.057961], [121.600111, 25.057839], [121.599999, 25.057799], [121.600047, 25.057687], [121.600177, 25.057744], [121.60035, 25.057625], [121.600432, 25.057652], [121.600505, 25.057515], [121.600183, 25.057433], [121.600235, 25.057315], [121.600322, 25.057346], [121.599965, 25.057312], [121.599917, 25.057434], [121.600016, 25.057475], [121.599433, 25.057241], [121.599485, 25.05712], [121.599594, 25.057158], [121.59926, 25.057071], [121.59932, 25.056953], [121.599408, 25.056991], [121.599059, 25.056953], [121.598914, 25.057188], [121.599151, 25.05724], [121.599026, 25.057525], [121.59892, 25.057488], [121.598981, 25.057635], [121.598699, 25.057724], [121.598735, 25.057909], [121.598559, 25.05801], [121.598936, 25.057977], [121.59918, 25.058063], [121.599231, 25.057958], [121.59958, 25.058084], [121.599635, 25.057969], [121.599534, 25.057927], [121.599846, 25.058079], [121.599896, 25.057974], [121.598687, 25.05707], [121.598824, 25.056732], [121.598311, 25.056463], [121.598352, 25.056641], [121.59847, 25.05663], [121.597997, 25.056605], [121.597908, 25.056802], [121.597545, 25.056512], [121.597376, 25.05689], [121.597243, 25.056855], [121.597206, 25.056998], [121.597312, 25.057026], [121.596463, 25.056808], [121.596384, 25.056757], [121.596438, 25.056635], [121.596521, 25.056598], [121.596983, 25.056755], [121.596859, 25.057401], [121.596992, 25.057461], [121.597545, 25.057544], [121.597754, 25.057096], [121.597072, 25.057765], [121.596711, 25.057673], [121.596693, 25.057797], [121.597022, 25.057878], [121.596936, 25.058332], [121.596563, 25.058273], [121.59655, 25.058348], [121.596454, 25.058327], [121.596462, 25.058249], [121.595937, 25.058154], [121.596285, 25.056931], [121.596403, 25.057145], [121.596659, 25.057184], [121.596448, 25.057586], [121.596568, 25.057624], [121.595548, 25.058497], [121.593744, 25.058482], [121.593516, 25.058566], [121.593366, 25.058501], [121.593303, 25.058549], [121.593216, 25.058449], [121.593161, 25.05849], [121.592972, 25.058278], [121.592847, 25.058376], [121.593376, 25.057993], [121.593401, 25.057898], [121.593692, 25.058056], [121.593724, 25.058644], [121.594546, 25.058846], [121.594548, 25.058906], [121.595259, 25.058904], [121.595286, 25.058717], [121.595388, 25.058749], [121.595376, 25.058884], [121.59514, 25.058753], [121.594712, 25.058736], [121.594175, 25.057466], [121.594343, 25.056865], [121.594252, 25.056831], [121.594557, 25.056939], [121.594925, 25.056777], [121.595104, 25.056545], [121.595049, 25.056824], [121.595298, 25.056953], [121.595357, 25.056827], [121.595715, 25.056931], [121.595654, 25.05707], [121.595926, 25.057119], [121.595995, 25.056865], [121.596467, 25.056228], [121.596195, 25.056011], [121.596092, 25.056076], [121.595708, 25.055939], [121.595688, 25.055837], [121.595424, 25.055666], [121.595335, 25.055839], [121.595197, 25.05578], [121.595456, 25.055495], [121.595399, 25.055427], [121.595545, 25.055345], [121.59522, 25.055206], [121.595164, 25.055311], [121.595257, 25.055352], [121.594897, 25.055226], [121.594951, 25.055706], [121.594797, 25.055962], [121.595103, 25.056127], [121.594978, 25.056317], [121.594673, 25.056154], [121.594595, 25.056259], [121.594912, 25.056411], [121.594744, 25.056559], [121.593945, 25.056338], [121.594003, 25.056216], [121.59378, 25.056618], [121.593835, 25.05664], [121.593666, 25.056804], [121.593796, 25.056903], [121.593583, 25.056933], [121.593934, 25.056675], [121.593734, 25.057307], [121.593476, 25.0574], [121.594147, 25.055937], [121.594362, 25.055796], [121.594498, 25.055834], [121.595895, 25.055527], [121.596344, 25.055675], [121.596318, 25.055833], [121.596802, 25.05584], [121.597062, 25.055953], [121.597043, 25.056094], [121.596966, 25.056096], [121.596938, 25.056052]]}}, {"type": "Feature", "properties": {"district": "63000090", "segment": 13, "total_segments": 14, "km": 9.07, "villages": ["重陽里", "西新里"]}, "geometry": {"type": "LineString", "coordinates": [[121.601805, 25.057689], [121.594267, 25.054896], [121.593312, 25.05458], [121.593092, 25.055511], [121.592887, 25.055313], [121.593054, 25.054538], [121.592604, 25.054464], [121.592614, 25.054619], [121.592398, 25.055088], [121.592251, 25.055066], [121.592086, 25.055377], [121.592274, 25.055448], [121.592141, 25.055699], [121.591911, 25.055708], [121.591999, 25.055988], [121.591875, 25.056293], [121.591798, 25.056434], [121.591648, 25.056328], [121.591655, 25.056454], [121.591741, 25.05651], [121.591499, 25.056463], [121.59138, 25.056061], [121.591492, 25.055863], [121.591148, 25.055668], [121.591688, 25.054613], [121.591536, 25.054531], [121.590886, 25.055675], [121.591087, 25.055782], [121.590662, 25.056499], [121.590572, 25.056305], [121.590736, 25.056], [121.590306, 25.055831], [121.591119, 25.054044], [121.591395, 25.054099], [121.591108, 25.054451], [121.590737, 25.054482], [121.590608, 25.054641], [121.590234, 25.055482], [121.590241, 25.055963], [121.589379, 25.055376], [121.589282, 25.055205], [121.589459, 25.054717], [121.58958, 25.054761], [121.589559, 25.054811], [121.588869, 25.054528], [121.589001, 25.054432], [121.589248, 25.054504], [121.58932, 25.05431], [121.589099, 25.054315], [121.589124, 25.054246], [121.589014, 25.054211], [121.588989, 25.054278], [121.589186, 25.053989], [121.589335, 25.054039], [121.589255, 25.054081], [121.589394, 25.054118], [121.589417, 25.054061], [121.58953, 25.054288], [121.589758, 25.05436], [121.589668, 25.054575], [121.589469, 25.054455], [121.589117, 25.054867], [121.588805, 25.05472], [121.588079, 25.054592], [121.588326, 25.053519], [121.588616, 25.053499], [121.588677, 25.053225], [121.588581, 25.053211], [121.588587, 25.052969], [121.588744, 25.05299], [121.588513, 25.052955], [121.588576, 25.052587], [121.588824, 25.05267], [121.588641, 25.052307], [121.588676, 25.052051], [121.588803, 25.052031], [121.589319, 25.053057], [121.589398, 25.053459], [121.589584, 25.053449], [121.589896, 25.053249], [121.590041, 25.053294], [121.590129, 25.053619], [121.590968, 25.054007], [121.591262, 25.053766], [121.591892, 25.053921], [121.592013, 25.053548], [121.592285, 25.053455], [121.592441, 25.052979], [121.592796, 25.052691], [121.592379, 25.052559], [121.592316, 25.052242], [121.592177, 25.052219], [121.592197, 25.052071], [121.592298, 25.052024], [121.592247, 25.051981], [121.592368, 25.052115], [121.592394, 25.052001], [121.592378, 25.052199], [121.592459, 25.052237], [121.592365, 25.052257], [121.592521, 25.052266], [121.592765, 25.052461], [121.593249, 25.052497], [121.59372, 25.051413], [121.593587, 25.051376], [121.593185, 25.052235], [121.593142, 25.051942], [121.593393, 25.051369], [121.593929, 25.051513], [121.593524, 25.052579], [121.59274, 25.053146], [121.592479, 25.053845], [121.59235, 25.053779], [121.592233, 25.054063], [121.592012, 25.054005], [121.592216, 25.054292], [121.592473, 25.054362], [121.5924, 25.054564], [121.592119, 25.054441], [121.59216, 25.05435], [121.592347, 25.054435], [121.59247, 25.054596], [121.592382, 25.054785], [121.592036, 25.054625], [121.591987, 25.054716], [121.592331, 25.05487], [121.592596, 25.055144], [121.592582, 25.055551], [121.59274, 25.055838], [121.592376, 25.05723], [121.592186, 25.057414], [121.591769, 25.057415], [121.591778, 25.057533], [121.592197, 25.057572], [121.59219, 25.057759], [121.592445, 25.058026], [121.592397, 25.05814], [121.592237, 25.058113], [121.591915, 25.057681], [121.591762, 25.057779], [121.59212, 25.058181], [121.59251, 25.057905], [121.592386, 25.057646], [121.592671, 25.057701], [121.59292, 25.057614], [121.593027, 25.056947], [121.592802, 25.056825], [121.592967, 25.056124], [121.593425, 25.056345], [121.593487, 25.056209], [121.593141, 25.056938], [121.592074, 25.057282], [121.59185, 25.057282], [121.591577, 25.056848], [121.591017, 25.056679], [121.592126, 25.056265], [121.592166, 25.05614], [121.593944, 25.055464], [121.593578, 25.054736], [121.594494, 25.054027], [121.594757, 25.053615], [121.595048, 25.052483], [121.592183, 25.052319], [121.591694, 25.052211], [121.590519, 25.051736], [121.590304, 25.052721], [121.589202, 25.053566], [121.592371, 25.053716], [121.592398, 25.053638], [121.592413, 25.054115], [121.592516, 25.054148]]}}, {"type": "Feature", "properties": {"district": "63000090", "segment": 14, "total_segments": 14, "km": 8.15, "villages": ["玉成里"]}, "geometry": {"type": "LineString", "coordinates": [[121.588382, 25.05294], [121.587457, 25.052861], [121.587448, 25.052597], [121.587749, 25.052347], [121.587697, 25.052006], [121.588388, 25.052087], [121.588473, 25.052025], [121.588538, 25.052087], [121.588411, 25.052706], [121.588056, 25.052808], [121.588005, 25.053147], [121.588217, 25.05317], [121.588141, 25.053432], [121.587943, 25.053406], [121.587911, 25.05364], [121.587502, 25.053605], [121.587486, 25.053719], [121.58799, 25.053785], [121.587991, 25.053654], [121.588086, 25.053672], [121.587937, 25.054103], [121.58777, 25.054075], [121.587772, 25.05419], [121.587903, 25.054229], [121.587377, 25.054029], [121.5875, 25.053966], [121.587652, 25.054033], [121.587465, 25.054276], [121.587804, 25.054481], [121.58665, 25.053845], [121.586807, 25.053629], [121.586838, 25.053764], [121.586953, 25.0537], [121.587064, 25.053754], [121.586982, 25.05384], [121.587244, 25.053961], [121.587249, 25.053696], [121.58739, 25.053708], [121.587297, 25.053482], [121.586796, 25.053357], [121.586926, 25.053158], [121.587112, 25.053136], [121.587226, 25.053231], [121.587144, 25.053582], [121.586626, 25.053434], [121.586584, 25.053533], [121.586234, 25.053419], [121.586127, 25.053343], [121.586152, 25.053134], [121.58607, 25.053107], [121.585458, 25.053081], [121.585253, 25.052981], [121.585195, 25.05314], [121.585106, 25.053012], [121.584914, 25.052943], [121.584755, 25.053019], [121.58476, 25.053274], [121.584906, 25.053316], [121.584673, 25.052896], [121.584462, 25.052729], [121.584634, 25.052704], [121.584664, 25.052566], [121.584735, 25.05259], [121.584099, 25.052344], [121.584085, 25.052479], [121.584188, 25.052498], [121.58391, 25.052244], [121.583642, 25.052399], [121.583447, 25.052871], [121.584014, 25.053041], [121.584119, 25.052812], [121.58443, 25.052988], [121.584432, 25.052853], [121.584844, 25.052785], [121.584896, 25.052684], [121.585773, 25.052995], [121.585992, 25.052783], [121.586261, 25.053123], [121.586718, 25.053185], [121.586659, 25.053374], [121.586395, 25.053701], [121.586072, 25.053624], [121.585583, 25.053354], [121.58547, 25.053452], [121.585295, 25.052527], [121.584597, 25.052276], [121.584854, 25.051854], [121.584941, 25.051926], [121.584886, 25.052044], [121.58505, 25.052144], [121.585407, 25.052191], [121.585617, 25.052142], [121.585668, 25.051887], [121.585826, 25.051908], [121.585812, 25.051991], [121.585844, 25.051803], [121.586012, 25.051759], [121.585061, 25.051685], [121.584988, 25.051832], [121.584683, 25.051747], [121.58462, 25.051889], [121.584719, 25.051672], [121.584184, 25.052011], [121.583948, 25.051899], [121.583267, 25.052028], [121.582571, 25.051793], [121.581493, 25.051702], [121.581338, 25.05219], [121.581534, 25.052266], [121.581578, 25.051915], [121.581304, 25.051845], [121.581252, 25.052021], [121.581102, 25.051937], [121.580991, 25.052159], [121.58086, 25.052005], [121.580884, 25.051921], [121.580767, 25.051848], [121.580914, 25.05179], [121.580921, 25.051641], [121.580825, 25.051633], [121.58131, 25.051671], [121.581337, 25.051744], [121.581356, 25.051484], [121.58142, 25.05149], [121.581468, 25.051305], [121.581417, 25.051206], [121.580895, 25.051013], [121.580824, 25.051213], [121.580628, 25.051276], [121.580634, 25.051394], [121.580314, 25.051375], [121.580313, 25.0516], [121.580536, 25.051642], [121.58071, 25.05143], [121.581634, 25.051447], [121.581651, 25.051323], [121.582083, 25.051523], [121.582221, 25.051248], [121.58207, 25.051187], [121.582334, 25.051293], [121.58345, 25.04988], [121.58322, 25.049777], [121.58243, 25.049658], [121.58239, 25.049798], [121.58216, 25.049857], [121.582123, 25.049948], [121.582249, 25.050093], [121.582099, 25.050321], [121.582282, 25.050418], [121.582132, 25.050559], [121.582113, 25.050695], [121.582203, 25.050715], [121.582509, 25.050628], [121.582688, 25.050325], [121.582848, 25.050358], [121.582727, 25.050222], [121.582752, 25.050065], [121.582964, 25.050191], [121.583062, 25.049981], [121.582813, 25.049915], [121.582614, 25.05001], [121.582555, 25.04992], [121.582012, 25.049766], [121.581916, 25.050027], [121.581734, 25.049945], [121.581569, 25.049603], [121.580636, 25.049613], [121.580566, 25.050152], [121.580668, 25.050178], [121.580773, 25.050383], [121.581614, 25.050603], [121.581554, 25.050868], [121.581428, 25.050919], [121.57996, 25.050304], [121.580202, 25.050982], [121.580543, 25.051081], [121.580679, 25.050935], [121.580346, 25.050792], [121.580239, 25.050818], [121.580927, 25.050207], [121.581187, 25.050313], [121.581327, 25.050138], [121.581396, 25.050155], [121.58142, 25.050366], [121.581581, 25.050403], [121.581725, 25.050106], [121.581871, 25.05027], [121.581815, 25.050506], [121.582, 25.050649], [121.581974, 25.050992], [121.582073, 25.050976], [121.582092, 25.050859], [121.582148, 25.05097], [121.581692, 25.050982], [121.58177, 25.050679], [121.581678, 25.051033], [121.582667, 25.050654], [121.582023, 25.049731], [121.580759, 25.049358], [121.580626, 25.049177], [121.580368, 25.051965], [121.581141, 25.052163], [121.587168, 25.052927], [121.587736, 25.053164], [121.587395, 25.051959]]}}]}