{"type": "FeatureCollection", "features": [{"type": "Feature", "properties": {"district": "63000060", "segment": 1, "total_segments": 12, "km": 12.64, "villages": ["保安里", "重慶里"]}, "geometry": {"type": "LineString", "coordinates": [[121.516084, 25.072549], [121.51516, 25.072597], [121.515155, 25.072485], [121.515298, 25.072502], [121.514203, 25.07238], [121.514183, 25.072507], [121.514029, 25.072504], [121.514018, 25.072193], [121.515226, 25.072121], [121.515168, 25.07293], [121.515304, 25.072938], [121.515258, 25.073074], [121.514055, 25.072998], [121.514034, 25.072869], [121.514958, 25.072914], [121.515553, 25.073106], [121.515242, 25.073614], [121.514905, 25.073594], [121.514891, 25.074112], [121.515174, 25.074121], [121.515195, 25.073724], [121.514751, 25.073796], [121.51476, 25.073989], [121.51465, 25.074007], [121.514664, 25.074111], [121.514228, 25.07409], [121.514255, 25.073962], [121.514731, 25.074103], [121.514859, 25.074286], [121.515038, 25.074362], [121.514975, 25.074511], [121.514579, 25.074426], [121.514596, 25.074336], [121.514739, 25.07436], [121.514735, 25.074518], [121.514257, 25.07452], [121.514312, 25.07433], [121.514435, 25.074343], [121.514445, 25.074428], [121.514278, 25.074332], [121.514059, 25.074338], [121.514048, 25.073247], [121.514166, 25.073553], [121.514616, 25.073571], [121.514737, 25.073698], [121.514375, 25.07371], [121.514283, 25.073688], [121.514682, 25.07324], [121.514798, 25.073253], [121.514278, 25.072812], [121.514061, 25.074487], [121.515655, 25.0745], [121.515628, 25.07415], [121.515464, 25.07418], [121.515451, 25.074282], [121.51534, 25.074135], [121.51514, 25.074228], [121.515167, 25.07443], [121.515344, 25.074371], [121.515365, 25.074285], [121.515419, 25.074432], [121.516721, 25.073405], [121.517306, 25.073311], [121.517308, 25.072749], [121.517114, 25.072753], [121.5171, 25.072647], [121.518036, 25.072619], [121.517972, 25.072713], [121.51746, 25.072735], [121.51747, 25.072993], [121.517839, 25.07298], [121.517871, 25.073082], [121.518325, 25.07306], [121.51841, 25.073186], [121.518409, 25.073259], [121.518233, 25.073289], [121.517483, 25.073313], [121.517437, 25.073662], [121.517599, 25.073449], [121.517925, 25.073423], [121.518355, 25.073422], [121.518515, 25.07358], [121.517905, 25.073676], [121.517875, 25.073793], [121.517748, 25.073791], [121.517944, 25.074018], [121.51845, 25.073993], [121.518465, 25.074095], [121.517911, 25.074138], [121.517418, 25.073941], [121.517648, 25.074172], [121.5174, 25.074284], [121.517442, 25.074566], [121.518871, 25.074169], [121.51894, 25.073997], [121.518695, 25.073688], [121.518802, 25.073507], [121.518649, 25.073356], [121.518609, 25.073392], [121.518853, 25.073093], [121.518374, 25.072056], [121.51704, 25.072094], [121.517091, 25.072336], [121.517293, 25.07233], [121.517291, 25.072432], [121.517094, 25.07244], [121.518105, 25.072414], [121.518126, 25.072312], [121.517442, 25.072329], [121.517471, 25.073091], [121.518138, 25.072983], [121.5183, 25.072852], [121.518269, 25.072776], [121.519103, 25.072489], [121.519308, 25.072861], [121.519499, 25.072492], [121.519818, 25.072506], [121.519861, 25.072613], [121.519791, 25.072081], [121.518931, 25.072042], [121.519064, 25.072293], [121.519095, 25.073429], [121.519421, 25.073976], [121.519134, 25.074067], [121.5189, 25.073753], [121.518101, 25.073791], [121.519622, 25.073498], [121.519785, 25.073758], [121.5196, 25.073403], [121.519491, 25.074113], [121.519745, 25.074749], [121.519478, 25.074889], [121.519569, 25.075216], [121.519808, 25.075149], [121.519869, 25.0751], [121.518293, 25.075547], [121.518241, 25.075327], [121.518402, 25.075285], [121.518336, 25.075171], [121.519303, 25.074923], [121.519347, 25.075042], [121.518543, 25.075249], [121.518425, 25.074954], [121.518335, 25.074975], [121.518317, 25.074915], [121.5182, 25.074949], [121.518251, 25.075001], [121.518135, 25.075034], [121.518121, 25.074972], [121.518218, 25.075202], [121.517726, 25.075045], [121.517693, 25.07496], [121.517465, 25.074872], [121.517463, 25.074682], [121.517824, 25.074575], [121.518257, 25.074618], [121.518425, 25.074411], [121.519258, 25.074168], [121.519346, 25.0746], [121.519275, 25.074699], [121.519299, 25.074772], [121.519404, 25.074763], [121.5192, 25.074585], [121.518923, 25.074523], [121.519161, 25.074454], [121.519, 25.074893], [121.518559, 25.074781], [121.517595, 25.075218], [121.517343, 25.075254], [121.517514, 25.075724], [121.51707, 25.075848], [121.517101, 25.075758], [121.516919, 25.075805], [121.516861, 25.075591], [121.517035, 25.075566], [121.516882, 25.075316], [121.515941, 25.075337], [121.51594, 25.075452], [121.516544, 25.075435], [121.516545, 25.075688], [121.515999, 25.075712], [121.516101, 25.07581], [121.51666, 25.075759], [121.516693, 25.075957], [121.515822, 25.076153], [121.515797, 25.075069], [121.515653, 25.075042], [121.515658, 25.07526], [121.515462, 25.075314], [121.5146, 25.075316], [121.51446, 25.075458], [121.514084, 25.075466], [121.51409, 25.07583], [121.514477, 25.075846], [121.514446, 25.075717], [121.51433, 25.075718], [121.51448, 25.075563], [121.514769, 25.075639], [121.515499, 25.075621], [121.515526, 25.076052], [121.515455, 25.076053], [121.515346, 25.076258], [121.514974, 25.076303], [121.514931, 25.076413], [121.514846, 25.076318], [121.514469, 25.076301], [121.514195, 25.075993], [121.515177, 25.076082], [121.515189, 25.075041], [121.515473, 25.075038], [121.515403, 25.074924], [121.515019, 25.074916], [121.514805, 25.074917], [121.514788, 25.075041], [121.515042, 25.075039], [121.514591, 25.075027], [121.514619, 25.074642], [121.515816, 25.074612], [121.516215, 25.074642], [121.516149, 25.074735], [121.516256, 25.074901], [121.516872, 25.074886], [121.516931, 25.074693], [121.517129, 25.074674], [121.517237, 25.074881], [121.516752, 25.074677], [121.5164, 25.074655], [121.516098, 25.074903], [121.516102, 25.075022], [121.516218, 25.075018], [121.515955, 25.075013], [121.5158, 25.074905], [121.515785, 25.074675], [121.516573, 25.07502], [121.51696, 25.076158], [121.517185, 25.076105], [121.516391, 25.076301], [121.516944, 25.076704], [121.51718, 25.076695], [121.517906, 25.07593], [121.51775, 25.075662], [121.51989, 25.075533], [121.520434, 25.075392], [121.520483, 25.075523], [121.521078, 25.075365], [121.521102, 25.075506], [121.521165, 25.075487], [121.520545, 25.075691], [121.520638, 25.075946], [121.521195, 25.075785], [121.521228, 25.075956], [121.520686, 25.076098], [121.520824, 25.076419], [121.521113, 25.07615], [121.52125, 25.076158], [121.521327, 25.075936], [121.521481, 25.076015], [121.521041, 25.075109], [121.520409, 25.075318], [121.520872, 25.074891], [121.52071, 25.074686], [121.520607, 25.074324], [121.520393, 25.074072], [121.514388, 25.074843], [121.514074, 25.074785], [121.514076, 25.0752], [121.514393, 25.075163], [121.51617, 25.078637], [121.515058, 25.079499]]}}, {"type": "Feature", "properties": {"district": "63000060", "segment": 2, "total_segments": 12, "km": 14.26, "villages": ["老師里", "鄰江里"]}, "geometry": {"type": "LineString", "coordinates": [[121.513747, 25.078064], [121.513137, 25.078682], [121.512263, 25.078468], [121.511477, 25.078032], [121.511325, 25.077287], [121.511208, 25.077127], [121.511747, 25.076992], [121.511721, 25.076907], [121.510943, 25.076949], [121.51077, 25.076657], [121.510333, 25.076717], [121.509702, 25.076966], [121.510051, 25.077218], [121.51024, 25.077189], [121.510252, 25.077074], [121.510192, 25.07708], [121.510747, 25.077023], [121.510727, 25.077112], [121.510371, 25.07715], [121.510394, 25.077366], [121.51096, 25.0773], [121.510976, 25.0774], [121.510535, 25.077451], [121.510791, 25.077105], [121.510896, 25.077094], [121.510917, 25.077005], [121.510849, 25.077012], [121.511025, 25.076647], [121.511809, 25.076681], [121.511868, 25.076982], [121.511464, 25.077247], [121.512248, 25.076918], [121.512265, 25.076633], [121.51285, 25.076635], [121.512773, 25.076356], [121.513349, 25.076313], [121.513301, 25.075932], [121.513046, 25.07594], [121.513024, 25.076138], [121.512916, 25.076139], [121.512937, 25.075932], [121.513022, 25.075796], [121.513181, 25.075792], [121.513182, 25.075695], [121.512973, 25.075686], [121.51289, 25.075462], [121.512702, 25.075816], [121.512692, 25.075908], [121.512767, 25.07591], [121.512587, 25.07592], [121.512591, 25.076123], [121.512738, 25.076142], [121.512697, 25.076358], [121.512167, 25.076366], [121.511934, 25.075541], [121.513299, 25.075694], [121.513299, 25.07579], [121.513405, 25.075787], [121.513417, 25.075693], [121.513642, 25.075708], [121.513643, 25.075833], [121.513432, 25.075919], [121.513623, 25.075961], [121.513646, 25.076178], [121.513642, 25.075666], [121.513547, 25.075367], [121.513608, 25.073795], [121.513307, 25.073623], [121.513328, 25.073513], [121.513102, 25.073519], [121.513159, 25.073626], [121.512837, 25.073632], [121.512932, 25.073516], [121.512819, 25.073496], [121.512789, 25.073136], [121.512659, 25.073166], [121.512605, 25.072794], [121.512755, 25.072665], [121.512757, 25.072204], [121.512959, 25.072214], [121.512968, 25.072322], [121.512976, 25.072181], [121.513186, 25.072175], [121.513247, 25.07254], [121.51359, 25.072474], [121.513596, 25.072831], [121.512757, 25.07275], [121.512791, 25.072939], [121.513595, 25.073018], [121.513608, 25.073488], [121.513404, 25.073486], [121.513347, 25.073402], [121.513361, 25.073171], [121.513288, 25.073168], [121.513185, 25.072601], [121.512635, 25.072561], [121.512572, 25.072194], [121.511219, 25.072233], [121.511266, 25.072465], [121.511632, 25.072455], [121.511605, 25.072589], [121.511445, 25.072595], [121.511438, 25.072713], [121.512459, 25.072673], [121.512233, 25.072563], [121.511734, 25.072582], [121.5113, 25.072693], [121.511315, 25.072768], [121.511256, 25.072551], [121.511471, 25.073055], [121.511777, 25.073046], [121.511831, 25.073115], [121.511842, 25.073212], [121.511431, 25.073272], [121.511609, 25.07404], [121.512249, 25.073967], [121.512373, 25.074016], [121.512353, 25.073917], [121.512603, 25.074061], [121.512699, 25.073973], [121.512686, 25.073815], [121.512493, 25.073654], [121.512439, 25.073545], [121.512562, 25.073543], [121.512537, 25.073361], [121.512412, 25.073274], [121.512651, 25.073212], [121.512674, 25.073421], [121.512512, 25.073043], [121.512137, 25.073049], [121.512167, 25.073148], [121.512069, 25.073239], [121.512183, 25.073289], [121.512227, 25.073547], [121.511659, 25.073561], [121.511739, 25.073666], [121.512168, 25.073658], [121.512349, 25.073709], [121.512346, 25.073814], [121.512459, 25.073814], [121.512135, 25.074061], [121.511856, 25.073905], [121.511747, 25.074299], [121.511354, 25.074009], [121.511394, 25.073104], [121.511975, 25.073075], [121.512131, 25.07296], [121.512538, 25.072962], [121.513191, 25.073779], [121.513274, 25.073773], [121.513269, 25.07403], [121.513394, 25.074028], [121.512839, 25.074022], [121.513593, 25.072239], [121.510284, 25.072278], [121.509321, 25.077274], [121.508982, 25.077647], [121.509278, 25.077644], [121.509388, 25.077512], [121.509335, 25.07748], [121.509662, 25.077541], [121.509485, 25.072069], [121.510814, 25.07201], [121.51082, 25.071765], [121.510415, 25.071705], [121.510426, 25.071648], [121.510745, 25.071669], [121.510817, 25.071585], [121.510794, 25.070229], [121.510781, 25.070115], [121.510643, 25.070002], [121.510794, 25.069858], [121.510792, 25.069768], [121.510962, 25.069746], [121.510997, 25.070533], [121.511157, 25.070443], [121.511171, 25.070162], [121.511294, 25.070141], [121.511175, 25.07006], [121.511202, 25.069784], [121.511044, 25.069797], [121.510962, 25.069583], [121.510792, 25.069597], [121.510776, 25.068849], [121.510301, 25.068822], [121.510479, 25.069267], [121.510236, 25.069265], [121.510305, 25.069612], [121.509438, 25.069654], [121.509394, 25.069285], [121.51011, 25.069276], [121.510082, 25.069091], [121.510198, 25.069061], [121.510217, 25.068975], [121.510222, 25.069197], [121.510549, 25.069184], [121.510558, 25.069267], [121.510966, 25.069378], [121.51123, 25.069332], [121.511128, 25.069162], [121.510994, 25.069182], [121.510957, 25.069113], [121.510957, 25.06891], [121.51105, 25.06903], [121.511167, 25.068806], [121.51217, 25.068797], [121.512211, 25.069377], [121.512033, 25.069432], [121.512114, 25.069585], [121.511895, 25.069613], [121.511852, 25.069334], [121.511956, 25.069332], [121.511875, 25.069185], [121.511355, 25.069196], [121.511477, 25.069346], [121.511416, 25.06938], [121.511574, 25.06983], [121.511589, 25.069969], [121.511467, 25.069978], [121.511313, 25.069486], [121.511742, 25.069336], [121.512208, 25.06964], [121.512175, 25.070343], [121.512057, 25.070272], [121.51169, 25.070296], [121.51169, 25.070483], [121.511582, 25.07048], [121.511504, 25.070138], [121.511638, 25.070101], [121.511665, 25.070205], [121.511807, 25.070016], [121.51196, 25.069982], [121.511904, 25.06991], [121.511962, 25.069897], [121.511781, 25.069911], [121.511376, 25.070263], [121.511472, 25.070383], [121.511354, 25.070522], [121.511378, 25.070684], [121.511186, 25.070711], [121.511323, 25.070889], [121.511479, 25.070865], [121.511409, 25.070808], [121.511459, 25.070684], [121.511533, 25.070683], [121.511687, 25.071008], [121.511762, 25.070922], [121.511701, 25.070718], [121.511814, 25.070626], [121.513309, 25.070612], [121.51327, 25.071075], [121.513187, 25.07108], [121.513185, 25.070779], [121.512827, 25.070746], [121.512771, 25.071246], [121.513171, 25.071247], [121.512957, 25.071498], [121.512991, 25.071981], [121.513149, 25.07198], [121.513191, 25.071481], [121.513286, 25.071491], [121.513355, 25.071965], [121.513511, 25.071966], [121.513588, 25.071874], [121.513565, 25.070591], [121.513372, 25.071244], [121.513298, 25.071244], [121.513306, 25.071343], [121.513386, 25.071342], [121.512697, 25.071716], [121.512694, 25.071917], [121.512929, 25.071984], [121.512125, 25.072005], [121.512242, 25.07185], [121.512021, 25.071792], [121.512043, 25.071624], [121.512113, 25.071594], [121.511935, 25.071578], [121.51184, 25.07138], [121.51118, 25.071417], [121.511184, 25.071266], [121.511311, 25.071264], [121.511404, 25.071012], [121.511481, 25.071047], [121.511216, 25.070907], [121.51098, 25.070918], [121.51098, 25.070733], [121.511063, 25.071208], [121.510999, 25.071283], [121.510996, 25.071798], [121.511221, 25.071701], [121.511474, 25.071828], [121.511452, 25.071564], [121.511534, 25.071629], [121.511739, 25.071591], [121.51176, 25.071714], [121.511866, 25.071705], [121.511674, 25.071728], [121.511709, 25.072014], [121.511333, 25.072023], [121.511909, 25.072007], [121.512385, 25.071258], [121.512377, 25.070913], [121.512456, 25.070838], [121.512212, 25.070828], [121.511822, 25.070946], [121.511711, 25.071292], [121.511571, 25.071305], [121.511925, 25.070499], [121.512211, 25.070451], [121.510601, 25.070424], [121.510591, 25.070252], [121.510233, 25.0703], [121.51021, 25.070191], [121.510345, 25.070182], [121.510245, 25.069981], [121.509698, 25.070025], [121.509536, 25.070542], [121.509568, 25.070747], [121.50945, 25.070746], [121.509409, 25.069765], [121.509699, 25.069749], [121.510197, 25.069736], [121.510354, 25.0698], [121.510088, 25.070198], [121.510015, 25.070203], [121.510092, 25.070307], [121.509868, 25.07032], [121.509857, 25.070213], [121.509824, 25.070542], [121.51046, 25.070507], [121.51046, 25.07063], [121.509841, 25.070664], [121.509379, 25.071272], [121.509339, 25.071562], [121.509937, 25.071601], [121.510023, 25.071535], [121.510013, 25.071673], [121.509336, 25.071623], [121.509296, 25.071896], [121.509364, 25.072072], [121.509448, 25.07207], [121.509548, 25.071759], [121.509637, 25.071776], [121.509641, 25.071893], [121.510019, 25.071792], [121.51001, 25.071878], [121.510054, 25.071676], [121.510344, 25.071699], [121.510338, 25.071637], [121.510095, 25.071618], [121.510326, 25.071895], [121.510404, 25.071897], [121.510409, 25.071831], [121.509581, 25.071441], [121.509323, 25.068899], [121.510026, 25.068828], [121.509965, 25.069198], [121.50962, 25.069203]]}}, {"type": "Feature", "properties": {"district": "63000060", "segment": 3, "total_segments": 12, "km": 11.91, "villages": ["國慶里", "國順里", "隆和里"]}, "geometry": {"type": "LineString", "coordinates": [[121.510969, 25.068471], [121.511011, 25.067768], [121.511143, 25.067686], [121.511023, 25.067585], [121.511084, 25.067303], [121.513247, 25.067313], [121.513199, 25.067186], [121.513494, 25.067133], [121.513476, 25.066037], [121.51132, 25.066024], [121.51115, 25.066104], [121.511106, 25.066264], [121.511052, 25.067138], [121.511461, 25.067178], [121.511507, 25.067123], [121.511529, 25.066615], [121.511383, 25.066623], [121.511503, 25.066473], [121.511545, 25.066189], [121.511348, 25.066826], [121.511271, 25.066857], [121.511256, 25.067451], [121.511297, 25.06755], [121.511497, 25.067576], [121.511504, 25.068169], [121.511609, 25.068184], [121.511587, 25.067645], [121.5117, 25.067741], [121.512178, 25.067721], [121.512183, 25.067501], [121.511735, 25.06758], [121.511776, 25.06819], [121.511802, 25.068271], [121.512327, 25.068306], [121.512342, 25.06853], [121.513516, 25.068459], [121.513495, 25.067333], [121.513275, 25.067646], [121.512321, 25.067676], [121.51239, 25.067761], [121.513273, 25.067743], [121.513256, 25.068074], [121.512338, 25.06809], [121.512355, 25.068175], [121.513289, 25.06817], [121.51325, 25.068762], [121.513303, 25.068765], [121.512333, 25.06878], [121.512324, 25.068959], [121.512401, 25.069021], [121.513229, 25.068975], [121.513534, 25.069039], [121.513527, 25.068808], [121.513535, 25.069326], [121.513255, 25.069451], [121.513074, 25.06941], [121.513004, 25.069167], [121.512875, 25.069167], [121.512808, 25.069193], [121.512807, 25.06949], [121.512409, 25.069549], [121.512358, 25.06963], [121.512407, 25.069396], [121.512696, 25.069393], [121.512691, 25.069166], [121.512353, 25.069192], [121.512812, 25.069622], [121.512841, 25.06984], [121.513027, 25.069836], [121.513028, 25.070053], [121.512748, 25.070123], [121.512795, 25.070481], [121.512388, 25.070497], [121.512403, 25.070235], [121.512846, 25.070485], [121.513256, 25.070426], [121.513253, 25.0703], [121.513096, 25.070282], [121.513518, 25.070416], [121.513552, 25.070029], [121.513077, 25.069671], [121.513072, 25.069519], [121.51264, 25.069844], [121.512484, 25.069865], [121.512183, 25.068536], [121.511037, 25.068556], [121.511233, 25.068188], [121.51138, 25.068145], [121.511444, 25.068277], [121.511752, 25.068269], [121.511244, 25.067945], [121.511289, 25.067777], [121.511212, 25.067807], [121.511333, 25.06776], [121.511351, 25.067813], [121.513196, 25.066853], [121.510874, 25.066712], [121.510799, 25.068184], [121.510624, 25.068069], [121.510542, 25.068141], [121.510708, 25.068347], [121.509794, 25.068423], [121.509746, 25.068579], [121.509298, 25.068588], [121.509247, 25.068396], [121.5094, 25.068287], [121.509403, 25.068186], [121.509743, 25.068081], [121.509608, 25.067949], [121.509706, 25.06788], [121.50971, 25.067769], [121.509602, 25.067701], [121.509696, 25.067687], [121.50971, 25.067599], [121.509682, 25.06749], [121.509426, 25.067657], [121.509422, 25.067572], [121.509273, 25.067569], [121.509263, 25.067677], [121.50933, 25.067669], [121.509403, 25.067871], [121.509508, 25.067796], [121.509566, 25.067905], [121.509527, 25.068001], [121.509226, 25.067963], [121.509184, 25.067867], [121.509255, 25.067774], [121.509158, 25.067696], [121.509168, 25.06731], [121.509112, 25.067269], [121.509357, 25.067253], [121.509476, 25.06745], [121.509705, 25.06739], [121.509552, 25.067103], [121.509415, 25.067119], [121.509316, 25.066871], [121.509336, 25.066707], [121.509082, 25.066704], [121.509073, 25.066121], [121.50901, 25.066065], [121.50906, 25.065944], [121.509174, 25.065926], [121.509382, 25.066248], [121.509562, 25.066278], [121.509647, 25.066466], [121.509756, 25.066432], [121.51002, 25.066561], [121.510066, 25.066822], [121.510169, 25.066803], [121.510386, 25.067122], [121.510651, 25.067137], [121.51064, 25.067275], [121.510301, 25.067313], [121.510335, 25.067398], [121.510427, 25.067401], [121.510497, 25.067632], [121.510419, 25.067647], [121.510367, 25.067495], [121.51011, 25.067517], [121.510043, 25.06744], [121.509836, 25.067585], [121.509865, 25.067224], [121.510262, 25.067259], [121.510154, 25.067103], [121.50979, 25.067069], [121.509768, 25.066921], [121.509548, 25.066642], [121.509408, 25.066692], [121.509443, 25.066593], [121.509568, 25.066551], [121.509301, 25.066376], [121.509498, 25.066077], [121.50938, 25.065937], [121.509257, 25.065936], [121.509551, 25.066036], [121.509726, 25.06631], [121.51031, 25.06613], [121.510406, 25.066034], [121.510662, 25.066166], [121.51075, 25.066013], [121.510608, 25.066006], [121.510928, 25.066035], [121.510882, 25.066582], [121.510779, 25.066549], [121.510415, 25.066671], [121.510259, 25.06656], [121.510657, 25.0665], [121.510703, 25.066345], [121.510422, 25.066304], [121.510256, 25.066773], [121.510573, 25.066866], [121.510559, 25.066939], [121.510484, 25.066931], [121.510637, 25.066921], [121.510438, 25.067708], [121.510525, 25.067724], [121.510589, 25.067932], [121.510502, 25.067976], [121.510453, 25.067788], [121.509886, 25.067883], [121.509913, 25.067772], [121.510234, 25.067727], [121.510292, 25.067997], [121.510065, 25.068052], [121.510091, 25.068114], [121.509885, 25.0681], [121.510158, 25.068101], [121.510376, 25.067996], [121.510509, 25.068065], [121.510333, 25.068305], [121.510477, 25.068569], [121.510016, 25.068577], [121.50921, 25.068146], [121.509227, 25.067129], [121.509108, 25.067117], [121.5091, 25.067035], [121.509805, 25.067221], [121.509827, 25.066042], [121.5096, 25.065952], [121.510471, 25.065819], [121.510929, 25.065822], [121.511003, 25.064703], [121.511201, 25.064697], [121.511182, 25.064994], [121.511432, 25.065139], [121.513109, 25.065136], [121.513064, 25.065813], [121.513225, 25.065844], [121.513463, 25.065761], [121.513449, 25.064763], [121.511433, 25.064701], [121.511434, 25.064593], [121.51203, 25.06462], [121.512048, 25.064008], [121.511918, 25.063884], [121.51152, 25.063856], [121.511593, 25.063764], [121.511619, 25.063429], [121.511823, 25.06343], [121.5118, 25.063697], [121.512066, 25.063743], [121.512114, 25.063145], [121.511848, 25.063135], [121.511281, 25.063421], [121.51121, 25.064567], [121.511433, 25.064282], [121.511642, 25.064298], [121.511656, 25.064204], [121.511748, 25.06421], [121.511758, 25.064301], [121.511438, 25.064199], [121.510774, 25.064675], [121.510437, 25.064668], [121.510491, 25.065387], [121.51074, 25.0654], [121.510508, 25.06547], [121.510517, 25.065649], [121.510623, 25.06499], [121.510698, 25.065087], [121.511174, 25.065141], [121.511138, 25.065825], [121.511333, 25.065657], [121.512039, 25.065649], [121.512024, 25.065544], [121.511319, 25.065568], [121.511474, 25.065848], [121.512955, 25.065846], [121.512957, 25.065654], [121.512162, 25.06565], [121.512182, 25.065564], [121.512285, 25.065565], [121.512124, 25.065547], [121.512451, 25.065546], [121.512414, 25.065102], [121.511581, 25.06507], [121.513066, 25.065006], [121.513379, 25.064287], [121.513879, 25.064244], [121.513885, 25.064302], [121.513882, 25.064183], [121.513886, 25.064707], [121.514147, 25.064724], [121.51519, 25.064412], [121.515119, 25.064201], [121.515017, 25.064189], [121.514113, 25.064446], [121.5143, 25.064268], [121.515077, 25.064062], [121.515036, 25.063944], [121.513914, 25.063564], [121.514128, 25.063197], [121.513129, 25.063196]]}}, {"type": "Feature", "properties": {"district": "63000060", "segment": 4, "total_segments": 12, "km": 14.06, "villages": ["景星里", "南芳里", "大有里"]}, "geometry": {"type": "LineString", "coordinates": [[121.511038, 25.063439], [121.511046, 25.063704], [121.510711, 25.063665], [121.510685, 25.063754], [121.510707, 25.063586], [121.510406, 25.063683], [121.510405, 25.06355], [121.510304, 25.063534], [121.510223, 25.063405], [121.510313, 25.063356], [121.510303, 25.063278], [121.509581, 25.063409], [121.509636, 25.063566], [121.509781, 25.06363], [121.509661, 25.063978], [121.51033, 25.063976], [121.51032, 25.063906], [121.509813, 25.063895], [121.509596, 25.063982], [121.509301, 25.063971], [121.509371, 25.064607], [121.509292, 25.064663], [121.509314, 25.064943], [121.509373, 25.065123], [121.509471, 25.065138], [121.509528, 25.065257], [121.509532, 25.065381], [121.509415, 25.065429], [121.509454, 25.065618], [121.509594, 25.065637], [121.509822, 25.065519], [121.51011, 25.065599], [121.510093, 25.06554], [121.509866, 25.065461], [121.509703, 25.065493], [121.509779, 25.06562], [121.509852, 25.065669], [121.50988, 25.065617], [121.509856, 25.065794], [121.509203, 25.065765], [121.509235, 25.065689], [121.508944, 25.065277], [121.508961, 25.064109], [121.508912, 25.064196], [121.509043, 25.064729], [121.50926, 25.064465], [121.509205, 25.064034], [121.509248, 25.063892], [121.509397, 25.063862], [121.509378, 25.063628], [121.509467, 25.063636], [121.509478, 25.063563], [121.509357, 25.063446], [121.509026, 25.063509], [121.508938, 25.063904], [121.509497, 25.063886], [121.509475, 25.063744], [121.509494, 25.064143], [121.510142, 25.06416], [121.509583, 25.064247], [121.509756, 25.064629], [121.509943, 25.064768], [121.509952, 25.06489], [121.510008, 25.064864], [121.509967, 25.06498], [121.5103, 25.064881], [121.510283, 25.064618], [121.509943, 25.064643], [121.510213, 25.064726], [121.510396, 25.064576], [121.510409, 25.064021], [121.510603, 25.063999], [121.510627, 25.063913], [121.510408, 25.063905], [121.510304, 25.063583], [121.510146, 25.063575], [121.51012, 25.063681], [121.510208, 25.063724], [121.510207, 25.063619], [121.510404, 25.063448], [121.510403, 25.063285], [121.51067, 25.063213], [121.510865, 25.063277], [121.510726, 25.063921], [121.511046, 25.064035], [121.511002, 25.064583], [121.510755, 25.064573], [121.51067, 25.064488], [121.510646, 25.064272], [121.510736, 25.064246], [121.51076, 25.064384], [121.510521, 25.064574], [121.510294, 25.064192], [121.509751, 25.064721], [121.509774, 25.064782], [121.509506, 25.064685], [121.50944, 25.064776], [121.509456, 25.064939], [121.509306, 25.065351], [121.509583, 25.065531], [121.509968, 25.065372], [121.510023, 25.065206], [121.510321, 25.065157], [121.510298, 25.064944], [121.510107, 25.065084], [121.509989, 25.06508], [121.510092, 25.065385], [121.510363, 25.065299], [121.510234, 25.065578], [121.510163, 25.065534], [121.510343, 25.065566], [121.510339, 25.065816], [121.508988, 25.065747], [121.50894, 25.065439], [121.509018, 25.063113], [121.509214, 25.063037], [121.509107, 25.06258], [121.509325, 25.062661], [121.509367, 25.063047], [121.50977, 25.062967], [121.509685, 25.062371], [121.509709, 25.06222], [121.509801, 25.062229], [121.509857, 25.062137], [121.509824, 25.062041], [121.510756, 25.062073], [121.510773, 25.062161], [121.510927, 25.062179], [121.511164, 25.062011], [121.511087, 25.06217], [121.511157, 25.062197], [121.511141, 25.062408], [121.511081, 25.062376], [121.510763, 25.062616], [121.510657, 25.062808], [121.509947, 25.062931], [121.509898, 25.062851], [121.509865, 25.062638], [121.510227, 25.062582], [121.510237, 25.062508], [121.509825, 25.062547], [121.509789, 25.062302], [121.509983, 25.062316], [121.509972, 25.06213], [121.510103, 25.062134], [121.510156, 25.062214], [121.510422, 25.062151], [121.510564, 25.062313], [121.510443, 25.062332], [121.510475, 25.062678], [121.510219, 25.062772], [121.509586, 25.062395], [121.509299, 25.062367], [121.50929, 25.062119], [121.509164, 25.062142], [121.509148, 25.062292], [121.509017, 25.062267], [121.50895, 25.062348], [121.509181, 25.062399], [121.509133, 25.06249], [121.509317, 25.062483], [121.509321, 25.062605], [121.509161, 25.062097], [121.509168, 25.061779], [121.509016, 25.061752], [121.509063, 25.061677], [121.508805, 25.06164], [121.508913, 25.061767], [121.508817, 25.061857], [121.50868, 25.06181], [121.508729, 25.061624], [121.508637, 25.061574], [121.508601, 25.061103], [121.508755, 25.060844], [121.508588, 25.060883], [121.508578, 25.060663], [121.508649, 25.060582], [121.50875, 25.060587], [121.508718, 25.060687], [121.508889, 25.060597], [121.509273, 25.060649], [121.509171, 25.061649], [121.509318, 25.061697], [121.50928, 25.061989], [121.509547, 25.062129], [121.509704, 25.062132], [121.50985, 25.060644], [121.509424, 25.060626], [121.509376, 25.060682], [121.509361, 25.06155], [121.508763, 25.062077], [121.508833, 25.062844], [121.508959, 25.063111], [121.508694, 25.061901], [121.509574, 25.062031], [121.509819, 25.061884], [121.510655, 25.062156], [121.510944, 25.062011], [121.511134, 25.061694], [121.511365, 25.062059], [121.511361, 25.062306], [121.511916, 25.062388], [121.511908, 25.062458], [121.511755, 25.062475], [121.511657, 25.062664], [121.51172, 25.062736], [121.513396, 25.06276], [121.513416, 25.062439], [121.512681, 25.062405], [121.51253, 25.062272], [121.512434, 25.062394], [121.511991, 25.062372], [121.512001, 25.062232], [121.512304, 25.062245], [121.511543, 25.062216], [121.511508, 25.062509], [121.511827, 25.062431], [121.51163, 25.062621], [121.511339, 25.062344], [121.513026, 25.062257], [121.513286, 25.062321], [121.513404, 25.062226], [121.513405, 25.062123], [121.513243, 25.062541], [121.513183, 25.062538], [121.508938, 25.061013], [121.50898, 25.060952], [121.508784, 25.061047], [121.508871, 25.060458], [121.509153, 25.060475], [121.509296, 25.060367], [121.50937, 25.059687], [121.509459, 25.059727], [121.509416, 25.060486], [121.509834, 25.060509], [121.509907, 25.060313], [121.510097, 25.060374], [121.510018, 25.060268], [121.510063, 25.05987], [121.509958, 25.059733], [121.510089, 25.059684], [121.510158, 25.059541], [121.510546, 25.059584], [121.510637, 25.059345], [121.510568, 25.059322], [121.510593, 25.059237], [121.510161, 25.059185], [121.510069, 25.059253], [121.51013, 25.058322], [121.509711, 25.058288], [121.509467, 25.059662], [121.509546, 25.059609], [121.509241, 25.059496], [121.509233, 25.05957], [121.509128, 25.059561], [121.509155, 25.059476], [121.509087, 25.059458], [121.508621, 25.059434], [121.508633, 25.060448], [121.509104, 25.060301], [121.509755, 25.060399], [121.509907, 25.06022], [121.50996, 25.059975], [121.50984, 25.059588], [121.509723, 25.059542], [121.510019, 25.059523], [121.510051, 25.059395], [121.510163, 25.059336], [121.510224, 25.059469], [121.510467, 25.059497], [121.510705, 25.059268], [121.511026, 25.059319], [121.511003, 25.059519], [121.510785, 25.05969], [121.511301, 25.059952], [121.511259, 25.060504], [121.511056, 25.060579], [121.510451, 25.060542], [121.510464, 25.060338], [121.510385, 25.060387], [121.510364, 25.060293], [121.510474, 25.060229], [121.51053, 25.059809], [121.510452, 25.059842], [121.51041, 25.060172], [121.510183, 25.060128], [121.510149, 25.060526], [121.509978, 25.060517], [121.510736, 25.060471], [121.510771, 25.059875], [121.510533, 25.059668], [121.510315, 25.059833], [121.510354, 25.059885], [121.510167, 25.059861], [121.510264, 25.059824], [121.510077, 25.059763], [121.510018, 25.059601], [121.509692, 25.059759], [121.509392, 25.059513], [121.509577, 25.058273], [121.508874, 25.058199], [121.508768, 25.058487], [121.508568, 25.058446], [121.508565, 25.058366], [121.508569, 25.05862], [121.50876, 25.058717], [121.508579, 25.058887], [121.508598, 25.059172], [121.508694, 25.05905], [121.509004, 25.059011], [121.508985, 25.059188], [121.509136, 25.059205], [121.509024, 25.059573], [121.508811, 25.059543], [121.509071, 25.058048], [121.509126, 25.058054], [121.508952, 25.058034], [121.508929, 25.05796], [121.509053, 25.05784], [121.509067, 25.057759], [121.508986, 25.057739], [121.50909, 25.057616], [121.509017, 25.057558], [121.50917, 25.057461], [121.5091, 25.05734], [121.509173, 25.057265], [121.50924, 25.057332], [121.508933, 25.057215], [121.508948, 25.056976], [121.509786, 25.057027], [121.509636, 25.057997], [121.509799, 25.058135], [121.509895, 25.057015], [121.511403, 25.057031], [121.511473, 25.057095], [121.511444, 25.057572], [121.5111, 25.057611], [121.511124, 25.057682], [121.511259, 25.057677], [121.511095, 25.057888], [121.510999, 25.057889], [121.510994, 25.057976], [121.511187, 25.057969], [121.511036, 25.058193], [121.511025, 25.058346], [121.511115, 25.058353], [121.511156, 25.058456], [121.5111, 25.058934], [121.511296, 25.059035], [121.51136, 25.058934], [121.51144, 25.0577], [121.510787, 25.057704], [121.510795, 25.057623], [121.510675, 25.057603], [121.510691, 25.057147], [121.510938, 25.057149], [121.510978, 25.057433], [121.510914, 25.057402], [121.510948, 25.057112], [121.510976, 25.057571], [121.51092, 25.05758], [121.510919, 25.057486], [121.510871, 25.05762], [121.51101, 25.057615], [121.510662, 25.057863], [121.510529, 25.057844], [121.510548, 25.057224], [121.510451, 25.058191], [121.509373, 25.058084], [121.508764, 25.057692], [121.508852, 25.057302], [121.508528, 25.057451], [121.508541, 25.057515], [121.508198, 25.057425], [121.508472, 25.057176], [121.508465, 25.056964], [121.508721, 25.056971], [121.510582, 25.058356], [121.51069, 25.058361], [121.510691, 25.058837], [121.510869, 25.058855], [121.510869, 25.058917], [121.51089, 25.058336], [121.510733, 25.058324], [121.510965, 25.058342], [121.51157, 25.058634], [121.511335, 25.059372], [121.511304, 25.059902], [121.511008, 25.060204], [121.510858, 25.060197], [121.510926, 25.060143], [121.511067, 25.060207], [121.511128, 25.059296]]}}, {"type": "Feature", "properties": {"district": "63000060", "segment": 5, "total_segments": 12, "km": 9.43, "villages": ["延平里", "朝陽里"]}, "geometry": {"type": "LineString", "coordinates": [[121.511529, 25.05939], [121.511543, 25.059101], [121.511624, 25.05908], [121.511642, 25.058941], [121.511554, 25.058896], [121.511618, 25.058238], [121.512813, 25.058263], [121.512796, 25.058512], [121.512725, 25.058574], [121.512815, 25.058599], [121.512782, 25.058885], [121.512901, 25.058914], [121.512902, 25.059078], [121.513434, 25.059142], [121.513493, 25.058333], [121.513443, 25.058288], [121.512973, 25.058311], [121.512908, 25.058848], [121.512728, 25.059067], [121.512106, 25.058967], [121.512071, 25.058786], [121.51199, 25.05876], [121.512025, 25.05852], [121.512116, 25.05845], [121.512036, 25.058398], [121.512086, 25.058666], [121.512252, 25.058693], [121.512244, 25.058749], [121.512259, 25.058405], [121.512614, 25.058552], [121.512333, 25.058783], [121.512331, 25.059161], [121.51274, 25.059221], [121.512733, 25.059429], [121.51289, 25.059356], [121.512929, 25.059228], [121.513455, 25.05939], [121.513304, 25.06018], [121.512851, 25.059718], [121.51286, 25.059594], [121.512718, 25.059639], [121.512847, 25.059779], [121.512654, 25.059866], [121.512665, 25.060149], [121.512418, 25.060253], [121.512404, 25.060384], [121.512295, 25.060381], [121.512248, 25.06064], [121.512648, 25.060625], [121.51146, 25.060581], [121.511517, 25.059522], [121.511874, 25.059587], [121.511879, 25.060088], [121.511757, 25.060081], [121.511961, 25.060232], [121.511851, 25.060357], [121.512027, 25.059755], [121.512597, 25.059823], [121.512392, 25.060027], [121.512124, 25.060015], [121.512265, 25.0597], [121.512115, 25.059683], [121.51214, 25.05948], [121.51228, 25.059497], [121.512149, 25.059257], [121.512075, 25.059249], [121.511917, 25.059386], [121.5119, 25.059515], [121.511896, 25.058968], [121.511697, 25.058949], [121.511799, 25.058079], [121.511619, 25.058057], [121.51167, 25.057094], [121.511942, 25.057043], [121.513582, 25.057117], [121.513558, 25.057546], [121.513396, 25.057628], [121.512363, 25.057671], [121.512348, 25.057744], [121.5126, 25.057751], [121.512706, 25.058071], [121.511996, 25.058085], [121.511994, 25.057825], [121.512082, 25.057735], [121.512278, 25.057743], [121.512221, 25.057669], [121.51234, 25.05756], [121.513098, 25.057455], [121.513097, 25.057518], [121.513094, 25.057376], [121.513034, 25.057376], [121.513097, 25.057285], [121.513402, 25.057263], [121.513543, 25.057662], [121.513486, 25.057783], [121.51199, 25.057659], [121.511787, 25.057798], [121.511669, 25.061393], [121.511815, 25.056875], [121.513505, 25.056898], [121.513712, 25.056143], [121.513446, 25.056211], [121.512649, 25.056053], [121.512587, 25.056097], [121.512631, 25.056338], [121.513392, 25.056418], [121.512762, 25.056523], [121.512617, 25.056412], [121.512065, 25.056541], [121.511959, 25.056471], [121.511843, 25.056582], [121.511747, 25.056528], [121.511749, 25.056409], [121.511685, 25.056818], [121.511844, 25.054072], [121.511916, 25.054007], [121.514117, 25.054143], [121.514197, 25.054269], [121.513956, 25.055267], [121.513502, 25.055207], [121.513317, 25.055087], [121.513229, 25.05515], [121.512872, 25.055107], [121.512895, 25.055292], [121.513099, 25.055209], [121.513535, 25.055313], [121.513338, 25.055584], [121.513282, 25.055563], [121.513341, 25.055411], [121.513278, 25.055748], [121.513556, 25.055816], [121.513623, 25.055637], [121.513841, 25.055704], [121.513803, 25.055859], [121.513904, 25.055455], [121.513843, 25.055048], [121.513527, 25.055011], [121.513525, 25.054952], [121.51371, 25.054949], [121.513742, 25.054643], [121.513823, 25.054602], [121.513775, 25.05499], [121.51343, 25.05493], [121.513464, 25.054574], [121.513708, 25.054546], [121.513728, 25.054338], [121.513971, 25.054357], [121.51399, 25.054303], [121.513508, 25.054239], [121.513518, 25.054442], [121.513401, 25.054446], [121.513424, 25.054233], [121.513343, 25.054947], [121.512839, 25.054878], [121.512712, 25.05491], [121.51269, 25.055024], [121.512636, 25.054889], [121.512502, 25.054964], [121.512414, 25.054928], [121.512392, 25.054994], [121.512668, 25.05514], [121.51257, 25.055214], [121.511889, 25.055125], [121.511951, 25.055527], [121.512459, 25.055614], [121.512443, 25.055522], [121.512534, 25.055451], [121.512609, 25.055484], [121.512593, 25.055571], [121.512817, 25.055638], [121.512877, 25.055404], [121.512952, 25.055385], [121.512939, 25.055456], [121.512765, 25.055295], [121.512616, 25.05543], [121.512555, 25.055285], [121.512387, 25.055234], [121.512315, 25.054693], [121.512216, 25.05458], [121.512268, 25.054238], [121.512348, 25.054272], [121.512337, 25.054416], [121.512416, 25.054509], [121.512572, 25.05452], [121.512724, 25.054678], [121.5128, 25.054703], [121.512819, 25.05453], [121.512795, 25.054754], [121.512345, 25.054587], [121.512369, 25.053824], [121.512946, 25.053866], [121.513091, 25.053508], [121.512971, 25.053543], [121.512809, 25.053432], [121.51292, 25.053337], [121.512782, 25.053299], [121.512674, 25.053299], [121.512597, 25.053424], [121.512642, 25.053603], [121.512453, 25.0535], [121.512219, 25.053504], [121.512205, 25.053162], [121.51236, 25.053078], [121.512186, 25.052669], [121.512228, 25.052412], [121.512641, 25.052682], [121.512755, 25.053159], [121.51279, 25.052849], [121.513123, 25.052989], [121.513124, 25.053154], [121.513107, 25.053362], [121.512664, 25.053251], [121.51267, 25.053162], [121.5122, 25.052983], [121.511927, 25.052943], [121.511863, 25.05376], [121.512018, 25.05374], [121.512115, 25.053616], [121.512233, 25.05365], [121.511921, 25.052866], [121.511995, 25.052303], [121.51387, 25.054513], [121.513975, 25.054522], [121.513175, 25.055722], [121.512613, 25.055672], [121.51249, 25.055932], [121.512405, 25.055948], [121.512359, 25.05551], [121.512079, 25.055476]]}}, {"type": "Feature", "properties": {"district": "63000060", "segment": 6, "total_segments": 12, "km": 14.16, "villages": ["永樂里", "玉泉里"]}, "geometry": {"type": "LineString", "coordinates": [[121.51159, 25.055385], [121.511037, 25.055355], [121.511072, 25.055438], [121.511574, 25.055511], [121.511472, 25.056863], [121.510924, 25.056842], [121.510989, 25.0556], [121.510594, 25.055625], [121.510157, 25.055535], [121.509992, 25.05594], [121.509906, 25.05677], [121.509805, 25.056718], [121.509969, 25.055273], [121.509933, 25.05497], [121.510007, 25.054931], [121.510091, 25.054197], [121.510194, 25.054186], [121.51025, 25.054335], [121.510374, 25.054283], [121.510424, 25.053976], [121.5107, 25.053934], [121.510509, 25.054055], [121.510501, 25.054357], [121.510909, 25.054394], [121.511067, 25.054301], [121.511036, 25.054802], [121.511614, 25.054834], [121.511664, 25.05405], [121.511502, 25.053965], [121.511136, 25.05394], [121.511096, 25.053485], [121.510975, 25.053485], [121.510962, 25.053677], [121.511658, 25.053763], [121.511723, 25.052851], [121.511434, 25.052841], [121.511404, 25.052746], [121.510834, 25.052759], [121.510653, 25.052769], [121.510617, 25.052908], [121.51077, 25.052945], [121.510777, 25.053043], [121.510796, 25.05291], [121.51091, 25.052901], [121.51098, 25.053003], [121.511463, 25.05273], [121.511746, 25.052669], [121.511738, 25.052225], [121.511537, 25.052138], [121.510552, 25.052136], [121.510524, 25.052227], [121.510607, 25.052241], [121.510514, 25.052331], [121.510454, 25.052914], [121.510625, 25.053098], [121.510591, 25.05318], [121.510453, 25.053193], [121.510502, 25.053306], [121.510411, 25.053396], [121.510389, 25.053591], [121.510403, 25.053649], [121.510706, 25.053688], [121.51022, 25.053977], [121.510199, 25.054148], [121.510079, 25.054063], [121.510174, 25.053447], [121.510063, 25.053371], [121.509024, 25.053445], [121.50883, 25.053577], [121.508844, 25.053726], [121.508991, 25.053793], [121.509556, 25.053739], [121.509596, 25.053814], [121.509928, 25.053784], [121.50996, 25.053709], [121.509203, 25.053849], [121.509281, 25.054099], [121.509649, 25.054138], [121.509688, 25.054081], [121.509006, 25.054085], [121.508867, 25.053933], [121.508904, 25.054239], [121.509019, 25.054203], [121.509032, 25.054271], [121.508917, 25.054352], [121.509012, 25.05488], [121.509433, 25.054928], [121.509423, 25.055], [121.509027, 25.055013], [121.509017, 25.055211], [121.509181, 25.055283], [121.509182, 25.055204], [121.509337, 25.055311], [121.50924, 25.05535], [121.509495, 25.055353], [121.509445, 25.055235], [121.509541, 25.055014], [121.509777, 25.055046], [121.509807, 25.054963], [121.50954, 25.054921], [121.509556, 25.054714], [121.509476, 25.054701], [121.509462, 25.054805], [121.509459, 25.054563], [121.509119, 25.054536], [121.509139, 25.054449], [121.509789, 25.054522], [121.509757, 25.054591], [121.509566, 25.054633], [121.50957, 25.054354], [121.50926, 25.054247], [121.509716, 25.054146], [121.509945, 25.054171], [121.509927, 25.054103], [121.50977, 25.054089], [121.5099, 25.054607], [121.510325, 25.054501], [121.511161, 25.054475], [121.511206, 25.054347], [121.51108, 25.054161], [121.511184, 25.054621], [121.51136, 25.054682], [121.511232, 25.05468], [121.511, 25.055047], [121.510991, 25.05542], [121.511153, 25.055178], [121.511585, 25.055315], [121.511105, 25.05512], [121.510824, 25.055712], [121.510731, 25.056842], [121.510558, 25.056768], [121.510452, 25.056837], [121.509129, 25.056796], [121.509064, 25.055716], [121.509186, 25.055604], [121.509426, 25.055623], [121.509437, 25.055689], [121.509699, 25.055647], [121.509612, 25.055568], [121.509116, 25.055505], [121.509051, 25.055384], [121.50882, 25.055424], [121.508725, 25.05518], [121.508472, 25.055181], [121.508478, 25.055266], [121.508634, 25.055251], [121.508781, 25.055079], [121.508727, 25.05463], [121.508673, 25.054495], [121.508604, 25.054502], [121.508688, 25.05443], [121.508567, 25.053524], [121.5079, 25.053697], [121.507862, 25.053763], [121.507769, 25.053735], [121.507722, 25.05381], [121.507631, 25.053776], [121.50762, 25.053836], [121.507642, 25.053975], [121.507842, 25.053985], [121.507929, 25.053948], [121.507928, 25.053856], [121.508168, 25.053836], [121.508155, 25.053758], [121.508161, 25.054362], [121.50831, 25.054382], [121.508304, 25.054235], [121.508037, 25.054137], [121.507686, 25.054184], [121.507753, 25.054411], [121.508009, 25.054389], [121.508018, 25.054461], [121.507763, 25.054504], [121.507819, 25.054715], [121.508026, 25.054712], [121.508032, 25.054772], [121.507849, 25.05483], [121.5079, 25.055025], [121.508095, 25.05502], [121.5081, 25.055187], [121.507962, 25.055208], [121.508023, 25.055288], [121.508269, 25.055264], [121.508386, 25.055336], [121.508394, 25.055417], [121.508287, 25.05546], [121.508317, 25.055847], [121.508432, 25.055812], [121.508471, 25.055931], [121.50832, 25.05602], [121.508194, 25.055893], [121.508168, 25.05603], [121.508234, 25.056266], [121.508438, 25.056213], [121.508478, 25.056756], [121.508776, 25.056802], [121.508879, 25.05672], [121.508836, 25.055579], [121.508811, 25.055503], [121.508468, 25.055514], [121.508432, 25.055733], [121.5081, 25.055749], [121.508004, 25.055377], [121.508391, 25.055274], [121.50838, 25.054965], [121.508272, 25.054957], [121.508254, 25.054798], [121.508341, 25.054759], [121.508326, 25.054626], [121.508228, 25.05461], [121.508216, 25.054494], [121.508235, 25.054674], [121.508094, 25.054705], [121.508099, 25.054766], [121.508353, 25.054867], [121.508417, 25.05452], [121.509664, 25.055299], [121.509652, 25.055422], [121.509793, 25.055216], [121.509428, 25.055765], [121.50933, 25.05622], [121.509223, 25.056222], [121.50923, 25.056555], [121.508354, 25.056391], [121.508282, 25.056438], [121.510492, 25.056284], [121.510664, 25.055799], [121.510484, 25.056723], [121.510579, 25.056572], [121.510607, 25.052639], [121.510815, 25.052583], [121.510658, 25.052414], [121.511364, 25.053213], [121.511557, 25.053208], [121.507214, 25.053888], [121.507138, 25.0536], [121.507656, 25.053588], [121.508091, 25.053467], [121.508034, 25.052906], [121.507896, 25.052906], [121.507959, 25.05272], [121.507793, 25.052658], [121.508105, 25.052478], [121.5081, 25.052415], [121.507882, 25.052296], [121.507407, 25.052482], [121.507469, 25.052937], [121.507668, 25.053034], [121.50774, 25.052885], [121.50767, 25.052789], [121.507518, 25.053064], [121.507517, 25.053219], [121.507754, 25.053275], [121.507539, 25.05335], [121.507552, 25.053424], [121.508382, 25.05338], [121.508544, 25.053185], [121.508392, 25.052131], [121.508116, 25.052204], [121.508649, 25.05218], [121.508813, 25.05328], [121.508987, 25.053279], [121.509851, 25.053203], [121.509707, 25.052974], [121.509377, 25.053032], [121.509458, 25.052726], [121.509292, 25.052643], [121.509173, 25.052775], [121.50898, 25.052731], [121.508906, 25.0524], [121.509111, 25.052378], [121.509171, 25.052564], [121.509267, 25.052516], [121.509351, 25.052447], [121.509314, 25.052099], [121.508668, 25.052113], [121.508862, 25.052761], [121.509009, 25.05291], [121.508981, 25.053186], [121.509664, 25.052651], [121.509876, 25.052678], [121.509883, 25.05258], [121.509955, 25.052585], [121.509941, 25.052782], [121.509873, 25.052728], [121.510021, 25.052443], [121.509883, 25.05244], [121.510285, 25.052431], [121.510288, 25.052111], [121.509696, 25.052164], [121.509474, 25.052107], [121.510162, 25.051939], [121.511779, 25.051932], [121.511813, 25.051625], [121.511676, 25.051544], [121.511479, 25.051528], [121.511614, 25.051601], [121.511354, 25.051592], [121.5114, 25.05152], [121.511093, 25.051584], [121.5111, 25.051521], [121.510599, 25.051219], [121.510288, 25.05117], [121.510317, 25.050816], [121.51062, 25.050868], [121.510704, 25.050369], [121.511748, 25.050165], [121.511896, 25.050357], [121.511819, 25.051518], [121.511843, 25.050531], [121.510679, 25.049775], [121.510087, 25.050454], [121.509366, 25.049657], [121.509099, 25.049578], [121.509922, 25.04911], [121.509554, 25.048464], [121.509389, 25.048455], [121.51133, 25.048679], [121.508267, 25.051233], [121.508038, 25.052697], [121.508146, 25.052908], [121.507115, 25.052585], [121.510239, 25.052837], [121.51027, 25.052537], [121.510211, 25.053117], [121.510354, 25.051561], [121.507773, 25.049791]]}}, {"type": "Feature", "properties": {"district": "63000060", "segment": 7, "total_segments": 12, "km": 12.22, "villages": ["建功里", "建明里"]}, "geometry": {"type": "LineString", "coordinates": [[121.51209, 25.050369], [121.512124, 25.050162], [121.512277, 25.050031], [121.51275, 25.050143], [121.512662, 25.050254], [121.512879, 25.050196], [121.513137, 25.050309], [121.512918, 25.050605], [121.513221, 25.05071], [121.513215, 25.050903], [121.512948, 25.050849], [121.512919, 25.050919], [121.512671, 25.05089], [121.512646, 25.050975], [121.513106, 25.051071], [121.51315, 25.051014], [121.513087, 25.050961], [121.512975, 25.050933], [121.513278, 25.051385], [121.513677, 25.051299], [121.513736, 25.051553], [121.513377, 25.051645], [121.513463, 25.0518], [121.513612, 25.051816], [121.513611, 25.052335], [121.51369, 25.052362], [121.513676, 25.052565], [121.513603, 25.052526], [121.513655, 25.052901], [121.513484, 25.053018], [121.5133, 25.052895], [121.51328, 25.052686], [121.513386, 25.051819], [121.513206, 25.051901], [121.513106, 25.052774], [121.512173, 25.052169], [121.512227, 25.052088], [121.513064, 25.051893], [121.512982, 25.05174], [121.512688, 25.051808], [121.512484, 25.051738], [121.512524, 25.051846], [121.512281, 25.051901], [121.511993, 25.051914], [121.511961, 25.051854], [121.512096, 25.050415], [121.512563, 25.050679], [121.512424, 25.051116], [121.512526, 25.05113], [121.512484, 25.05127], [121.512321, 25.051374], [121.512254, 25.0513], [121.512316, 25.05158], [121.512414, 25.051539], [121.512382, 25.051661], [121.512578, 25.051455], [121.5127, 25.051454], [121.512719, 25.05139], [121.512552, 25.051331], [121.513233, 25.051488], [121.513188, 25.051692], [121.513068, 25.05172], [121.512987, 25.05151], [121.512789, 25.051466], [121.512597, 25.050965], [121.512674, 25.050671], [121.512781, 25.050587], [121.512835, 25.050673], [121.512842, 25.050547], [121.513479, 25.050625], [121.513447, 25.050471], [121.513801, 25.051753], [121.514013, 25.053301], [121.513641, 25.053121], [121.51355, 25.053267], [121.513373, 25.053152], [121.513233, 25.053346], [121.513182, 25.053869], [121.51345, 25.0539], [121.513626, 25.053795], [121.513654, 25.053879], [121.513989, 25.05391], [121.514091, 25.053834], [121.514066, 25.053605], [121.513716, 25.053395], [121.51366, 25.053511], [121.513523, 25.05351], [121.513502, 25.053693], [121.513671, 25.052648], [121.514249, 25.052614], [121.514141, 25.051815], [121.514423, 25.051973], [121.514903, 25.051763], [121.514828, 25.051657], [121.514956, 25.051678], [121.515011, 25.05186], [121.514931, 25.05185], [121.514898, 25.052147], [121.514978, 25.052127], [121.515021, 25.051932], [121.515294, 25.051956], [121.515205, 25.05202], [121.515129, 25.052587], [121.515323, 25.05263], [121.515409, 25.052565], [121.515534, 25.052673], [121.515349, 25.052645], [121.515422, 25.052521], [121.515348, 25.052505], [121.515438, 25.052347], [121.51539, 25.052238], [121.515607, 25.052162], [121.515341, 25.051368], [121.514529, 25.051549], [121.514519, 25.052503], [121.514826, 25.052507], [121.514738, 25.052726], [121.514466, 25.052675], [121.514467, 25.052764], [121.51519, 25.052886], [121.515248, 25.052942], [121.515204, 25.053139], [121.515305, 25.053157], [121.515332, 25.053028], [121.515462, 25.052941], [121.515494, 25.052855], [121.5149, 25.05275], [121.514949, 25.052275], [121.514882, 25.052223], [121.514838, 25.052441], [121.514726, 25.051985], [121.514835, 25.051885], [121.514272, 25.052769], [121.514399, 25.053462], [121.514507, 25.053518], [121.514573, 25.053401], [121.514884, 25.053495], [121.515058, 25.053697], [121.515938, 25.053521], [121.515827, 25.053019], [121.515556, 25.052866], [121.515808, 25.052867], [121.515648, 25.052306], [121.515553, 25.053434], [121.515259, 25.053371], [121.515296, 25.053199], [121.515179, 25.053253], [121.515135, 25.053453], [121.515246, 25.053433], [121.515219, 25.053577], [121.515014, 25.053202], [121.514497, 25.0531], [121.514478, 25.053038], [121.514948, 25.053129], [121.515032, 25.052998], [121.515478, 25.053191], [121.513234, 25.049766], [121.513143, 25.049728], [121.512564, 25.049931], [121.513581, 25.0498], [121.513568, 25.049723], [121.513794, 25.050525], [121.513943, 25.05052], [121.513945, 25.050636], [121.513842, 25.050695], [121.514005, 25.051256], [121.514072, 25.051065], [121.514641, 25.050949], [121.514614, 25.051104], [121.514798, 25.051321], [121.515307, 25.051202], [121.515114, 25.050381], [121.514559, 25.050492], [121.514566, 25.050615], [121.51448, 25.050613], [121.5145, 25.050801], [121.514604, 25.050812], [121.514603, 25.050693], [121.514965, 25.050615], [121.514992, 25.050929], [121.514764, 25.050905], [121.514749, 25.050836], [121.514859, 25.050811], [121.514074, 25.050989], [121.514204, 25.051093], [121.5145, 25.051035], [121.514349, 25.050765], [121.514161, 25.05081], [121.514078, 25.050605], [121.514435, 25.050522], [121.514404, 25.050424], [121.514104, 25.050486], [121.514012, 25.050622], [121.513886, 25.050229], [121.513986, 25.050188], [121.514014, 25.049972], [121.513866, 25.050005], [121.51388, 25.050098], [121.513942, 25.050092], [121.513824, 25.050108], [121.513907, 25.049828], [121.514312, 25.049755], [121.514195, 25.049605], [121.514468, 25.050302], [121.51435, 25.050158], [121.514477, 25.05009], [121.514376, 25.049898], [121.514584, 25.049858], [121.51454, 25.04996], [121.514742, 25.050344], [121.514262, 25.050356], [121.514151, 25.050234], [121.514057, 25.050327], [121.514339, 25.050676], [121.514832, 25.050323], [121.515019, 25.05028], [121.515053, 25.050191], [121.514874, 25.049614], [121.514532, 25.049619], [121.514413, 25.049382], [121.513699, 25.049552], [121.513821, 25.04985], [121.514548, 25.049716], [121.51475, 25.049886], [121.514661, 25.049953], [121.514805, 25.049917], [121.514728, 25.050087], [121.51519, 25.049978], [121.515073, 25.049535], [121.515395, 25.049386], [121.515447, 25.049543], [121.515306, 25.049574], [121.515354, 25.049679], [121.515983, 25.049538], [121.515872, 25.049459], [121.515821, 25.049273], [121.515716, 25.049324], [121.515637, 25.049131], [121.515875, 25.049098], [121.515778, 25.049448], [121.515497, 25.04953], [121.515922, 25.050178], [121.516215, 25.05011], [121.51617, 25.050264], [121.515984, 25.050303], [121.515985, 25.050481], [121.51591, 25.050557], [121.515575, 25.050712], [121.515578, 25.050623], [121.515928, 25.050606], [121.515961, 25.050713], [121.515925, 25.0508], [121.515439, 25.050864], [121.515568, 25.051143], [121.516616, 25.050901], [121.516795, 25.050797], [121.516679, 25.050534], [121.516469, 25.050586], [121.516477, 25.050506], [121.516058, 25.050607], [121.516242, 25.050653], [121.516689, 25.050438], [121.516563, 25.050042], [121.51634, 25.050087], [121.516281, 25.050258], [121.515908, 25.050196], [121.515327, 25.050314], [121.515411, 25.050793], [121.515422, 25.050437], [121.515833, 25.050344], [121.515559, 25.050332], [121.515246, 25.050086], [121.516076, 25.049988], [121.516292, 25.049674], [121.516251, 25.04938], [121.516822, 25.049215], [121.516784, 25.04909], [121.517685, 25.048963], [121.517694, 25.049127], [121.517558, 25.049138], [121.51774, 25.049762], [121.518627, 25.049545], [121.51869, 25.049893], [121.518946, 25.049837], [121.518968, 25.049922], [121.518322, 25.050064], [121.518301, 25.049978], [121.518624, 25.049911], [121.51823, 25.049795], [121.518144, 25.04984], [121.518148, 25.049959], [121.517922, 25.049996], [121.517931, 25.050059], [121.518166, 25.050007], [121.518157, 25.050164], [121.518044, 25.05019], [121.518055, 25.050259], [121.51825, 25.050215], [121.517684, 25.050272], [121.517804, 25.050345], [121.517951, 25.050283], [121.517745, 25.050442], [121.517795, 25.050622], [121.520029, 25.050115], [121.519742, 25.049884], [121.519312, 25.049989], [121.519268, 25.049762], [121.519564, 25.049695], [121.519596, 25.049772], [121.519694, 25.049744], [121.519609, 25.049568], [121.519529, 25.049786], [121.519219, 25.049774], [121.519023, 25.049911], [121.519122, 25.049434], [121.519409, 25.049356], [121.518979, 25.04933], [121.518412, 25.049134], [121.51835, 25.048893], [121.518001, 25.049896], [121.51779, 25.049875], [121.517811, 25.050003], [121.517648, 25.050126], [121.517586, 25.049961], [121.517371, 25.049989], [121.517351, 25.049857], [121.517557, 25.049806], [121.517011, 25.049991], [121.517223, 25.050714], [121.517669, 25.050639], [121.517744, 25.050102], [121.517873, 25.050074], [121.516088, 25.050842], [121.515993, 25.050804], [121.514836, 25.051087], [121.514657, 25.051343], [121.514159, 25.051468]]}}, {"type": "Feature", "properties": {"district": "63000060", "segment": 8, "total_segments": 12, "km": 11.0, "villages": ["建泰里", "光能里"]}, "geometry": {"type": "LineString", "coordinates": [[121.5156, 25.051429], [121.515816, 25.052195], [121.516187, 25.052189], [121.516141, 25.052124], [121.516339, 25.052064], [121.516665, 25.052125], [121.516919, 25.052021], [121.517149, 25.052037], [121.517428, 25.053126], [121.516356, 25.05342], [121.516122, 25.053305], [121.515838, 25.052299], [121.516247, 25.05267], [121.516861, 25.052526], [121.516959, 25.052581], [121.517047, 25.052866], [121.516373, 25.053133], [121.516349, 25.053059], [121.516414, 25.053044], [121.51781, 25.052848], [121.517839, 25.052724], [121.51792, 25.052707], [121.517796, 25.052687], [121.517763, 25.052568], [121.517969, 25.052486], [121.517876, 25.052351], [121.517725, 25.05232], [121.517761, 25.052156], [121.518169, 25.052069], [121.518199, 25.052142], [121.517857, 25.052217], [121.518292, 25.052493], [121.518235, 25.052574], [121.518488, 25.05248], [121.518351, 25.052402], [121.518426, 25.052127], [121.518275, 25.052125], [121.518266, 25.052048], [121.51853, 25.051993], [121.518689, 25.052421], [121.518908, 25.052376], [121.518462, 25.051921], [121.51854, 25.051838], [121.518329, 25.051246], [121.518066, 25.051299], [121.518026, 25.051163], [121.518347, 25.051111], [121.517729, 25.051156], [121.517916, 25.051183], [121.517637, 25.051275], [121.517789, 25.051498], [121.517928, 25.051378], [121.517991, 25.051578], [121.518321, 25.051463], [121.518172, 25.051681], [121.518275, 25.051767], [121.518191, 25.051808], [121.51824, 25.051877], [121.517784, 25.051883], [121.517941, 25.051779], [121.518374, 25.051817], [121.517826, 25.051628], [121.517485, 25.051684], [121.517494, 25.0515], [121.517417, 25.051468], [121.517666, 25.051521], [121.517577, 25.051256], [121.517354, 25.051227], [121.517296, 25.050919], [121.517498, 25.050872], [121.517638, 25.05093], [121.517671, 25.051021], [121.517567, 25.051015], [121.517608, 25.051177], [121.517554, 25.051192], [121.517651, 25.050837], [121.517732, 25.050818], [121.51899, 25.050694], [121.519794, 25.050737], [121.519821, 25.050673], [121.519768, 25.050685], [121.520062, 25.050668], [121.520042, 25.050611], [121.520079, 25.050946], [121.5198, 25.05095], [121.51996, 25.050972], [121.519987, 25.051067], [121.520104, 25.051109], [121.520128, 25.051206], [121.520028, 25.051241], [121.520103, 25.05136], [121.519909, 25.051267], [121.520141, 25.051559], [121.520183, 25.052059], [121.520092, 25.052259], [121.519608, 25.052384], [121.519254, 25.052354], [121.519471, 25.05206], [121.519733, 25.052083], [121.519882, 25.052033], [121.519859, 25.051964], [121.519721, 25.051998], [121.519938, 25.051945], [121.519993, 25.052578], [121.518406, 25.052949], [121.518088, 25.052932], [121.517696, 25.052421], [121.517564, 25.051987], [121.51769, 25.051904], [121.517671, 25.05184], [121.517526, 25.051845], [121.517502, 25.051759], [121.517724, 25.051828], [121.516988, 25.051481], [121.516894, 25.051149], [121.516746, 25.051327], [121.51684, 25.051549], [121.516447, 25.051611], [121.516297, 25.051673], [121.516289, 25.051776], [121.516474, 25.051699], [121.516444, 25.05148], [121.516556, 25.051447], [121.51651, 25.051312], [121.5164, 25.051337], [121.516202, 25.051409], [121.516247, 25.051563], [121.516164, 25.051705], [121.51607, 25.051726], [121.515996, 25.051611], [121.515987, 25.051746], [121.515909, 25.051764], [121.51597, 25.051814], [121.516208, 25.051759], [121.516276, 25.052169], [121.516547, 25.052038], [121.516662, 25.052495], [121.516322, 25.052538], [121.515991, 25.051225], [121.516597, 25.051079], [121.515645, 25.0513], [121.519882, 25.050326], [121.520332, 25.052505], [121.520189, 25.052839], [121.519563, 25.052969], [121.519517, 25.053068], [121.518932, 25.053118], [121.517993, 25.053384], [121.518071, 25.053526], [121.518279, 25.053616], [121.518519, 25.053559], [121.518546, 25.053628], [121.519038, 25.05351], [121.519006, 25.053445], [121.518387, 25.053666], [121.518911, 25.053881], [121.519131, 25.05384], [121.519115, 25.053557], [121.519192, 25.05351], [121.519374, 25.054172], [121.519523, 25.054251], [121.51956, 25.054164], [121.519893, 25.054093], [121.520109, 25.054265], [121.520005, 25.05428], [121.520165, 25.054532], [121.520122, 25.054588], [121.519682, 25.054552], [121.519673, 25.05484], [121.519869, 25.054831], [121.51989, 25.054906], [121.519722, 25.054931], [121.519667, 25.055053], [121.519536, 25.054924], [121.518903, 25.055002], [121.519088, 25.055144], [121.519169, 25.055371], [121.518601, 25.055356], [121.518647, 25.055275], [121.518919, 25.055297], [121.518837, 25.055022], [121.518402, 25.054992], [121.518394, 25.055924], [121.518555, 25.055892], [121.518392, 25.056016], [121.518414, 25.056187], [121.51849, 25.056184], [121.518409, 25.056287], [121.518713, 25.056275], [121.518708, 25.056174], [121.518828, 25.056268], [121.519288, 25.056251], [121.519251, 25.056153], [121.519072, 25.056162], [121.519206, 25.056034], [121.519606, 25.056139], [121.51971, 25.055784], [121.520367, 25.055763], [121.520302, 25.055683], [121.519611, 25.055682], [121.519607, 25.055388], [121.519262, 25.055367], [121.519256, 25.055296], [121.52024, 25.055249], [121.520247, 25.055322], [121.520343, 25.055317], [121.519727, 25.055345], [121.519598, 25.055717], [121.519276, 25.055726], [121.519297, 25.055797], [121.5196, 25.05578], [121.519079, 25.055809], [121.519044, 25.055739], [121.519109, 25.055735], [121.519024, 25.055668], [121.518531, 25.055509], [121.51858, 25.055284], [121.518254, 25.053931], [121.518087, 25.053644], [121.519056, 25.053434], [121.519361, 25.05344], [121.519505, 25.053573], [121.519522, 25.053408], [121.51997, 25.053332], [121.519963, 25.053214], [121.520242, 25.053098], [121.520156, 25.053271], [121.52025, 25.053505], [121.520194, 25.053577], [121.519977, 25.053649], [121.519992, 25.053721], [121.519451, 25.053845], [121.519509, 25.053741], [121.520192, 25.053677], [121.520159, 25.053839], [121.51951, 25.053982], [121.519664, 25.05422], [121.519784, 25.054193], [121.519661, 25.054356], [121.519906, 25.054478], [121.519774, 25.054619], [121.519535, 25.054457], [121.519971, 25.054824], [121.519949, 25.054904], [121.520132, 25.05489], [121.520162, 25.054819], [121.520323, 25.054887], [121.520321, 25.05453], [121.520239, 25.054436], [121.520308, 25.054405], [121.520294, 25.054115], [121.520209, 25.054023], [121.520055, 25.054057], [121.520106, 25.054121], [121.51997, 25.054076], [121.520287, 25.053961], [121.520279, 25.053843], [121.519901, 25.053228], [121.519796, 25.053251], [121.52008, 25.054823], [121.520356, 25.055137], [121.520379, 25.0561], [121.519734, 25.056137], [121.519733, 25.056244], [121.52035, 25.056205], [121.520418, 25.056241], [121.520405, 25.056571], [121.519808, 25.056598], [121.519657, 25.056324], [121.519377, 25.056431], [121.519503, 25.056579], [121.519667, 25.056536], [121.519663, 25.056451], [121.519593, 25.056686], [121.519076, 25.056628], [121.519077, 25.056714], [121.519254, 25.056845], [121.519691, 25.056833], [121.519626, 25.057006], [121.519284, 25.057016], [121.519245, 25.057093], [121.519628, 25.057081], [121.519676, 25.0574], [121.519026, 25.057328], [121.519036, 25.057251], [121.518927, 25.057316], [121.518474, 25.05726], [121.518375, 25.057151], [121.518704, 25.057123], [121.518889, 25.056887], [121.519196, 25.05703], [121.519678, 25.056705], [121.520305, 25.056666], [121.520433, 25.056786], [121.520439, 25.056937], [121.519796, 25.057001], [121.519857, 25.057089], [121.519782, 25.057111], [121.519772, 25.05741], [121.520477, 25.057492], [121.520467, 25.057165], [121.520326, 25.05708], [121.51994, 25.057091], [121.519761, 25.05689], [121.519879, 25.056418], [121.520194, 25.056368], [121.519495, 25.056233], [121.518774, 25.055861], [121.518764, 25.056014], [121.518399, 25.056445], [121.518401, 25.056603]]}}, {"type": "Feature", "properties": {"district": "63000060", "segment": 9, "total_segments": 12, "km": 14.21, "villages": ["星明里", "雙連里"]}, "geometry": {"type": "LineString", "coordinates": [[121.517966, 25.056276], [121.517938, 25.055829], [121.517856, 25.055889], [121.517573, 25.055806], [121.517578, 25.055719], [121.517965, 25.05572], [121.517978, 25.05501], [121.517867, 25.054914], [121.516716, 25.055267], [121.516903, 25.056132], [121.517258, 25.055792], [121.517048, 25.055842], [121.517521, 25.055718], [121.517332, 25.055856], [121.517486, 25.056008], [121.517305, 25.056047], [121.517461, 25.056475], [121.517846, 25.056375], [121.517715, 25.056246], [121.51776, 25.056042], [121.517625, 25.055423], [121.516975, 25.055579], [121.51766, 25.05534], [121.517695, 25.055256], [121.517806, 25.055325], [121.517603, 25.056611], [121.517165, 25.056725], [121.517076, 25.057006], [121.517089, 25.057076], [121.517879, 25.05719], [121.517683, 25.05686], [121.517712, 25.056645], [121.517495, 25.056888], [121.517545, 25.056947], [121.516907, 25.056894], [121.516887, 25.056745], [121.516895, 25.056971], [121.516825, 25.057043], [121.515408, 25.056898], [121.515123, 25.055826], [121.515035, 25.056138], [121.514836, 25.056106], [121.51489, 25.056182], [121.514279, 25.056083], [121.514276, 25.056001], [121.514717, 25.056086], [121.514599, 25.056328], [121.514055, 25.056189], [121.514186, 25.05566], [121.514245, 25.055669], [121.514208, 25.055571], [121.514516, 25.054346], [121.514666, 25.054302], [121.515067, 25.055655], [121.514972, 25.055751], [121.514809, 25.055728], [121.51484, 25.055636], [121.514717, 25.055512], [121.514641, 25.055576], [121.514491, 25.055531], [121.514468, 25.0556], [121.514623, 25.055647], [121.51433, 25.055775], [121.514039, 25.056257], [121.513976, 25.056855], [121.515269, 25.05691], [121.515027, 25.05672], [121.515062, 25.056606], [121.514988, 25.056548], [121.514802, 25.056738], [121.5146, 25.05656], [121.51449, 25.056609], [121.51415, 25.056547], [121.514541, 25.056726], [121.514737, 25.056361], [121.514928, 25.056376], [121.514926, 25.056285], [121.515568, 25.056534], [121.51574, 25.055504], [121.515602, 25.05532], [121.515266, 25.05541], [121.515183, 25.055347], [121.514897, 25.054332], [121.515187, 25.054417], [121.51517, 25.054512], [121.515639, 25.054546], [121.515643, 25.054456], [121.515908, 25.054428], [121.515927, 25.054508], [121.515845, 25.054518], [121.516249, 25.054456], [121.516385, 25.055075], [121.515773, 25.055282], [121.51562, 25.055142], [121.515635, 25.05487], [121.516188, 25.054773], [121.515703, 25.054966], [121.515631, 25.054681], [121.51572, 25.054646], [121.515699, 25.054212], [121.515773, 25.05422], [121.515788, 25.054124], [121.515763, 25.054277], [121.515998, 25.05406], [121.516136, 25.054035], [121.516105, 25.05392], [121.516008, 25.053805], [121.51539, 25.053951], [121.516143, 25.054063], [121.516209, 25.054325], [121.516477, 25.054387], [121.515746, 25.057145], [121.515974, 25.057193], [121.516037, 25.057346], [121.516848, 25.057744], [121.516767, 25.057951], [121.516855, 25.058122], [121.516448, 25.058708], [121.516561, 25.058802], [121.516496, 25.058859], [121.516273, 25.05877], [121.516151, 25.058935], [121.515665, 25.058804], [121.515701, 25.058609], [121.516129, 25.058735], [121.516286, 25.058521], [121.51636, 25.058535], [121.516693, 25.058049], [121.516637, 25.058013], [121.516325, 25.05844], [121.516145, 25.058388], [121.51598, 25.058602], [121.515765, 25.058509], [121.515823, 25.05837], [121.515834, 25.058466], [121.515719, 25.058528], [121.515471, 25.058466], [121.515428, 25.058537], [121.51558, 25.058588], [121.515631, 25.058383], [121.515276, 25.058253], [121.515113, 25.058748], [121.515329, 25.058834], [121.515054, 25.058325], [121.515155, 25.057858], [121.51537, 25.057911], [121.515582, 25.057332], [121.515752, 25.057576], [121.516327, 25.057717], [121.516392, 25.057607], [121.516925, 25.057819], [121.517136, 25.05737], [121.516336, 25.057227], [121.516156, 25.057252], [121.516068, 25.057437], [121.516214, 25.057514], [121.515902, 25.057381], [121.516349, 25.057842], [121.516109, 25.058636], [121.516362, 25.058703], [121.516396, 25.05899], [121.516333, 25.059058], [121.516502, 25.059011], [121.516736, 25.058717], [121.516859, 25.058682], [121.517048, 25.058276], [121.517573, 25.058412], [121.517457, 25.059137], [121.517559, 25.059149], [121.51768, 25.058481], [121.517632, 25.058153], [121.517454, 25.058068], [121.517463, 25.057924], [121.517824, 25.057681], [121.517965, 25.057696], [121.517973, 25.057984], [121.517774, 25.05796], [121.517798, 25.057828], [121.517675, 25.057936], [121.517726, 25.058218], [121.517423, 25.058107], [121.516943, 25.058087], [121.517406, 25.058306], [121.517176, 25.058467], [121.51706, 25.058707], [121.517175, 25.058589], [121.516927, 25.058962], [121.516739, 25.058883], [121.516771, 25.058984], [121.517312, 25.059148], [121.517264, 25.059224], [121.517058, 25.059125], [121.516937, 25.059324], [121.516671, 25.059245], [121.516639, 25.059305], [121.516982, 25.059482], [121.51735, 25.059555], [121.517377, 25.059467], [121.517507, 25.059449], [121.517547, 25.059213], [121.517395, 25.059288], [121.517318, 25.059241], [121.517713, 25.059558], [121.517489, 25.05956], [121.517681, 25.059333], [121.517999, 25.059347], [121.518004, 25.059554], [121.517955, 25.058488], [121.518435, 25.058583], [121.518426, 25.059458], [121.518842, 25.059506], [121.518877, 25.059267], [121.5193, 25.059301], [121.519318, 25.059214], [121.519933, 25.059291], [121.519903, 25.05937], [121.519412, 25.05931], [121.519013, 25.059152], [121.519039, 25.058963], [121.518922, 25.058946], [121.518895, 25.059134], [121.518632, 25.059224], [121.518596, 25.059136], [121.518771, 25.058957], [121.518615, 25.05879], [121.51906, 25.058835], [121.519069, 25.058747], [121.519143, 25.058859], [121.519966, 25.058945], [121.519962, 25.059046], [121.519184, 25.058948], [121.519242, 25.058618], [121.518501, 25.058528], [121.518536, 25.058417], [121.518993, 25.058435], [121.519018, 25.058258], [121.519129, 25.058312], [121.519237, 25.058175], [121.519642, 25.058218], [121.519639, 25.058303], [121.52001, 25.058344], [121.520063, 25.058416], [121.520015, 25.058254], [121.520086, 25.058248], [121.520088, 25.057889], [121.520325, 25.057934], [121.520266, 25.057984], [121.520337, 25.058071], [121.520343, 25.058379], [121.520516, 25.058382], [121.520474, 25.057759], [121.519262, 25.057605], [121.519203, 25.057726], [121.519015, 25.057759], [121.518994, 25.057851], [121.519056, 25.057864], [121.518586, 25.057779], [121.518402, 25.057803], [121.518391, 25.057915], [121.518395, 25.058041], [121.518511, 25.058028], [121.518519, 25.05796], [121.518589, 25.058066], [121.518846, 25.058104], [121.518843, 25.058204], [121.518401, 25.05823], [121.519174, 25.058003], [121.519168, 25.058133], [121.519214, 25.057894], [121.51987, 25.05795], [121.519835, 25.058232], [121.51934, 25.058268], [121.519212, 25.058472], [121.519683, 25.058545], [121.519693, 25.058662], [121.519382, 25.058644], [121.519117, 25.058403], [121.519736, 25.058674], [121.520011, 25.058708], [121.520011, 25.058583], [121.519884, 25.058567], [121.520278, 25.05855], [121.520507, 25.058634], [121.520518, 25.058435], [121.520307, 25.058818], [121.520138, 25.058904], [121.520398, 25.059111], [121.520394, 25.059326], [121.520241, 25.059423], [121.520376, 25.059463], [121.520278, 25.060248], [121.519969, 25.060228], [121.520038, 25.059641], [121.520238, 25.059571], [121.520061, 25.059469], [121.519898, 25.059616], [121.518978, 25.059535], [121.518914, 25.060161], [121.519787, 25.060219], [121.519886, 25.059737], [121.519574, 25.060063], [121.519416, 25.060004], [121.519378, 25.059882], [121.519276, 25.060042], [121.519094, 25.059864], [121.518802, 25.059821], [121.518718, 25.06015], [121.518438, 25.060099], [121.518426, 25.05973], [121.518807, 25.059782], [121.518978, 25.059432], [121.520088, 25.05923], [121.520568, 25.057771], [121.51847, 25.05751], [121.518387, 25.057632], [121.517838, 25.057616], [121.51793, 25.057452], [121.517812, 25.057457], [121.51769, 25.057592], [121.517498, 25.057567], [121.517416, 25.057531], [121.517451, 25.057377], [121.517279, 25.057355], [121.517179, 25.057492], [121.517307, 25.057684], [121.517402, 25.057763], [121.517571, 25.057733], [121.517343, 25.057849], [121.517375, 25.058001], [121.517308, 25.058031], [121.517266, 25.057816], [121.517504, 25.057384], [121.518825, 25.05774], [121.516683, 25.059044], [121.516594, 25.059294], [121.516365, 25.059157], [121.516121, 25.059575], [121.515858, 25.059507], [121.51611, 25.059041], [121.515949, 25.059108], [121.515795, 25.059649], [121.515626, 25.059666], [121.51617, 25.059796], [121.516318, 25.059515], [121.516256, 25.059183], [121.515001, 25.059509], [121.514392, 25.058612], [121.514081, 25.058672], [121.514086, 25.058778], [121.513809, 25.058777], [121.513871, 25.057607], [121.51392, 25.057184], [121.513991, 25.057129], [121.515248, 25.057168], [121.51412, 25.057658], [121.514145, 25.05796], [121.514048, 25.058149], [121.514344, 25.058216], [121.514334, 25.058293], [121.514018, 25.058226], [121.514609, 25.058253], [121.514579, 25.058211], [121.514798, 25.058293], [121.514807, 25.0584], [121.513828, 25.059022]]}}, {"type": "Feature", "properties": {"district": "63000060", "segment": 10, "total_segments": 12, "km": 12.13, "villages": ["民權里", "蓬萊里"]}, "geometry": {"type": "LineString", "coordinates": [[121.513897, 25.059344], [121.514102, 25.059368], [121.514207, 25.059571], [121.514347, 25.059548], [121.514455, 25.0594], [121.514681, 25.059488], [121.514296, 25.060667], [121.514058, 25.060749], [121.514062, 25.060621], [121.51449, 25.06068], [121.51482, 25.059664], [121.515068, 25.059693], [121.515153, 25.059831], [121.515016, 25.060044], [121.515095, 25.060037], [121.515066, 25.060184], [121.515303, 25.060301], [121.515164, 25.060488], [121.515116, 25.060444], [121.515356, 25.060248], [121.515448, 25.060055], [121.515378, 25.060038], [121.515429, 25.059898], [121.515532, 25.05982], [121.515827, 25.059894], [121.515737, 25.05998], [121.515805, 25.060038], [121.515841, 25.060469], [121.515707, 25.060302], [121.515622, 25.06031], [121.515719, 25.060023], [121.515642, 25.059944], [121.51545, 25.06015], [121.515576, 25.060406], [121.515461, 25.060313], [121.51518, 25.060675], [121.515187, 25.060804], [121.515425, 25.060824], [121.51542, 25.060949], [121.5156, 25.060958], [121.515618, 25.060836], [121.515804, 25.060812], [121.515832, 25.060653], [121.515387, 25.060944], [121.515331, 25.061319], [121.515827, 25.061253], [121.515843, 25.061089], [121.515745, 25.061315], [121.515861, 25.06139], [121.515809, 25.061586], [121.515691, 25.061589], [121.515707, 25.061697], [121.515631, 25.061707], [121.51587, 25.061905], [121.515875, 25.062086], [121.515998, 25.062116], [121.516003, 25.061693], [121.516419, 25.061715], [121.5163, 25.061945], [121.516346, 25.062033], [121.516073, 25.062151], [121.51618, 25.062386], [121.515881, 25.062392], [121.515697, 25.062159], [121.51554, 25.062144], [121.515578, 25.062511], [121.515652, 25.062446], [121.515687, 25.062561], [121.515559, 25.062624], [121.514764, 25.06247], [121.514756, 25.062298], [121.514587, 25.062129], [121.514448, 25.062171], [121.514578, 25.062466], [121.514452, 25.062511], [121.514186, 25.061928], [121.514319, 25.061901], [121.514422, 25.062109], [121.514176, 25.062449], [121.513989, 25.0623], [121.514023, 25.061935], [121.51383, 25.061897], [121.513732, 25.061977], [121.513793, 25.062448], [121.513747, 25.06276], [121.514233, 25.062768], [121.514268, 25.062923], [121.514501, 25.06261], [121.514408, 25.062537], [121.514733, 25.06279], [121.515004, 25.06278], [121.515023, 25.062265], [121.515144, 25.06226], [121.515159, 25.062149], [121.515009, 25.062154], [121.515417, 25.062139], [121.514601, 25.061417], [121.514729, 25.060914], [121.514627, 25.060911], [121.514678, 25.060776], [121.514572, 25.06077], [121.514792, 25.06079], [121.514975, 25.060628], [121.514965, 25.060167], [121.515227, 25.05973], [121.515395, 25.05977], [121.515774, 25.060323], [121.516672, 25.060118], [121.518002, 25.060297], [121.518081, 25.060794], [121.518021, 25.061412], [121.518527, 25.061275], [121.517727, 25.06049], [121.516996, 25.061676], [121.517036, 25.062092], [121.51692, 25.062231], [121.516923, 25.062448], [121.516815, 25.062382], [121.516812, 25.062236], [121.516456, 25.062285], [121.516543, 25.062707], [121.516815, 25.062735], [121.51682, 25.062597], [121.516907, 25.062575], [121.517015, 25.062732], [121.51752, 25.062705], [121.517565, 25.062258], [121.517234, 25.062263], [121.517766, 25.062122], [121.518032, 25.062366], [121.51803, 25.06248], [121.519474, 25.062603], [121.520029, 25.060466], [121.516409, 25.06275], [121.515742, 25.062762], [121.514502, 25.061839], [121.51444, 25.061617], [121.514268, 25.061714], [121.514299, 25.061855], [121.514208, 25.061601], [121.514411, 25.060933], [121.513727, 25.060958], [121.513724, 25.061697], [121.513712, 25.060291], [121.513795, 25.059394], [121.514026, 25.059761], [121.514342, 25.059787], [121.514358, 25.059641], [121.514071, 25.060026], [121.513996, 25.060021], [121.514079, 25.060151], [121.514935, 25.063181], [121.515867, 25.063157], [121.515923, 25.063639], [121.516062, 25.063619], [121.516065, 25.063184], [121.516926, 25.063125], [121.517004, 25.06336], [121.516816, 25.063365], [121.516818, 25.063454], [121.516282, 25.06347], [121.516318, 25.063374], [121.516161, 25.063371], [121.516242, 25.063652], [121.516966, 25.063631], [121.516978, 25.063765], [121.516312, 25.063778], [121.51632, 25.064189], [121.516992, 25.064168], [121.516998, 25.06392], [121.517207, 25.063624], [121.517363, 25.063621], [121.517434, 25.063735], [121.517423, 25.064073], [121.517365, 25.064075], [121.517854, 25.064117], [121.517839, 25.064308], [121.517953, 25.064275], [121.518099, 25.064404], [121.518122, 25.065723], [121.517917, 25.065792], [121.517519, 25.065794], [121.517842, 25.065547], [121.517826, 25.064765], [121.518539, 25.064868], [121.518519, 25.063775], [121.518632, 25.063606], [121.518515, 25.06356], [121.518509, 25.063356], [121.518702, 25.063075], [121.519161, 25.063064], [121.519011, 25.063225], [121.518846, 25.063938], [121.518897, 25.06514], [121.518573, 25.065182], [121.51855, 25.065248], [121.518564, 25.065906], [121.519026, 25.065769], [121.518961, 25.06534], [121.51906, 25.065867], [121.516735, 25.065802], [121.516595, 25.065686], [121.516341, 25.065815], [121.51578, 25.065804], [121.515786, 25.065634], [121.515552, 25.065002], [121.515432, 25.064992], [121.515266, 25.064506], [121.515372, 25.064494], [121.515374, 25.064331], [121.515832, 25.064327], [121.515797, 25.064221], [121.515917, 25.064209], [121.515971, 25.065142], [121.515893, 25.065254], [121.515976, 25.065306], [121.515956, 25.065709], [121.515643, 25.06565], [121.515595, 25.065824], [121.515433, 25.06568], [121.515356, 25.065497], [121.515426, 25.065425], [121.515272, 25.065392], [121.515282, 25.065286], [121.515486, 25.065143], [121.515445, 25.065032], [121.515619, 25.065547], [121.515179, 25.065535], [121.515155, 25.065453], [121.515073, 25.065526], [121.51505, 25.065326], [121.515122, 25.065309], [121.515022, 25.065257], [121.515236, 25.065158], [121.515036, 25.064588], [121.514936, 25.064619], [121.514995, 25.0648], [121.51486, 25.064915], [121.514944, 25.065124], [121.514705, 25.065119], [121.514578, 25.06469], [121.514857, 25.064627], [121.514788, 25.064822], [121.514549, 25.064905], [121.514738, 25.065691], [121.514821, 25.065612], [121.5147, 25.065172], [121.514258, 25.065339], [121.51422, 25.065276], [121.514188, 25.064797], [121.514471, 25.064734], [121.513883, 25.064836], [121.513905, 25.065828], [121.515246, 25.065825], [121.514275, 25.06567], [121.51425, 25.065419], [121.514143, 25.065417], [121.514164, 25.065678], [121.514263, 25.065717], [121.514131, 25.065207], [121.515117, 25.06453], [121.5154, 25.064551], [121.515534, 25.064746], [121.515766, 25.064736], [121.515778, 25.064842], [121.515603, 25.064843], [121.516103, 25.064791], [121.51608, 25.063781], [121.51593, 25.063791], [121.515919, 25.063969], [121.515664, 25.063971], [121.515697, 25.063777], [121.515767, 25.063776], [121.515709, 25.063673], [121.515281, 25.063699], [121.515252, 25.063647], [121.515343, 25.063614], [121.515388, 25.063397], [121.515624, 25.063362], [121.515705, 25.063432], [121.515349, 25.063403], [121.515021, 25.063512], [121.514919, 25.063272], [121.515079, 25.063658], [121.515672, 25.064031], [121.515665, 25.064227], [121.515728, 25.064231], [121.516899, 25.063452], [121.517019, 25.063449], [121.517138, 25.063121], [121.517776, 25.063327], [121.518069, 25.063275], [121.518097, 25.064132]]}}, {"type": "Feature", "properties": {"district": "63000060", "segment": 11, "total_segments": 12, "km": 14.94, "villages": ["揚雅里", "斯文里", "至聖里"]}, "geometry": {"type": "LineString", "coordinates": [[121.515608, 25.066015], [121.515142, 25.06602], [121.514726, 25.066223], [121.514688, 25.066338], [121.514541, 25.06633], [121.514549, 25.066392], [121.51472, 25.066389], [121.514886, 25.066492], [121.514885, 25.067137], [121.515708, 25.067228], [121.515706, 25.067367], [121.514128, 25.067319], [121.514127, 25.067194], [121.514711, 25.06719], [121.514611, 25.066885], [121.51432, 25.066937], [121.514318, 25.066886], [121.514671, 25.066889], [121.514674, 25.066668], [121.514331, 25.066677], [121.514293, 25.066577], [121.514302, 25.066016], [121.514703, 25.065993], [121.514125, 25.065996], [121.513908, 25.066068], [121.513942, 25.068418], [121.514081, 25.0685], [121.515692, 25.068462], [121.51547, 25.06833], [121.515462, 25.068218], [121.515357, 25.06825], [121.515461, 25.068005], [121.515574, 25.067965], [121.515525, 25.067837], [121.515644, 25.067831], [121.515275, 25.067865], [121.515198, 25.067572], [121.515085, 25.067681], [121.515056, 25.067939], [121.515072, 25.068019], [121.515193, 25.068019], [121.514978, 25.068047], [121.514945, 25.068233], [121.514812, 25.068271], [121.514786, 25.068058], [121.514589, 25.068069], [121.514614, 25.067972], [121.514345, 25.067967], [121.514342, 25.068066], [121.514447, 25.068065], [121.514211, 25.068072], [121.514162, 25.067987], [121.514216, 25.067728], [121.514339, 25.067727], [121.51434, 25.067818], [121.514323, 25.067566], [121.514213, 25.067607], [121.514221, 25.067505], [121.514737, 25.067505], [121.51475, 25.067786], [121.514944, 25.06768], [121.514861, 25.067513], [121.514902, 25.067877], [121.514721, 25.067959], [121.515835, 25.067955], [121.515798, 25.068198], [121.515931, 25.066504], [121.515664, 25.066519], [121.515635, 25.066828], [121.515493, 25.066815], [121.515478, 25.066492], [121.515061, 25.066561], [121.515055, 25.066823], [121.515314, 25.066826], [121.515309, 25.066965], [121.51513, 25.066962], [121.515686, 25.06697], [121.514687, 25.066604], [121.514424, 25.066613], [121.516133, 25.066362], [121.516978, 25.066339], [121.516978, 25.066242], [121.516146, 25.066258], [121.516098, 25.06606], [121.516773, 25.066006], [121.516842, 25.066159], [121.516197, 25.06612], [121.516685, 25.066488], [121.517274, 25.066469], [121.517233, 25.066552], [121.517348, 25.066808], [121.517506, 25.066806], [121.517503, 25.066897], [121.5174, 25.066897], [121.517931, 25.066905], [121.517926, 25.06679], [121.517634, 25.066794], [121.517546, 25.066714], [121.517585, 25.066465], [121.517916, 25.066457], [121.517914, 25.066338], [121.517365, 25.066356], [121.517233, 25.066335], [121.517195, 25.066226], [121.517187, 25.066346], [121.517038, 25.066131], [121.517056, 25.065964], [121.51695, 25.065961], [121.518125, 25.06595], [121.518161, 25.067185], [121.517517, 25.067226], [121.517538, 25.067095], [121.517678, 25.06709], [121.51747, 25.0671], [121.517289, 25.06722], [121.516986, 25.06721], [121.51701, 25.067408], [121.516744, 25.067412], [121.516556, 25.067503], [121.516516, 25.067368], [121.516046, 25.067367], [121.515961, 25.068143], [121.51638, 25.068118], [121.516361, 25.068014], [121.516183, 25.068028], [121.516193, 25.067807], [121.51634, 25.067758], [121.51632, 25.06759], [121.516259, 25.067586], [121.516554, 25.067676], [121.516553, 25.06782], [121.516839, 25.067753], [121.516809, 25.067605], [121.516748, 25.067605], [121.517065, 25.067601], [121.516981, 25.067925], [121.517496, 25.067929], [121.517651, 25.067858], [121.517628, 25.067791], [121.517783, 25.067835], [121.517817, 25.06804], [121.517949, 25.067985], [121.518143, 25.068053], [121.518159, 25.067558], [121.517693, 25.067503], [121.517649, 25.067345], [121.51787, 25.067339], [121.517894, 25.067723], [121.51796, 25.067725], [121.517257, 25.067755], [121.517212, 25.068135], [121.516807, 25.068112], [121.516827, 25.068008], [121.516429, 25.068012], [121.516689, 25.068155], [121.516701, 25.06844], [121.517081, 25.068372], [121.518154, 25.068409], [121.518144, 25.068083], [121.517863, 25.068304], [121.517803, 25.068111], [121.51732, 25.068135], [121.516606, 25.068448], [121.515982, 25.068457], [121.516113, 25.067151], [121.516634, 25.067074], [121.51664, 25.067208], [121.516761, 25.067203], [121.516648, 25.067011], [121.51672, 25.066926], [121.517096, 25.066933], [121.517138, 25.066784], [121.516624, 25.066801], [121.516658, 25.066638], [121.517139, 25.066627], [121.517425, 25.067359], [121.517068, 25.067408], [121.518592, 25.067372], [121.518615, 25.068328], [121.518843, 25.0684], [121.51945, 25.068391], [121.519421, 25.068071], [121.518838, 25.068108], [121.51884, 25.068004], [121.519359, 25.068008], [121.519373, 25.067745], [121.518847, 25.067755], [121.518847, 25.067647], [121.519313, 25.067623], [121.519277, 25.067353], [121.51884, 25.067363], [121.518824, 25.067232], [121.519272, 25.067226], [121.519328, 25.06735], [121.519261, 25.066909], [121.518846, 25.066917], [121.518841, 25.066794], [121.519228, 25.066789], [121.519197, 25.066517], [121.518831, 25.066526], [121.518824, 25.066408], [121.519126, 25.066402], [121.519131, 25.066102], [121.518568, 25.066131], [121.518594, 25.067225], [121.51876, 25.066409], [121.518809, 25.068652], [121.519503, 25.068638], [121.519655, 25.069647], [121.519505, 25.069741], [121.51967, 25.069863], [121.519672, 25.069948], [121.519507, 25.069992], [121.519344, 25.069949], [121.519347, 25.070209], [121.51912, 25.070122], [121.519124, 25.070275], [121.518977, 25.070275], [121.518954, 25.070519], [121.518841, 25.070537], [121.518897, 25.070679], [121.519631, 25.070714], [121.519589, 25.070578], [121.519206, 25.070561], [121.51915, 25.070486], [121.519357, 25.070422], [121.519427, 25.070204], [121.519559, 25.070208], [121.519565, 25.07012], [121.519688, 25.070118], [121.519761, 25.070527], [121.519616, 25.071026], [121.51917, 25.071039], [121.519166, 25.070987], [121.518691, 25.071076], [121.518626, 25.068906], [121.518686, 25.068655], [121.518836, 25.069155], [121.519361, 25.069032], [121.519367, 25.069159], [121.519208, 25.069162], [121.51943, 25.069157], [121.519426, 25.069403], [121.518953, 25.069426], [121.51904, 25.069521], [121.519447, 25.069518], [121.518847, 25.069829], [121.518842, 25.069919], [121.51948, 25.070123], [121.51907, 25.070529], [121.518822, 25.071312], [121.518933, 25.071717], [121.516791, 25.071873], [121.516559, 25.071729], [121.516524, 25.071865], [121.516348, 25.07182], [121.51603, 25.071899], [121.515951, 25.071822], [121.515974, 25.070593], [121.515833, 25.070609], [121.515767, 25.071898], [121.514235, 25.071945], [121.514007, 25.071893], [121.513951, 25.068787], [121.514221, 25.068743], [121.515577, 25.068721], [121.515481, 25.068943], [121.515524, 25.069818], [121.515836, 25.069749], [121.515792, 25.068981], [121.516698, 25.068931], [121.516709, 25.069099], [121.516039, 25.069114], [121.516017, 25.06871], [121.516729, 25.068701], [121.517105, 25.068811], [121.517379, 25.068686], [121.518073, 25.06867], [121.518194, 25.068746], [121.518219, 25.070016], [121.518023, 25.069946], [121.518044, 25.069773], [121.517848, 25.069777], [121.517826, 25.069697], [121.517895, 25.069691], [121.517814, 25.070047], [121.518149, 25.070225], [121.518147, 25.070589], [121.517893, 25.070395], [121.517739, 25.070583], [121.516731, 25.07059], [121.516704, 25.070886], [121.516783, 25.070929], [121.516704, 25.070991], [121.516558, 25.070989], [121.516536, 25.070562], [121.516221, 25.070601], [121.516242, 25.071], [121.516356, 25.070998], [121.516167, 25.070948], [121.51617, 25.071003], [121.516346, 25.071273], [121.51636, 25.071493], [121.516227, 25.071494], [121.516223, 25.071578], [121.516585, 25.071568], [121.516465, 25.071493], [121.516565, 25.071333], [121.516559, 25.071053], [121.516835, 25.071159], [121.516866, 25.071282], [121.517358, 25.071234], [121.517353, 25.071076], [121.517299, 25.071078], [121.517363, 25.070996], [121.517307, 25.070755], [121.517366, 25.070751], [121.516932, 25.07077], [121.516986, 25.07084], [121.51715, 25.070839], [121.517105, 25.071083], [121.516994, 25.071086], [121.516775, 25.070788], [121.516731, 25.071559], [121.516873, 25.071639], [121.517029, 25.071554], [121.517722, 25.071535], [121.517751, 25.071424], [121.517684, 25.071426], [121.517862, 25.071543], [121.518213, 25.071366], [121.518176, 25.070972], [121.517602, 25.070946], [121.517625, 25.070808], [121.517759, 25.070844], [121.517453, 25.071461], [121.516991, 25.071416], [121.514233, 25.071565], [121.514217, 25.071651], [121.515449, 25.071676], [121.515589, 25.071586], [121.515568, 25.071273], [121.515181, 25.07128], [121.515176, 25.07119], [121.515046, 25.071191], [121.514787, 25.071204], [121.51481, 25.071297], [121.514239, 25.071313], [121.514217, 25.071224], [121.514625, 25.071211], [121.515068, 25.07131], [121.515449, 25.071144], [121.515586, 25.071178], [121.515618, 25.071273], [121.51538, 25.070948], [121.515309, 25.070974], [121.515304, 25.07079], [121.515388, 25.070789], [121.515392, 25.070581], [121.515705, 25.070577], [121.51506, 25.070435], [121.515024, 25.070582], [121.515245, 25.070579], [121.515024, 25.070778], [121.51503, 25.070935], [121.5149, 25.07094], [121.514919, 25.070578], [121.514474, 25.070578], [121.514498, 25.070462], [121.514231, 25.07046], [121.514351, 25.070774], [121.514469, 25.070774], [121.51447, 25.07101], [121.514362, 25.071059], [121.514903, 25.071005]]}}, {"type": "Feature", "properties": {"district": "63000060", "segment": 12, "total_segments": 12, "km": 2.02, "villages": ["至聖里"]}, "geometry": {"type": "LineString", "coordinates": [[121.514872, 25.070458], [121.514549, 25.070458], [121.514535, 25.070122], [121.514872, 25.070107], [121.514824, 25.070031], [121.514393, 25.070031], [121.514421, 25.070099], [121.514296, 25.070104], [121.514105, 25.07004], [121.514266, 25.069752], [121.514364, 25.06971], [121.514401, 25.069798], [121.51437, 25.069492], [121.514975, 25.069513], [121.514987, 25.06986], [121.514847, 25.0698], [121.514988, 25.069298], [121.514971, 25.06892], [121.514852, 25.068975], [121.514798, 25.069316], [121.5142, 25.06936], [121.514339, 25.069184], [121.514336, 25.06892], [121.51448, 25.068932], [121.514474, 25.069192], [121.515354, 25.069214], [121.515375, 25.06987], [121.515507, 25.069942], [121.515775, 25.069919], [121.51583, 25.069998], [121.515835, 25.069828], [121.515607, 25.07002], [121.515204, 25.070024], [121.515275, 25.070109], [121.515032, 25.07002], [121.514997, 25.07023], [121.515354, 25.069147], [121.515351, 25.068922], [121.516765, 25.069322], [121.517433, 25.069099], [121.517996, 25.069081], [121.517886, 25.0692], [121.517829, 25.0692], [121.517759, 25.068934], [121.517455, 25.068899], [121.517447, 25.068801], [121.517962, 25.068861], [121.519878, 25.071345], [121.520139, 25.071347]]}}]}